uid_students,students_id,name,phone,email,address,country,uid_schools
50299744-c585-4bc2-be81-081ec73a357d,556469,CAscLjG,564-516-268,mGanUyBeU@example.com,883 QGdONMUUFwxke St,Portual,ENAC
28adb090-a84c-442d-94d3-a0d4e69902c5,761631,BzdSkdV,745-841-9563,UVGfSTzuO@example.com,607 rzgJyzVH Blvd,Egypt,IC
95936231-8fb9-4b5d-84e6-b42b2bbc9558,724221,FsNozS,278-342-7533,yywXtgycax@example.com,901 bIpelQyflKKEU Dr,countries,SB
8c708346-6b2e-4534-ba36-8cf5cab06f4e,300651,aIFGL,420-233-2056,WAglEXbR@gmail.com,162 wgxzhVJNu St,Germany,IC
3c9cbeda-dd80-4de1-8db0-fa7dcfb941af,948927,SAjLvVcD,292-223-4003,YgcxcWnMs@gmail.com,178 LCBaFvVaJJ Rd,Vietnam,SV
5c07ccf8-94c9-4bc7-a977-3e94399ca360,428294,uHDbuX,381-993-6037,sdQbLjXyQrW@gmail.com,814 WWeITRmw Dr,Italy,ENAC
a239fec8-36c2-48db-b4f5-f3bf79d084fc,181208,nGjbSTTYm,545-766-3382,ajaAhTBXb@outlook.com,563 GJFxvmMl Dr,China,ENAC
b28d8cc0-43ba-4100-8b44-599aaf4ba0ac,637997,wbxEjkjj,847-375-8947,RRWLmWyrq@yahoo.com,499 rIGOzKCE Blvd,countries,SB
eb629403-b138-48a3-b411-5accae37df54,624155,ihHqhK,420-449-6966,sPnTFVeqeYA@yahoo.com,202 oEidrTXUYxSheE Dr,countries,SV
58d8d54d-dcc9-4969-81cd-ef6823441952,652678,VzJiIo,908-630-6827,iLXQoqsz@yahoo.com,945 whciQYdPHqYyHQ Dr,France,IC
41d9a874-7899-442e-bc02-235192c629dc,572739,wwqyhENN,628-319-3661,wAoHpjgj@yahoo.com,926 TuxgoNkfho Rd,Tunisia,ENAC
3edeffb9-e40b-435f-8cc2-5cdbffb3fba1,397031,uJVvl,697-632-8154,HWfDqAvC@yahoo.com,293 gzVKOkpIXbxQ Blvd,Australia,ENAC
9667b2c2-f9a4-4a97-9af7-d095dd79f879,955143,JWilFdeP,385-603-587,cVsfuSoaXbx@outlook.com,264 cgixuSHFD Dr,Vietnam,SV
754c90f0-9c3f-4f0d-9f2f-e9b465adc72e,780163,KdHRMLemA,510-806-6767,wsqSahjSLQu@gmail.com,209 BAwMgXnpUYUHqL St,Egypt,IC
28133d5d-e00f-479d-a4ed-f3a81a7e55a7,411213,KjhMrnaQ,690-344-842,mbTCvIJsqMa@outlook.com,765 oxJCtoqAoS Blvd,Belgium,ENAC
817d9d37-656a-42ae-a1ed-2a9e1fa77661,506048,DYmetNLpP,255-223-7005,wQKeENDqAUq@gmail.com,163 OwBwLxLwcls Blvd,Algeria,SV
72609e8e-2154-4030-8159-b761d13f3527,393971,iqtTgml,235-711-107,gtUMmMsJnci@yahoo.com,234 SwwrDNlRVIMoa Blvd,France,SV
3516004c-3d09-4b7a-89a7-1c43816e581d,425716,eXsgs,615-469-1252,RaonqCtjfYY@gmail.com,131 SVYanHKQDXbJS Rd,Algeria,SV
03423210-7da5-4ce4-8cd1-dcbc6595335f,918496,guqRHe,771-806-408,mHfajokxicl@outlook.com,545 jocprHVme Ave,Portual,SB
88b36966-f51a-4dc8-8ed1-b8bf0f7f0457,940469,xPFBX,404-734-1002,HXNpkHoxaGI@gmail.com,239 MuMdeYQDcn St,Australia,ENAC
cf662f50-edef-4bc4-8c71-66f292146a08,439351,dQKPY,863-370-3402,YWgFdXoBON@gmail.com,778 jUnqTItayLHM Dr,Luxembourg,STI
e79d7b70-cfa9-4298-87ba-85b4c6c1d113,360326,mtKpiDc,822-588-6373,bugBOElyL@yahoo.com,808 SCaWFmdbfE Ave,United Kingdom,IC
5ad1b419-eed7-4d57-81df-3d91470f9fd3,414435,WToDvDzPj,847-409-1538,HzwVMczenmh@example.com,135 BhAREdrq Rd,Egypt,ENAC
4a2da292-a5ad-4153-abe7-6fc5dce86b24,899433,LgiJWSE,495-708-1460,seIdIHNb@outlook.com,888 QdTfVpzmbQz Rd,Algeria,STI
4b88cc2e-b7c5-4411-ab9a-37e3198e7818,106207,oSUkf,353-499-7367,YszUibXLt@yahoo.com,642 kYKpPCVgWvcba Ave,countries,SV
cfc0d81f-a399-420b-ae9b-89a1a8a58742,941672,xapVCUUcW,541-776-6443,XELnWRmkRQC@example.com,743 kIyLmmKUdqWlRK Blvd,Nigeria,SB
b56cb1a0-51fe-42d3-8e49-d9f3bd13240d,597592,ukjIRHO,374-728-3046,VMrxGsagWG@gmail.com,655 WDhIAYsjwkPVl St,China,STI
4139d6a5-4c2e-4186-aadb-2c9d4ee6e260,958919,AcfwLe,388-413-3945,LubAjhcqp@yahoo.com,804 evTNsUSLItsik Blvd,Swizterland,STI
633f54e8-d89b-4def-8e0b-f8c19354d84f,921732,SILVST,768-868-2854,OSaCAiecVJQ@example.com,536 zDbuSdeMw Blvd,Italy,ENAC
8766a260-18ad-440d-bd40-3765e44c5f82,593174,juuuu,575-351-7020,yMJSjQlFQaA@yahoo.com,741 efPCEnuor St,Mexico,IC
e49554a1-046f-45f1-81f2-5d7a7dec0313,454595,fkOipl,235-701-5923,pIDACnmIQuB@example.com,983 bckGYVuorc Rd,Holland,STI
2f0016b6-5e55-470e-9387-5a281386f473,686619,AepRMhebl,691-601-3947,WfyujPqe@gmail.com,925 avOxTRmHvFrWJW Blvd,Egypt,IC
4a5f05fd-d54a-4659-9161-974a0c4e3a8c,925171,PaYuBu,460-251-2633,MEfkGnJtX@example.com,601 rIsdNnivT Dr,Germany,SV
bebfc87c-b4aa-47f4-9e46-57ab4f813e43,432923,sAIic,517-451-8715,IpyscxnYzq@outlook.com,734 GBOjdjVLFiywqK Blvd,Luxembourg,IC
24a214b4-69bc-4a92-9e6d-2a71c5dee764,507642,BNinR,304-541-5228,oSYtFNbhG@gmail.com,727 sYpaQNYJCeYK Blvd,France,IC
02c08331-1f14-4ecc-84bd-e887a3e5c716,234012,OoJHPEq,873-929-6083,qGyYhVPFTF@outlook.com,664 nwuUzPRTvC Ave,China,SB
abf5e7a9-3a1a-49e3-92d5-7252d9197704,267069,MivnrK,550-538-5864,hIYjFbBg@example.com,280 iFNwmyMFLnHEo Ave,Mexico,ENAC
c231285c-1573-4859-b2fe-08c7e58fc3c7,141993,iwEXTNa,628-473-9617,HRTLVBlv@gmail.com,643 MTDgwIWLvfm Blvd,Luxembourg,STI
61ab0fab-31e7-4171-ab25-03c0e17d8de0,598464,bxvIkxXe,630-332-5287,QsBANBsf@example.com,518 mlkIjBTgY St,Australia,SV
6491661b-05dd-42bc-a197-816837a3e4f3,791827,DgscC,759-475-9453,MTjOsQrEJkh@gmail.com,621 wwApqsiUI Dr,Luxembourg,ENAC
8e704cbe-a7c7-4d99-82e0-5e2d3e32e457,887754,NlgMWA,388-376-5147,HEuvxKuSEu@example.com,221 kbbkNIsExRHKYj Blvd,Japan,SB
2dcf501b-6c25-41ba-9cb1-9987d170a6a2,140222,asWOYel,730-226-4687,BPfWsSNh@yahoo.com,220 mVgGkoOPg Dr,Swizterland,SB
7f71b3e8-561d-4621-94dc-dad8553d7fc4,511451,OPnQt,253-997-2179,UDKPmKlaj@outlook.com,747 gfdzeKKGRRcjYv Ave,Vietnam,ENAC
b54fdfc2-f4d8-4405-9d16-45e1d7e37971,606579,RdHpKfd,455-465-4026,XBsBQgNVgvD@outlook.com,494 TNRPnTMnMrqxH Blvd,Nigeria,STI
4724d7e3-bfab-43ff-9b84-03ed9e4f4a4c,604597,MRSgi,450-722-3713,UgBUqgYw@outlook.com,170 kbxoqNEhEb Ave,Morocco,IC
7615e81b-019c-42c1-a5f5-d2d011651a59,806840,ctOaBgD,812-448-4287,FdjGjWySqr@outlook.com,750 haRYNOKFt Ave,China,SV
46e8f786-ab00-43fb-b6ea-c74bbe8f450d,958649,KHStYG,443-313-6670,phQyJpkuR@gmail.com,775 KVkxSLCUcSTtz Blvd,Swizterland,SB
e4aeb3f3-63c8-4680-87e4-7be84c342e84,507841,dYorUh,278-268-3304,FNDWzFuSDT@example.com,490 MjQQpkOv St,Italy,STI
b8bf3aab-75fe-42dd-ba5d-a6b115919ddc,152860,HbdvySf,655-803-2488,rwMBHhSxhWI@yahoo.com,125 smcbzJfYUwFAki Rd,Italy,SV
746e55ed-b599-4193-b021-5b4638cedb53,843107,sOfbLppJe,399-342-8900,utgqlYGhTG@yahoo.com,782 NRjuAVtCvflJQ Ave,Algeria,ENAC
c254aa7a-0d28-4e99-b451-c49015302543,485014,ImFbRfRM,871-938-3397,kgbOSWshJm@gmail.com,474 QXxihYHMLip St,Italy,STI
0874a89a-7613-44df-aebc-7bd0fdd091ea,788651,lQWHEN,978-746-3345,QturljGwOJN@gmail.com,666 NlIueURrjAkoeJ Blvd,Swizterland,SV
f0716c4e-a4d7-499c-87d6-3c9fc104ddeb,905942,lEDwnACNp,580-206-7898,JfEYyJBIKc@yahoo.com,641 sdIKfpnQh St,Australia,ENAC
a1c7aa45-6b56-4e5c-ac62-1ac7a41bfc00,724701,RHYjS,937-573-3176,yAixPBWCBaA@outlook.com,964 ISbzSqpXKgBLkn Blvd,countries,ENAC
7f28cd7b-6138-481e-ba6b-5e3f0dc8b09a,703538,JXLWtPwj,566-470-2762,BqCGFxzG@example.com,379 oraBaMdwGiCW Ave,Morocco,IC
0733856f-ef82-4bbb-97ca-6f0f1629fa43,514715,YwrYYE,398-676-139,ymluMamG@example.com,316 GbpPAJoxgzvnOs Dr,Tunisia,IC
122f5f29-8df8-408e-afbb-fca4906eb8bb,747402,XIRBWc,307-652-7351,FvfpvXVE@outlook.com,277 GRTASHrhYv Ave,Luxembourg,STI
26c91a78-7a47-482b-ae65-94612f38f337,932631,dkJbNzHUH,940-477-9693,EAPcvjsLNon@gmail.com,890 HVyHAlRO Ave,countries,STI
9066e162-0f6c-461c-8c32-07196ee3445a,436783,apjgc,479-593-5727,BUwdvfoPF@gmail.com,906 bFIKzHPeE St,Vietnam,IC
ff98b4a8-fc27-4e0d-a964-cd78894bc670,112010,NfYFuaDa,961-849-8024,FuFmpUHa@yahoo.com,882 fJypeMGVGQ Dr,Morocco,SB
2f4bf159-3676-4f33-b12f-6660737eb139,479341,ETvHhqdgT,499-543-5690,RXUfEdGDaYP@example.com,820 lJrDyqglHo Ave,Canada,SB
3fa97f4a-5379-41b7-a721-2ca123324bc1,483245,UoTLSzXQ,991-216-5775,QkIsAOMyH@outlook.com,458 WfWWbhfMPi Blvd,Australia,SB
5a50f288-ab74-4231-9b8a-d16adf9e8caf,323879,iAEWJACA,526-227-9850,DjcxMUGp@example.com,849 rUHiRTgHsJDUw Ave,United Kingdom,ENAC
c2f6a2ad-203b-4988-9153-c6197508b283,696942,sHDYpRWCw,980-328-9790,KWSvScEg@yahoo.com,249 KLEoLeoYWNJp St,Canada,IC
2a15e05c-cc01-4bee-974c-e81d4b0e4a5b,629559,IPoziLWo,589-435-9515,SfvWDoXYF@example.com,130 HzOwwuyEd Blvd,Australia,SV
a90886ac-5fc8-4be9-8e96-ce4d3208df50,600232,OKvjE,430-487-4038,efJCayMgl@example.com,943 UbOowdAtfnVN Blvd,countries,IC
f2e79648-1a3e-4835-a814-61e5196ff297,250160,GMbXDSiLI,552-865-3344,ibEOvpwm@yahoo.com,854 Vwesjyjh Ave,Egypt,IC
d6d1156f-efd0-4899-a352-d9930451d206,768376,iERScyf,408-331-5243,SGhRbJgNGun@example.com,977 YpBwdzgPnXgVmH Rd,Japan,SB
ea481656-293e-4bd8-b5ea-25393a22b8e0,263367,lyQFN,342-712-7520,PePJfIyt@gmail.com,393 qdninTQnMP Blvd,Swizterland,STI
14470700-16af-4070-b4aa-bb9e57c99e08,284518,hCjVdofxB,463-853-3254,ICqUVNEW@outlook.com,579 QRyjurktcvAOd Rd,Mexico,IC
e1db72c5-1ba3-4e33-9b1c-854ea521cb55,170425,lMNMuVcKw,242-950-676,MsldhfSzFnN@example.com,671 tKkWmekuvb Rd,Egypt,STI
472ae023-223f-4e59-b79f-155acc20cfc5,876676,nJxrVFVW,668-426-306,azEBMKofWO@yahoo.com,625 DOGUKBmBJOXlVx St,Japan,STI
de81dbc4-efc9-4e25-94b9-4894c2d4fced,115009,ikTjpf,393-969-6554,iDUyglDX@outlook.com,654 MbGyqVFAeb St,Egypt,IC
19f0b637-7353-4f58-8729-eedff5670014,741578,iaUBiR,661-661-4013,SSMTCIUVVkD@gmail.com,247 lzgYBsejGs St,Belgium,SV
f4cb2c45-1f79-4347-b9ac-e5cbcb564e0c,726161,nbwkL,901-978-858,YQALmuJyni@example.com,558 oorvhGVElsXUX St,Germany,SB
3cf9ad9f-3731-4995-98d3-dbbd21a9d3c8,121301,dtwQrvRNT,741-763-6291,TgpFxcgrr@gmail.com,936 DxbOIUbbFqs Blvd,Spain,SV
456eb79f-8aec-4901-a24f-4e7a5ace84e3,728348,cPGPLtV,344-654-1507,PsiYWvSw@outlook.com,780 rVhQlBlAEmKBN Ave,Japan,SV
49723dca-ead8-4cc7-8c69-6372624b0152,719896,sNAVJD,446-260-6466,yDAwmrSC@example.com,845 YKUSSvcTAN Blvd,Egypt,IC
ad4e9950-6d86-4f0b-ba54-d7cfa01d5919,202113,Oerqyzu,495-594-8551,aOKBUxnjsck@outlook.com,239 lvJiTYKk Dr,Spain,IC
2f6ca648-8046-42ff-9aa3-6981a372f06f,205570,kSJWac,587-863-9488,nBkHdzvJo@yahoo.com,992 lwjNNzHWTIifM Dr,Canada,SV
b8649351-6d35-4070-b0a5-99ad7df78956,236832,pdDaCvDhC,611-397-1585,AGWAgpQPq@outlook.com,881 jfEyUCLbRnA Rd,China,STI
709352bf-b58d-435f-b464-b7659ae5b42a,699210,cocsfH,215-483-1132,erhCGRDWLAD@gmail.com,586 rbFKqfXW Ave,Nigeria,SB
61754418-1506-4d4e-915c-b87efe0a61d4,628222,ATknm,656-738-6078,CkdAFMvtvIc@outlook.com,384 INEAkhFLMUk Blvd,United Kingdom,SB
071dde9b-9d97-421f-aa82-dba139190312,894856,TykwEwEH,760-659-3673,MWAtEEuu@outlook.com,721 PqRHQiBWUCoJb Rd,Canada,SV
37d974ee-e828-4aad-b16a-6f9345073338,818674,vSCyFusFr,912-282-6226,cQdzfAzfu@outlook.com,459 dptiWOKRp Ave,Belgium,IC
d56e4637-699a-4332-bafd-5611971a7ae1,142623,MJGluc,411-916-2871,WMVeufLqlEM@outlook.com,193 qklOhLjWeSg St,Germany,STI
0e32dadf-0815-4254-ab25-10357222648d,709221,IoNOL,934-710-9008,WRxvgOBolq@yahoo.com,238 pWuxavBdr Rd,Vietnam,IC
76b5d515-5a0c-46f0-93f5-7f5461e6b55c,182824,xIPnieD,980-741-435,FjOQIWwFsQU@example.com,200 RcwQKThtRvQByj Dr,United Kingdom,ENAC
2cdbdb44-7f93-45e5-be61-a277650fcdce,734788,FpyAOS,231-662-3629,RkhoPiCb@yahoo.com,883 pfgdifLDNzH Blvd,Portual,IC
0de83235-483f-4cc9-b1b6-f238c2fb7b61,992811,pVjBmA,358-952-4922,IawBVQlOyOQ@outlook.com,908 CiGOlCIA Rd,France,SV
50616ea2-3e91-4f14-b4b1-949b76accf64,856073,SMXFKfo,536-216-3055,BopUfxEqvLi@yahoo.com,624 LUQzhxTkvyRxnC St,Japan,SV
328a9277-1b9c-4ca1-b6b3-6ad3f03e4d92,669177,gaGmcyST,523-750-7016,ninEGtRwfMW@yahoo.com,735 BzcjOjlphYnQl Dr,United States,SB
af400816-56c1-40cd-a228-5af04278fd70,794225,HOIQoBU,987-540-5110,uCVNFTGf@example.com,221 ECEPjvtFHBMl Rd,Tunisia,ENAC
104b17bc-6b7c-48e2-940f-76d48287e449,749273,jEgny,471-532-1419,gDgwHpReW@example.com,931 haeqATqmDsNN Rd,Tunisia,SV
9327dae8-d5f1-4d0b-81dd-85c7bc77df10,400960,kvvANJta,818-699-9955,jjDmNrbGaEe@yahoo.com,779 UhVBeEVgfFkMU Dr,Spain,SB
10354b17-2c72-4ab3-b02d-8573d20f8819,292009,RvJmbAVW,348-876-7002,MWYWPbkHYEH@outlook.com,847 feCEXzQJDqr St,Holland,SV
528d363d-0c0d-40b2-a9fe-09d8cbc3402f,194678,teGXqF,281-307-8261,EXpvynDJ@outlook.com,480 hHKNDQzDpbenjT Ave,China,SB
359bf069-a806-421f-8b83-2cd13671aac7,310940,YYBWAp,827-289-5024,wHlXWlGXVC@gmail.com,877 mSxVaUWpPUc Rd,countries,STI
1a81db7e-b125-4b35-b933-6abec052501f,100664,AcLPTNebt,334-433-4985,WBKGGtzwBc@outlook.com,237 NYaJcbYgEzLNJ Blvd,Spain,ENAC
31fa83fc-dcb0-4d8f-8bd2-7ed7ceb94552,637963,PVQovRfP,648-314-6992,RMlveLCInCV@yahoo.com,591 MfgpRoQkL Blvd,Algeria,SV
faffd0ab-a16a-4d78-8a18-6ccd20e25093,354092,YHDrH,979-229-7704,dTtvDcEcGYT@gmail.com,502 mtohxwwrktpgk Blvd,China,IC
c4442c0a-b1b7-4815-af51-4d8f51f565f4,606455,BWwGe,451-209-7572,EatsUhpCW@gmail.com,693 JwQaeseUsu Ave,Canada,STI
6482572b-a930-4602-9b22-f8a412d9e1ec,171963,uBwQtvFwV,855-511-4653,uMTakAnGyQ@gmail.com,789 DjkAWjtq St,countries,ENAC
03e6c176-b99c-49a9-87aa-18a0a0d7d070,674251,dyVDSbX,812-908-4945,IWMpwaRKe@yahoo.com,171 ENbuocHuDs Blvd,Swizterland,SV
93c7ca18-ecb9-42f3-ad6e-25dc4a186d76,183484,wyIAJp,314-894-3698,fdpoECGezsV@outlook.com,600 dMrIKiSu Blvd,Swizterland,STI
313d2f85-b404-4176-b516-d585f66104cb,563037,BBWkjkOtt,396-787-5876,IxcJQHuEaed@outlook.com,400 wJVduDLTkLyWew St,Spain,SV
9d986e7a-a632-41ed-8e41-b1b30a8d2e6f,757066,OiKtAyTS,688-836-607,lKoNKTkbwIF@outlook.com,998 vHnirGJTIbXu Blvd,Luxembourg,ENAC
1c50f4ba-c1ac-4849-a090-d7e95b9f1ffc,907990,AzskDjFpr,343-641-1696,zxRCihbPmfx@example.com,748 QFakbwEq Rd,Belgium,STI
d644964b-41f1-4361-9d1a-60730b104266,750809,TrXjFcS,440-691-7634,yGKQxzDMSbI@yahoo.com,829 wnIRFAdjx Blvd,Australia,ENAC
61dc7df0-4d91-4aef-9a3e-b9e43cad629c,384086,ERsULkWf,581-800-7922,yIlmmUnVy@outlook.com,259 LtJXLWebtO Blvd,New Zealand,STI
b290b207-d5a5-4017-965d-9a0ad755948b,387097,XSdCCT,267-891-9576,HHyHrkQfk@yahoo.com,408 obyGOUYeWI Dr,Luxembourg,IC
1879a8ed-bd59-4e59-aedb-148b924f4970,380353,fNBkKGcvJ,601-406-8631,BCSqimeLlkF@yahoo.com,371 lrIvGDJm St,Vietnam,STI
c33156d8-63f6-4c19-980a-bd559077516d,150998,UXRNWyDCG,654-935-3159,wgXnHXttKh@outlook.com,164 PLCowSjeRngzO Ave,Holland,ENAC
eb4d222f-11eb-4285-bc1a-b492542a2da0,715553,PfvWB,920-486-1792,yelsCDxK@outlook.com,367 fOkGwBaxQYzBw Dr,Swizterland,IC
2bd55c35-0429-4f6d-8ea6-84d105f6f192,897328,nVmYi,512-859-8352,HapdabMTgqT@gmail.com,321 KNOCENGPvvW St,Nigeria,SB
0a72272c-3685-48d9-bc10-b80bf0fafe48,245737,qKEVXCV,856-928-2515,fscETVYGgfq@yahoo.com,166 UESOPuHybXtl Rd,France,SV
98860089-d723-4542-a124-48e8cb1c9587,928305,qADlh,270-278-3446,YsGCPRRWhm@yahoo.com,366 rLKsXPcri Rd,Morocco,SB
cd559241-7bcd-4d18-94f8-f9ea01de57c2,681575,ORFVYXNy,924-386-3293,YgAtnCymYA@outlook.com,107 IURgBrRvCOGHH Ave,Morocco,IC
513fbd5c-51b6-47ee-adca-5586a336c086,449089,fxgSt,643-477-1971,pqlhUXXOO@outlook.com,857 bqADIRzckVu Blvd,Luxembourg,STI
a7aa0de3-94a6-4a0d-9bcc-855220df575b,669427,tIVriFtr,285-412-3464,RWiyFsFwYxq@outlook.com,804 XkiqozswfYIjWk Ave,Japan,ENAC
0f8d3583-1ea6-453f-98b5-7b2bfc428a6c,693635,mLdQIGCUC,605-495-2373,JgRvMjBEQW@yahoo.com,294 UCitkohEuLtvEw Dr,Spain,STI
2ec01026-0e03-4718-8904-4038e99caff2,861013,wsIOAAg,341-291-646,YMfqJjpUdI@gmail.com,563 SWGQusRUA Rd,Australia,SV
cc8c00ef-2127-4fde-a835-cad2b872a9ae,530217,UufGHIel,960-636-4831,WCHkIVfBmPL@yahoo.com,511 ngEafOTQK Rd,China,STI
2b9c559e-381c-4ce4-9b9b-52628cfb995b,401172,MwgRakUu,503-386-8981,eRBjpyJIS@yahoo.com,982 FSNMsbRwF Ave,Tunisia,STI
06b3cd33-729e-426a-b1cb-e973fa90b1ee,441758,MGCMAk,704-635-8523,oDEvKAMbfPs@gmail.com,298 RwSHIcWr Dr,Australia,IC
bf63e4de-6d5d-4b7e-af71-9a8be8aa3ebc,258230,zMUmvMhN,804-918-928,OYvDQbWA@example.com,946 RNoihxrzTp Dr,Canada,IC
dda699eb-ac3e-44f2-b6b1-507c50b422b2,638383,UVoqSmLj,307-378-5266,LqeFqovJIK@yahoo.com,472 aIUsjDqSdUQiMD St,Italy,ENAC
3522b9f6-9d21-41ab-ac30-1cfcbed5aafd,546626,xlRAyWT,476-623-8486,JMOgeMfV@outlook.com,563 cIpxpefx St,Morocco,ENAC
64174c25-6af7-43e2-936d-020f134661a3,601142,GyWYp,770-352-2498,VTDdtOSys@gmail.com,889 TPoiMFvOpSrX Rd,Japan,SB
7cf19a30-e18f-4027-8747-824ffd3aa257,393854,VUDHPqR,692-382-951,hKOiIQCJOEV@outlook.com,483 AwoFRHGJoP Rd,Tunisia,IC
510261dd-5716-4069-8749-a12151ed1855,199819,cdVtrLO,750-836-2026,GHOARUuu@yahoo.com,554 kJlzAumFQYa Blvd,Nigeria,SB
2be4551e-9f98-4df4-8c53-a0a2115028d1,963816,UosriasIL,357-842-6882,mgWNNbJUsp@gmail.com,579 UkGyRXIquYO Ave,Portual,STI
66115567-4304-4645-9d41-82f6a64a848c,542580,DFfrf,310-376-4310,eKMdIJQyW@yahoo.com,896 bDTPciGftYErKK Dr,Mexico,ENAC
069c47ff-abb0-4d85-a6e8-73da34b0d176,304223,PlaydBRR,259-388-2213,QRSdFEMWR@example.com,821 dbrmDlejq St,Holland,SV
a319cc3d-48b9-4791-a0c8-1b459fd7e14a,139710,YHubJ,682-541-5253,bWWjXwtezhh@example.com,347 JtsMdolYXUQM St,Nigeria,SB
4db9c930-8196-47d8-bddf-ce8dc4cb1bbb,757544,HqfLr,408-727-6989,FnDkSFRF@example.com,939 qVhHhbnxRN St,countries,IC
7ce7115d-55b3-4537-b511-d9c04f8ec2bd,331901,eApiSEUAG,350-653-8715,UuBhrpdM@example.com,768 igKDAGbFhxpB Rd,countries,IC
7d643f9a-2b13-421d-b173-89fbe120987b,491850,iNDAvcVAt,808-396-9703,cslYbSut@outlook.com,390 cvehMiNKlyCH Dr,countries,STI
65bb8987-cfd0-4c35-8323-f9269c448aa5,799931,lYiEAOWIb,844-410-5328,pqmwpOLUdzz@yahoo.com,684 cTCTpRWIhXbiq Dr,Algeria,SV
4db2c07e-ce4e-4500-90f4-27e7e0539f24,631128,UzwXrEecS,771-750-4078,RJBlDifuLs@yahoo.com,695 FxztKJxzjOcVCy Rd,Portual,SB
d018a16f-569b-4b76-9b78-e689de1e1a97,436717,eKRdb,452-867-8047,JrMYiQklm@example.com,475 pxIAhWRBNcgMVB Ave,Vietnam,ENAC
085b9bef-5a67-4347-bf3a-99b425fae6d2,313447,AqcodJNlP,442-837-8420,UzwWLVMw@yahoo.com,332 iYSjSDEReAPUD Dr,Nigeria,SB
c4242c00-f1a9-426a-8825-3079f27a6d5c,694803,rrgYChw,700-308-441,uQxlDjTY@example.com,884 HhbKlqcxfe Blvd,United Kingdom,STI
e206c406-8cd1-4684-9d89-45fc97d6099c,281862,HKtyWFU,930-944-2120,rwmJaMDnE@yahoo.com,231 CwuHJalwMLQTh St,Japan,SV
0b4e328f-dc13-4397-ad2a-9b0a43269211,487531,AqjQI,598-535-1780,RnElQvQLw@gmail.com,719 JljRoRxxpRtmw Ave,Italy,SB
9371c09f-8fdb-4f33-92c7-ddff7b88636b,626974,jrbaVE,733-850-2162,BXqPgeYLB@outlook.com,976 edhpIhNTeoo Ave,United Kingdom,SB
3f102231-ed66-4f9f-990d-1f3303b3144f,206217,LHnERq,446-720-4563,pVEpNeKHWK@yahoo.com,810 xVobnjgiz St,Vietnam,ENAC
03ae6706-e4ff-4c4f-bfd7-a8e89113999f,294310,tOsiwokS,239-726-5701,HIvHXiijaMd@example.com,860 ppdtWzHyj Dr,Egypt,SV
c93677b5-5487-4d8a-a07c-57dfd2b5ea09,349472,bMyWuUy,229-251-6891,lcDFaxHAO@gmail.com,893 EqpFqwFKHO St,United States,IC
16405cd9-532c-400b-8420-c16ed13db74e,144579,lStaoc,633-558-3901,xJcbMnPL@yahoo.com,348 OdnQpKEGEbvpu Rd,Egypt,SB
9e224ca4-353a-422b-af14-8034eba16b21,345721,SAkgLmNB,556-530-9529,AmViMGpcp@yahoo.com,906 cDIemtzUhzhx Rd,Mexico,IC
5bc8921e-ab22-4518-9e22-69d2c9156d4b,193825,IWNTkl,826-586-8856,PRTqFERSsa@example.com,669 nqeBthrsrU Dr,France,ENAC
25bc3ab6-bafa-4596-b139-5b82a3d24fa5,282487,eymyDen,229-629-2637,CSRUdHqLz@outlook.com,152 giSzSvKqT Dr,United States,SB
4a724b55-fafd-4f44-88f1-9d87f9e53aae,654506,zKSaLlRIB,345-467-7507,LYjXYLKBX@example.com,787 LGCXIrYcbzd Ave,Vietnam,IC
4d96952d-ffc7-41e4-a04d-4c47f1e258d3,553067,rTeXx,823-265-4911,SNnzfefzbB@outlook.com,318 iqjPldJs Rd,Belgium,STI
aa5b20b8-7019-4bbf-a82b-fe1bdd41a45f,871600,xwqwo,784-557-7774,qLNxKlSEHu@example.com,150 QXTWkLQpb Ave,United Kingdom,IC
c932fd0f-11d2-4fc8-9d53-68ef94b1a487,755064,dieMY,711-435-5330,sxoxmVWgc@example.com,385 BdizmjeHOo Rd,Holland,STI
2fd513b0-5fd9-4810-a207-2d1513a9b505,581692,JrxHz,714-551-3909,hXhstacPK@gmail.com,788 XsdCKexsCJP St,Morocco,STI
e697304d-9325-416f-b7a9-f78a10526335,658238,UxsWRTQ,409-470-8344,DlyAmgDqRLQ@yahoo.com,258 fWEWNFUXadLRsh Dr,Mexico,STI
707a900e-169a-4459-96d3-f743525afbf4,282130,JBmtQh,744-293-8038,jTMHRafNx@outlook.com,682 EbKJyKIiPRjJ Blvd,Italy,SV
67c881ca-5a17-4a3a-a362-ecbecb1e8133,329366,sKQrz,488-684-653,TLGSgtgKat@yahoo.com,237 hdbNMUsa Ave,Nigeria,IC
481427a7-b1e9-4810-9275-5e57f8add9e1,454222,aIKdkGcKJ,503-738-3888,IQUdYecPl@outlook.com,288 fOQhCFBqi Rd,Swizterland,SV
34d11ad4-0bc4-4e3d-9d68-cb26c6bdaea5,607119,BgxDJyM,463-424-4505,KahPSRvtAFq@example.com,692 VmRdDfSqUf Rd,Vietnam,SB
87de4318-ac8e-4fa9-89fb-df9591f4d3bd,744135,KSkxogp,926-229-4100,VDzkXfMkxve@yahoo.com,375 xHPVLzFe Rd,Luxembourg,SV
df0fccb1-4812-4ad2-997b-18786ea41129,854108,zmftBX,240-406-4605,JEULJuAkRVq@yahoo.com,436 qdnvuFVy Ave,Germany,STI
5bd939b2-bc6b-43ed-8438-0195ef50ee7a,330730,hVbqtWX,962-892-3549,TSkYtGhGkCt@example.com,201 thUxxmaskbPkIL Blvd,Morocco,SB
5ffa0abc-724a-48db-9139-c27b8d44b547,639736,MbzrcOf,299-527-7340,TDoeRJik@example.com,271 IwIAkBjcAkAhR Dr,Germany,STI
2ebca35f-f51d-46d9-8c6d-e211b1692195,146780,YbfdVuPtW,211-439-8382,QfafxyeMFX@yahoo.com,184 eUvQoOgRNyGhkW Ave,New Zealand,SV
4ae7115d-a0e9-4a1f-941b-480ac1d3021f,785625,AquekIoD,489-782-2177,dkdLSvlnl@example.com,969 dgaawNctrAn Dr,Nigeria,IC
b5d5158a-4e2b-45cc-b236-20e19a438f6e,122496,xcticQYcW,652-279-5108,ngTXKXuu@example.com,537 IQDNscwrV Rd,Nigeria,STI
2e486624-b420-4577-a50b-33ecda1d26fb,114395,tWmLIOqJs,590-475-4880,NEUmBCRYQ@example.com,273 flRCJWUp Rd,Belgium,SV
a4c8ce69-d717-4555-b210-a7e871b1c856,574466,raHvYC,801-748-5478,fSeTBbxSAT@yahoo.com,661 QDhvdTHfEsWMk St,Belgium,IC
4eaefd81-2d0b-40e4-b97e-d217cfd85c5d,507236,jypNAt,336-286-4289,QpqdcvVWbJ@gmail.com,651 sykYCFGclu St,Canada,SV
93f00ccf-3de3-495e-9d8f-0ee67173e024,213194,jcLtPE,331-225-7467,bBjwBFobM@example.com,992 oFeaKyyd Dr,Swizterland,ENAC
ba6f635e-43c1-4ea5-80fa-0d9cce21b2ee,291068,RvwTsM,642-718-1298,OvlFwabLdT@outlook.com,555 cucKdJAbJp Dr,Germany,SV
c3dafebc-9c72-4eff-8a7a-d6b21fd74441,515522,GmADNdT,922-713-5259,fBLATJLvi@example.com,367 BiBLHkCcVURIs Blvd,Portual,SV
10a961a5-6947-48a1-8b93-bd4e2b2a8d34,532401,tAsJSllHK,634-220-8105,MgGqHsaIF@outlook.com,841 swlJGKDXrpRWoT St,Mexico,ENAC
b960fc6a-b07a-48a1-a9f9-7bd095e3d0fa,339138,yppoNSeFe,344-229-1816,MXuBXjyWv@example.com,275 HWzWwVFd St,Italy,SB
a860c8f3-a1f0-4e47-b9b9-69ce22478b3d,923005,cCCHkz,611-210-5784,bkvTXrgpF@gmail.com,451 TspvAzJQrtf Rd,Tunisia,SV
5836111a-c6fc-4adf-9de3-e526599a7d64,112792,UAXUsNc,719-962-3461,XgUDeUvSjAE@gmail.com,987 ecIiMMyoIERgr Dr,Luxembourg,SB
a7c4de68-085e-4f0f-a447-1139d55ce6a4,158053,TVSizP,738-326-7931,tYOSDoTvGS@gmail.com,360 XEHSiavCGv St,Luxembourg,ENAC
c9b8d716-c771-41a0-9c25-ba8647cd86ec,343337,vJMAyE,350-487-9441,vuOkQxGg@outlook.com,178 XDibqzhXQuIvp Ave,Nigeria,STI
87a016bd-0291-47e0-b5c7-3d615efceb16,956846,CwpAyqdi,731-649-296,FrCkLMfy@gmail.com,697 bBhIeRueXYUT Rd,Germany,IC
b95e6f3a-9da1-4bd5-aeba-11cf2f1a9976,747411,AifjVk,322-518-3407,rbserqcKY@gmail.com,786 zwVkSfqRxn St,China,IC
4f890dc5-01cc-4a99-9f9b-c5cb17bbef78,581151,MaRIQ,785-359-6682,fJDLQxWBggh@yahoo.com,953 hczmXbGIHPNqd Rd,Spain,STI
ce163b1f-040a-4e75-b04f-ede773ea69e5,957796,xTHneWh,559-652-9519,jyieppPc@yahoo.com,416 nUBrVucMjw Dr,Algeria,ENAC
82023f79-f3c0-44fc-8666-0c01dbf8296a,708374,qTSmba,244-493-8376,hegPRqgFiN@outlook.com,442 MsRtORTK St,Egypt,SB
7861ba85-2d7a-4eb6-a370-7bfabad581cb,621005,mHrgVplw,929-662-134,aqMWqmjW@yahoo.com,967 OgFQjfrCs Ave,United Kingdom,IC
22944bca-2932-41bb-b434-4d2816ff1f88,703630,SvdrumIJN,627-865-4269,TvgAUqWdCE@yahoo.com,447 alpgsSLwQL Rd,Australia,ENAC
9fa0154c-4784-4efe-84e9-495e1ac8bcfe,600233,uSdtcczmc,756-946-9290,KojjVMJHk@outlook.com,158 OSVMIGydRSCCJ St,China,SB
a1f64dad-bb73-46b9-9d0c-553ee32a6603,663593,CzhrSs,403-660-9819,RiQrXcjwb@outlook.com,101 oUPypCeBD Ave,United Kingdom,STI
0311d21d-49b4-4b2a-b286-aca33f9327b9,416090,KKSXpDfX,332-786-9043,SEockpxJ@gmail.com,885 OBcRfndfUy Rd,France,STI
d572a645-b4ff-4a1c-9c47-296ec9edc6f2,728808,Qzyobu,586-525-5201,UTsgQIma@example.com,215 dzJubckPG Rd,Algeria,SB
56b382fd-7801-4a5d-9ad3-1fc7dfd6249b,593755,kNhyn,776-531-8082,CmUxVOcEFBF@example.com,742 lJDRuruwf Blvd,Belgium,SB
3133cd0d-e08c-49bf-8ea3-86195aa18136,552938,bQFUl,715-485-9382,AVrFgVVMP@outlook.com,801 LzHeQRsrl Dr,Algeria,IC
d632c47c-a59b-4899-8827-1ff3a68f4476,669609,bTczUf,928-876-338,LqqvwhDbS@yahoo.com,329 jiTfzjfRijsyz Ave,Holland,IC
d0441fdc-1833-4c25-addb-cda25bdd928d,995747,yqviNlbvB,507-858-1550,bGWBUFeW@example.com,589 GGQAcliz St,Swizterland,ENAC
317dcb85-fc9f-42d1-b60a-67eeb0067106,531010,DuMQj,710-817-7800,johqQjpCuY@outlook.com,675 KAtCdWpO Blvd,China,SB
70ed7e72-77c4-4146-a500-770831f8599c,860220,hwrsOzJwQ,222-588-6728,fTKucnXJ@example.com,668 rVCsWUckafvG St,Tunisia,STI
1ad00cd6-be2c-4c05-9487-d8b894e16118,490379,GsOaboI,872-514-897,keDTCVygd@outlook.com,175 OtbVdXRe Dr,Spain,STI
24b8debe-a928-4cc7-8591-6f64df2b651b,307152,jXbsVdk,788-360-4859,LbbQVJNymYz@example.com,286 qXhwNePwemp Ave,countries,SB
b56a5ee5-3a05-4211-8573-ff715dbf58fb,207953,POrgELe,912-730-8221,uqfYKNuSA@example.com,349 fPgyzquEsDAw Rd,Swizterland,IC
11fea140-1d08-4cb8-bc01-a02413066893,157269,URNrLUNk,582-844-86,AGJceHdOe@gmail.com,261 rOjVFTDzNVcC St,Spain,STI
d3332da3-b961-4392-b8a0-ed3e21bfe2e6,287609,IrOwYUDS,933-701-3017,jjNjIGcRgT@gmail.com,683 QMKyTSxjPRzRM Ave,Tunisia,ENAC
a51c2989-b553-4957-b9c9-9fc19c07a289,781080,CARCMscp,291-706-8777,NRbxpwvdseE@outlook.com,676 zFhBSUtpeA Dr,Swizterland,SV
beeca184-6683-4dec-9d21-51df59922142,446609,WxGVAt,902-346-1755,zSFEOXfwyEE@yahoo.com,960 YzNKlNdpIbS Ave,Egypt,SV
92b85c1a-a776-4274-abc2-b4413beeb7eb,700293,sSjOrNAu,230-754-149,WuMkQnQrS@outlook.com,935 qaXiMMXPlKtC Ave,Algeria,IC
2b2de45f-f549-42ec-a6ec-55765520c18d,754728,gHKqACPa,381-643-5369,qvkknvptqz@yahoo.com,589 mknIpsNRnXCFx Dr,France,STI
0e7961f2-f7f0-46a2-9b0e-ad44fbfabccc,597112,mAcFyRM,592-764-1778,edbyfVjG@yahoo.com,918 hiTzkRNv Blvd,Morocco,SV
d5a3b3ce-d5f3-4828-a157-f23b6ad4b516,411056,SqcXfUOr,576-411-8283,YUELNsFERK@example.com,736 cLxFmEonPEia Rd,France,IC
476a8f09-9aa7-4789-8c61-3df5e32a6138,584586,FWlYrJpFE,292-587-899,XEFcCwxKK@outlook.com,320 hIBISVnfM Rd,Swizterland,SB
eed9bf8e-bcbf-4def-b5c3-a18700634b09,770428,PCMjE,570-954-2178,zphkHJBg@yahoo.com,617 HNdvjaglBfdP Blvd,New Zealand,IC
bd014cca-5e18-4e55-8ef7-e76e87396bef,913530,csiSNsuVa,441-397-5934,kodYbXXbG@yahoo.com,856 eLptvkioCqO Blvd,countries,SV
7a08f8f0-ede9-45db-90b1-adfeb4a597aa,296377,TDvLc,443-820-6179,hGaCnQUk@outlook.com,540 obGtVHYYHmFXO Ave,Algeria,SB
f160172f-38a8-4055-b630-7fc700063fc2,230516,nkPISRDOo,582-627-3690,yJOHrtigAy@yahoo.com,392 OxvYYOAId St,Australia,SV
7cb65893-34dc-4d59-8858-dc1af80b7633,237121,PovOAWvR,362-283-6190,XWWgtiYWS@outlook.com,247 ydzNuxuVI Dr,Tunisia,IC
169ed42e-b892-4794-8bdd-13fa3fe84f42,403688,BMAHqF,698-850-4110,kgtUfqnnU@example.com,805 cmmuWgTO St,Holland,STI
df427e0b-9ded-4702-a0c6-6f7338cabc94,436399,huWqVt,617-383-9048,SjtnpqGgxTg@gmail.com,831 AlDBpkzBHbr St,Portual,STI
8099d787-d1f0-468d-8ef3-bd052e5359f1,465586,BDVdKxA,433-699-7724,gxoHVCNwFJ@outlook.com,994 madxqqmqdXa Ave,Holland,IC
826191cc-843d-491a-91eb-a87fe7fb5163,275949,SOYhut,597-850-1604,XDePXvByzPj@yahoo.com,300 CxvbYbMjNPUJ Blvd,China,IC
14519c08-f285-4192-b062-d74880f63aa6,996920,wwAKvnEdv,940-503-5010,oQbHKAkCJ@example.com,228 qxzgrcleykcBh St,France,ENAC
cda38cd5-a77f-4146-b532-c8e1f08e0ef8,332821,PSCUFs,711-878-9273,dlSDoXFBUNn@gmail.com,737 gqwVVgnUYYnURi Ave,Luxembourg,SB
db870a13-cd4c-4880-8bda-877badf0e19e,774911,yUrhssPpE,437-398-3535,TqzVCwVWGn@gmail.com,251 jAIipsDitWcWQS Ave,Italy,SB
65d536a8-9e0e-4e1d-aef2-ab63a1941b33,437022,BMbQEkyP,689-297-6055,VILvKdTnG@example.com,173 NugbyxaRjxYXcS St,Vietnam,ENAC
fa656697-9a73-4a2f-bfc1-3e91ec3ec6fa,812205,mArDxXfW,875-926-9045,elisTbkE@yahoo.com,840 xRrfGGPAobz St,Japan,SV
4674c261-0c6e-4cf9-a8b6-ec62f7b944b6,655644,jefWxx,582-383-9613,iOoBzsLa@example.com,825 CkBrqagU Rd,United States,SB
b6873059-d9cc-47e4-a3b6-f6b17460c665,615577,wrjueai,453-260-1413,jHQrgiSK@gmail.com,153 KfLjGVwrztMibI Ave,Mexico,SB
c290d63c-1b06-4b76-88c7-1bb4e6d22fb1,863748,tScQPPiaP,959-591-9966,EJvVaTsIcE@yahoo.com,985 NsiSMkJJ Ave,Italy,IC
ca4c122a-231b-4679-b02a-1778ffae2c03,241232,GnAAAFCd,945-874-1167,MWgKmLsnIg@example.com,355 igDjJGMlhVblb Dr,Australia,SB
d1ab08d0-e4b3-4405-b7e5-91bef19a2131,602868,gRGkCYfol,428-218-1816,EGxTrVnf@gmail.com,838 ghdhDJsvToIB St,Morocco,SV
1c69bd12-8ebd-4df4-b1c4-12ff754e4dde,929132,Fsygfqbu,485-924-3162,uJuzWnAvV@example.com,162 nGxJczgFzAdcm Rd,Holland,STI
899cb819-dba4-4b6b-8142-1d156c57c0f0,570914,spvTpbQYL,861-462-9715,YxHOGIkDmF@example.com,886 nMsYJhuARoO St,United States,SV
47db956c-b087-4b0d-983d-fb003ea72c6d,271601,pwSpeaSB,835-964-4196,onULetmA@example.com,893 BnhKVVNATORY St,Portual,SV
ec89baa3-e9a8-4d5a-8222-161fef07d84f,835967,ROGeOOw,450-934-9617,dUtUNtgVA@gmail.com,397 DbnMIHzInyER Blvd,Luxembourg,IC
317c4747-6c9f-4096-b7f0-a25033aeaefd,740840,XEmISlO,412-245-993,DKUQEWhyHC@yahoo.com,136 XbWclXUzPkl Rd,Holland,IC
1389b4e8-0e07-42e6-bfda-44d5bf1efafe,557597,pcxYhio,281-216-6108,KacFxsrxOm@gmail.com,581 UXhCXdNLxeSt Rd,China,STI
aa7c693b-5008-4bfe-ba6a-36a20a44c784,340617,iFrLfErF,209-235-8121,NXkaTNzrh@example.com,880 oopxkxszKWO Dr,Luxembourg,SV
2c8c9214-57b2-4986-ba09-87520af798bf,126943,tvnjdzcSc,881-220-3973,lcwMhdlNokv@outlook.com,544 UmEroUaBpJL St,Egypt,SB
74f55883-53d4-4658-ac15-b44affce5988,304365,ckyWgfEkf,391-833-1887,aGTQvMHAa@gmail.com,576 HcyDitQaOBNih Rd,Holland,SV
004656fd-40f6-43a4-8247-343cd54b12f7,378041,lPIctbC,649-509-1216,FAwuDpGaN@example.com,331 eYFVIftOvuR Dr,Vietnam,STI
cce63957-ddab-4400-95b0-8018e70b5163,975444,fjtHiwg,436-447-9475,bXYnwuqGAev@example.com,998 sYAhyjLlRwvX Blvd,Tunisia,STI
60332415-7729-464d-8686-51a8ef41068f,962606,PcEqz,651-381-8281,wyEDszhEM@yahoo.com,262 DAIoUerEex Ave,Egypt,STI
101d893d-21d4-4b3f-a19a-a29a5583b7f7,936183,aQYwjy,646-746-4760,LnRUPuwqg@outlook.com,597 DGjRvXENb Ave,Belgium,STI
2297d4e0-8416-40a9-839b-7d09ea588c93,936323,lutFNlf,901-492-5409,biOPOEyQlfM@example.com,153 qCVFpryCPqoHtM St,countries,ENAC
0675126d-f6e0-40e2-87fb-65b6c9408829,406355,NFinne,864-982-9848,ntlpqfYtu@outlook.com,448 DXkYbzDzCmT Rd,United Kingdom,SB
881309d6-5abb-41b2-b699-c194191acd98,452195,bfmrB,724-270-4819,aOymrkvaw@example.com,676 phRcsmNGXdh St,Vietnam,ENAC
d67a2f38-3ec5-4184-b611-8922bc853a59,885283,SAXpCKArA,785-513-8875,cyuDyygiO@gmail.com,945 KqVmmOTaJdHlg Blvd,Belgium,ENAC
7ffb960d-10ab-4a21-827c-843bba4e855c,153901,GMmkgarRz,559-923-7379,LQNfRevFrmV@gmail.com,452 jmgyrEyPmqQ Dr,Australia,IC
2d56714e-884d-48de-8a76-ca1943c31849,936396,BbBOktlK,785-263-6920,QETCMmRen@gmail.com,318 mBNUNsSLEGPU Rd,China,SB
fe2d71f5-1325-4a75-a70e-c073f27677f7,875608,pmgscX,732-383-3009,PWtCreBp@gmail.com,736 bmxDmhLShphC Blvd,Luxembourg,IC
1077bc07-b06f-477a-b898-87f68d15403a,200650,ipgKwBBm,270-595-2227,QyXkgNVgHAz@gmail.com,445 idcRIvMiJ Dr,United States,ENAC
772d62bd-c7d4-4678-882b-0e9c0ff3aedb,683095,VWLEuiG,336-541-7351,gYlcLwMLvj@outlook.com,136 qrLKAIOAliwa Ave,China,SV
532f6fe7-c36f-471a-b1ed-b7e9ba34d780,312988,irGXmY,466-219-2899,YXDgetrPG@yahoo.com,193 bPFuUwifApuh Rd,Egypt,STI
7c4c86c2-9cb3-4cb8-9b1c-1bdf43b9ebaa,491211,YAjRJ,435-581-6157,OeRnitunA@yahoo.com,916 EsoPqBJJJP Dr,Italy,SV
746b6aa0-b658-4a86-87f4-dc153f2d3883,591486,jQOPhGk,848-534-5845,tkyfJIOl@outlook.com,819 nYdVCObAJk St,Spain,STI
7b4407d3-dd8e-4926-b486-1ec6166213a5,504090,BpIIDmt,574-386-8320,rXnakvjYsTM@yahoo.com,300 AQypDaiiofv Rd,Vietnam,STI
e486f1c9-4d99-408b-aec9-46d67e99778a,374815,IAXatvl,249-224-8631,BgfuJzYdE@gmail.com,863 GeHJCRoGgLtjiY St,Belgium,SV
959baa19-f22b-4c86-afd1-6c38f1d3c67e,594584,lhBmAxcu,867-766-9952,VuFgbuDD@gmail.com,237 BcjYGYvenh Ave,Egypt,IC
cf7584db-1401-4488-b756-a2a4d0b5fe75,623321,IsShaiMrt,236-511-853,PYNlvCcX@outlook.com,214 dUUqoMNo Ave,Belgium,SV
96016b6a-4683-4231-82d5-4e9590d1261b,648212,PMMRTFgBW,827-888-273,ozGiNrwxrs@example.com,116 BCghHPznJIHmP Ave,countries,SV
3653bf1f-b7f6-48da-a35a-37af02b3038b,240821,xcYrYmqW,234-488-7213,ppnwGjChAC@yahoo.com,651 hlfvfXmBfcDRsJ Rd,Portual,STI
4a8b5321-fe8c-4cba-8b5d-94d1114d1c1a,382532,dpeVSCCv,483-347-5745,xBTtLolJW@gmail.com,938 DGtcnSMzEErGka St,Japan,STI
a877c4b6-7688-4635-8679-70992a294601,856903,MBwbq,330-978-2775,zzEDwKlmhKq@outlook.com,371 WfbhteXtox St,Portual,SV
850e2d31-ecbe-4d4d-b56b-9dc9d5aabbac,936064,aJGgWQy,870-334-6524,YJQAzmXyWiH@outlook.com,454 QkQhjCmUF St,Italy,ENAC
058ac8e3-24a1-45fc-b235-f72a28b421f3,867201,smYuiXReL,558-956-4271,FYLRjVDGDSb@yahoo.com,948 fABJGnnA Blvd,Holland,SV
576bbcfc-f6ca-4312-9a48-402f279c756d,730318,UqBVQTakh,438-778-800,vJEibTuMDG@example.com,215 pWrWxLTtLVz Blvd,Morocco,SB
4a43dfec-0545-46ca-b42e-3ac3d8e720a5,916165,XyRyNGd,558-951-5226,fWlyGehhnr@example.com,640 clDfRiPRQ Ave,Portual,SV
7847b6b0-435c-4754-b09e-d70fda87e937,305486,crFFaSD,484-243-9406,pTFGPbLQpUc@outlook.com,546 lgXiwgpGJlY Rd,Swizterland,ENAC
c763fcf1-3ddb-4bd0-b311-b2c36e189e9d,622990,XVmkQd,645-948-4448,ibCThrkHSiI@yahoo.com,607 TtpTNhhpd Blvd,Spain,STI
497c990f-4fe5-49c8-8c4b-4912592e1def,834305,lucXm,312-253-2891,JhMrJKyO@outlook.com,665 ooFyngfhGkQb Ave,Algeria,ENAC
a01b90dd-734d-4010-9084-f91ec211791c,766587,JmezciQsU,662-801-9203,KunSWoVSR@gmail.com,428 hNrDvWddfC Rd,Morocco,SV
8280644d-5346-4fcc-b5db-bca37efdb888,231405,iRAROLJGi,240-482-2719,WVEzqUvwK@yahoo.com,665 WVoElfIgLbVW Blvd,France,SV
d1eb74a2-0231-4e8e-b101-c31c0ef24d5d,225190,DdgJtB,906-558-6935,joVbXECzK@example.com,890 FVRFvvJpgKfFW Dr,United Kingdom,SV
db7f9987-56d4-439a-bada-88c816088ed8,807051,zDXFj,667-561-4600,OukJphHuYGi@yahoo.com,590 YUEnslNP St,New Zealand,ENAC
172fbda6-1543-4f5c-afe8-06258e885df5,995901,OSiag,919-731-838,HvwjSmYtcn@outlook.com,177 gpCVNwXnR St,Italy,SB
9afb0f6f-cd4e-4854-b5d2-aa0ef6902704,807279,OCJylsl,775-750-2458,FAMlSmGTm@yahoo.com,469 byxYXjbmEDzQl Dr,Portual,SV
5dceb6a9-973c-4846-98e5-7e58cafa929c,630309,jykuKTCWr,574-820-7712,fnunXmckGm@example.com,598 vvEFdMhp Rd,Australia,IC
191d13e8-2d95-431c-b0ab-fdfe52f2aac0,837405,bihWW,804-301-8344,UNseaKBo@yahoo.com,464 gRsBvmEJqE Dr,countries,ENAC
c51871f0-fd75-46a6-b64c-251156c42a08,915377,fcqcz,294-741-8185,OjJxpwhJg@example.com,800 BAujMVknX Rd,Nigeria,ENAC
846cb5a6-33bc-47bf-8be3-82712e8569bc,866155,IBHqAVN,211-673-7799,RlEGyVtfuqx@example.com,803 qWxdGeDPqv Blvd,Italy,IC
c46a5404-a59b-4890-8ed6-86c7e927e3be,700804,BvViKY,393-414-5674,IoDfeBzjU@example.com,368 xowpFwTGRNl Dr,Japan,STI
dd55a920-ba61-4f21-8a23-6af08f7255ed,744261,FxtAdzq,799-972-4670,OnCSyutR@example.com,740 EodNiTvVRK Blvd,Swizterland,STI
5f816048-8f6a-4acb-82df-8194ecd2621b,841813,lRjjV,383-740-4399,BlgAdhBhzcm@outlook.com,385 BQaNTXePtvO St,Morocco,STI
4c831a96-183b-470d-a80f-8893c0ebbaec,368288,RbtAPYHAs,755-675-120,DjoBVDbLr@example.com,992 owujQmkVnQkyws Ave,Australia,STI
3b14cd73-c676-4e40-8b2b-8af426b30840,752093,siDFg,908-633-9672,uqdzvGPrw@example.com,219 ysdGbaUit St,Tunisia,SV
d795cdef-909e-42dc-84db-ad34a052bb20,459341,fOdFTr,445-234-1480,rBpcNkXxbYa@yahoo.com,408 lAVaIPBIuUF Blvd,Tunisia,SB
9e8ed9d7-f146-4c5e-b951-797210eae923,777861,aqoWkO,292-979-6247,gxpzJrQbhT@example.com,837 qkgCwGorjEXr Blvd,Japan,IC
f9b421bf-ca2d-45d2-a043-ac4fe20a4cae,171815,BxVtnf,918-486-122,tQYVwuFx@yahoo.com,292 rsLCIVsnvwAB Rd,Mexico,SB
f918c8bf-5544-4d8f-b130-7878a924bcb1,638650,AOtfLIz,284-846-4871,AUpnEoNVL@outlook.com,656 hBHSpfBup Blvd,United States,STI
c8b3af58-3ddc-49d6-be44-a78554f33448,171786,jtHrJX,984-659-3488,vsCvplJHcI@yahoo.com,679 jcySLEXGS Dr,United Kingdom,SV
afebff53-1746-4388-958f-645663ed184b,481484,NbdIxxX,877-284-8560,bSjwrOrcsa@gmail.com,795 eeCaSdaGuAGN Ave,Tunisia,SV
39020a6c-ee58-4b2d-bff3-02cfe63a67cf,333149,aWlvUjY,358-333-4263,nqSLNVngso@outlook.com,710 akjiVsAVpqoYa Blvd,United Kingdom,STI
bce6332e-470d-4c71-ab99-43f67b132747,856161,dinBcVeo,649-691-3335,miVSoXNpD@gmail.com,823 LQXGIYGMQCclN St,Nigeria,IC
bf97d526-ac61-4a61-859c-4c95197506a1,355286,yPNql,543-519-4839,DdfqHBtkmBp@outlook.com,851 sidWmxwTINPsn Ave,Morocco,SV
4b6083fa-3503-4508-8c61-ebbf41c0420f,604104,xzudk,967-814-7018,ivSQnnYSb@yahoo.com,651 ptxCqcJFqit Ave,France,SV
3052b7f3-1114-4de8-9912-9fbd7ca3ab16,654574,xgDRBKNPq,763-470-9176,FJJMXWmRek@outlook.com,917 cEIrbcdV Ave,Italy,STI
ffd7709c-511f-4326-9896-4ce26e1f4ca9,220775,zSOVcgr,754-555-5586,LaJUiuDL@yahoo.com,574 LFOcvRVHcyfm Rd,Canada,SB
8c6e3d62-05da-467c-8a87-d8cce6053fe9,377096,ckwahMd,591-858-7743,wLAOyhShfm@outlook.com,787 nmUouyfvITm Rd,New Zealand,STI
74863822-df4c-4f15-86c3-d14d403fae58,981382,WkBVafo,569-311-8555,LoUWGlLitIl@outlook.com,366 wPKhJaNNE Rd,Algeria,ENAC
16321f8e-002b-4165-9384-1e5d5707635d,907931,LUhITewVk,226-293-6945,sGXFgwlST@example.com,120 fPovROWcXnr St,Portual,SV
0c60a3f4-099c-4232-81c3-cb168551a965,name,QWkIulv,932-413-2717,TUeRjqqhlDQ@gmail.com,670 fezsbdEnrlrY Rd,Portual,ENAC
22d165dd-f62e-45a4-9e94-e555ddfd9335,CAscLjG,YPmMVFaip,827-828-9371,ioKKWMdFPS@yahoo.com,346 UIJDAQeGI Blvd,Swizterland,SB
b986b2de-e762-4c6a-b9a9-3867c4d94d64,BzdSkdV,kIcLaKzj,404-698-1855,FYDxWhoFX@gmail.com,245 GMALyCWTQ Ave,Algeria,SB
c6360b9b-e665-4ccb-8009-850494cac1dc,FsNozS,nxqBaTSL,608-342-3218,beiWypRdJhF@yahoo.com,817 hIuOwKYfD Ave,Japan,SV
e85e39cd-0e16-4868-9522-00eacd5ccf92,aIFGL,sFkCLy,975-499-7311,jgwpxjuLC@gmail.com,409 TobeTlYthdFWi Rd,Mexico,STI
e96d27df-abcf-4584-81ca-e1eb95ae47b7,SAjLvVcD,HgUra,907-517-9201,HulSTOUKY@gmail.com,569 BulmpBqQddxl Dr,Belgium,SB
d210d7b4-24bd-44de-a035-90beeb909d55,uHDbuX,NQmEGP,448-748-472,VDvRoHtxHOB@yahoo.com,833 TmXNonsbOvT Dr,Tunisia,STI
628f0256-afb6-49e3-82da-a30b6d653b08,nGjbSTTYm,RrQhO,897-946-9409,WgRMnOjtBFT@gmail.com,539 HLaCAgfLNQiE St,China,SV
835d945c-cbb9-474a-bf67-929035b54607,wbxEjkjj,jwYsEgWrJ,758-214-4134,pyiOCRVcC@outlook.com,949 BpYkMwVmT Blvd,Germany,SB
b11e6430-6a00-4a9a-bbc7-116be53bbd04,ihHqhK,UsCcldpxI,441-965-3720,ncodcGRT@gmail.com,654 sMibSFJlrjI Dr,Holland,SV
a6fad87f-147b-4186-aec2-5a41db7b5dd0,VzJiIo,tNbIAXI,986-486-1576,sVyvFKcwMCC@yahoo.com,112 zwXClgRWcfP Rd,France,STI
808b5d1d-e2b4-4000-8a4e-d624d3e72ca7,wwqyhENN,XfgIzpGqU,534-347-8725,sTfWuorUoG@yahoo.com,522 dSGrCHNuQXy Rd,Vietnam,STI
54c8b5ee-cbd6-45af-9889-ae019b01cffc,uJVvl,MGfqfkew,582-326-5765,CruVTJhrl@yahoo.com,459 cfCgOtzjqJo Ave,Luxembourg,SB
f81d8b0a-a1e7-4a9f-b252-227bb53206bc,JWilFdeP,tnYuz,697-333-4543,CURHHzehar@example.com,117 LFKkJniLq Ave,Egypt,STI
aa1040cf-73b7-4a72-9418-055c9290a7c1,KdHRMLemA,xiMPDlL,518-203-6541,uPiquhOFvLo@gmail.com,428 axgcDVgdpccLc St,Japan,ENAC
b2452c8c-a4cb-4d80-b21c-e57099a4ac12,KjhMrnaQ,RRocMeRi,695-487-5565,pJCTCGLj@gmail.com,676 gJkiSNSYD Rd,Spain,IC
f2b01409-1ae4-4a66-a4e1-637736d3d56c,DYmetNLpP,OFbPryX,200-863-6477,KldNUPykq@outlook.com,255 QVwsKaaRIhOxgv Rd,Germany,STI
78654ca6-3e03-4f82-b8d4-fa05dc1eb586,iqtTgml,xsIGFCNh,404-879-8743,CyFzrUQL@gmail.com,374 ACCcvGWxX Rd,Belgium,ENAC
8e60b914-d6e2-43ba-b0bd-aea627f11031,eXsgs,YAOBSflE,921-526-8201,erbnnmPJUGw@yahoo.com,679 gmuIjGpWtiwv Blvd,United States,ENAC
c3af5c36-cea1-489f-ab04-1a4655062505,guqRHe,AdHQa,889-479-634,vsUBDcKEt@example.com,631 ABpQaYSbphiAd Ave,Holland,ENAC
f070a4f6-de57-4d0e-80c5-3fe58d444aba,xPFBX,CyKlzoh,304-512-9459,mDzpqJqfHg@example.com,673 tdpkJJncQz Rd,China,ENAC
be65fcee-e144-416e-a630-73d97db9dad9,dQKPY,fnBBVYkX,839-748-3735,hwyUzobRltH@outlook.com,260 qonoKkmy Dr,New Zealand,STI
f5646de0-a8b8-4e95-a12e-3eb60360b8b6,mtKpiDc,yPtnmt,649-219-759,HPIdDSXhRj@yahoo.com,509 iGgmyUADMuhoaI Ave,Morocco,SB
8a57e13a-43de-48be-9fb9-71618f7d2e39,WToDvDzPj,GsJrbXOln,302-564-1127,oHdmwUQo@yahoo.com,737 cKPgHswFwy Ave,Italy,IC
bb4b78a8-df88-4210-8621-57292e73b74b,LgiJWSE,uvgAsTh,553-537-6137,gOyYyTVUgt@gmail.com,913 USANEkJb St,United States,SV
9a83b757-0f09-43f1-abc6-97d5403d432c,oSUkf,mqRpx,357-934-7090,nFtjhXAvbfK@gmail.com,202 lLJKMuMKTy Dr,New Zealand,ENAC
14d63b3e-2834-4d26-929c-5c88282999d7,xapVCUUcW,qSiJOTvCu,592-306-8754,eIUhVXHWH@gmail.com,553 tCtfbtqrEqsIN Ave,Algeria,IC
6b1f11dd-1671-4d84-bc68-76c58d6708b6,ukjIRHO,dsNIr,256-560-3160,iFzBjhbxXE@yahoo.com,250 QoimhbTeX Blvd,Algeria,ENAC
379a2070-43f4-4219-9016-b0cc14ae0c19,AcfwLe,cuemEMivA,797-679-7172,MyHQamfJvL@outlook.com,228 DgSdxxefbtr Blvd,Vietnam,IC
2280204f-861e-4499-ac9f-d9edf1bc27d6,SILVST,oPjeHh,391-576-3650,DkbORmGITDD@gmail.com,787 AnhbKCtpLtqrzG Blvd,Portual,STI
47f9877c-b077-4356-87fc-f284a7b8784f,juuuu,bIAWdAE,271-364-5221,YExOYsXIwoW@gmail.com,582 VqbklogrzJx Blvd,Italy,STI
084bf686-43f1-4cf9-9714-c3862c963b59,fkOipl,AynUDlUK,871-651-9334,DkJhlixU@outlook.com,277 LAASPSQYFYfNnV St,Spain,SV
258f0e6a-16df-4638-8eb2-3d1f73261def,AepRMhebl,vKkxuuED,232-880-3491,DEMswnYYrFK@gmail.com,260 rPqXLcPkYbJJxQ Dr,Algeria,STI
f4b0b689-5305-4f6f-9bb2-5d657142af0b,PaYuBu,XBoxINUO,478-277-4155,kGKiKUvBAR@outlook.com,143 eHPixFElpAomXS Blvd,United States,IC
a8e3e2e2-c01f-41bc-8142-11b07644e17c,sAIic,aJVlS,675-963-6484,QDdhgdWslbF@yahoo.com,667 GHUVQCyKoeb Dr,Morocco,ENAC
082e4783-515a-4239-a05e-af822b7b2c53,BNinR,YUPwoxG,508-996-5101,RKXueaeDcIK@yahoo.com,644 YmDFVwYMkG Rd,China,SV
4c7da578-9d6f-4ebe-9ae9-a9db318f1bd6,OoJHPEq,RKwdqW,494-829-7465,tITxMoiAC@yahoo.com,453 aCKaVmUD St,United Kingdom,STI
25fcfc6a-a6c1-4e9f-9af7-8f055ea57fd9,MivnrK,XJRFrPvr,955-492-2120,DttFwDRE@outlook.com,968 zunGDPvV Ave,Holland,IC
8bf7a94c-72bb-49df-98df-3233e98909d6,iwEXTNa,WSoEsnMq,966-201-9286,gEAyLeqn@gmail.com,450 FtByWFHB Rd,Morocco,ENAC
4153f47c-b0f2-41d8-a981-4e27eeceffad,bxvIkxXe,khgFNUT,587-873-485,fmwbAucznK@yahoo.com,862 TIxgGkXlDVQwxE St,Vietnam,SB
e79ba22a-1421-4a67-b074-070cba731f28,DgscC,MHoONqVBX,544-248-5321,tdtbYYJT@gmail.com,107 mxJSnfJvW Ave,Australia,STI
d7839398-12c4-401c-aa75-d0136999a841,NlgMWA,nWRCALhkd,434-919-2501,feCrRnxft@outlook.com,263 xhBnlsCkaGAdM Blvd,Egypt,ENAC
0f095b80-0aa4-4de3-a4e0-02d9d1be95f5,asWOYel,hNUYUud,456-913-9896,KypgGfuFMD@outlook.com,246 arnMthMtEVoJ Blvd,Australia,SB
c335daf4-18eb-4457-bc05-9fee1480fadb,OPnQt,KJsJoXPXt,879-579-629,deDYueKFur@gmail.com,447 CgUHwoyK Dr,Morocco,ENAC
dd473366-94b6-459e-9072-2f1b8fb0711d,RdHpKfd,ebVgo,952-946-567,WYnoIhVfJOn@outlook.com,718 JdYCRbox Dr,Australia,SV
e0a8988a-252c-45b6-8ae2-d7205c20e9f1,MRSgi,ADjOCd,664-431-2578,FdkvswsFa@outlook.com,196 bEEwbSgCWs Rd,Swizterland,ENAC
610557fb-41c6-40c9-a7ba-78d6d7733d61,ctOaBgD,wygaq,931-538-2823,wLUaVSDPc@example.com,607 QlpJUqbcdguYYU Blvd,New Zealand,STI
714a02b2-b6b9-42bb-8a25-c36fd04a01de,KHStYG,kiNwPizSk,243-644-4226,OxctElmltJf@outlook.com,433 QsbCbHMKlk Blvd,Spain,SV
5330a981-dba5-4234-9676-654b7bf210e6,dYorUh,XSrXjhUJW,269-715-663,TfYsAyIi@example.com,619 CuBdpqkXHVMKn Dr,Italy,SV
baf22420-e8f5-40d7-b426-86a7865cd112,HbdvySf,bHEUqw,531-458-4986,yuxezMhiN@outlook.com,484 wRcvISKYNp Rd,Egypt,ENAC
7d596379-36f7-42a2-9dab-461ee6b1a725,sOfbLppJe,mWNkgMC,303-775-9532,KyFblsWIz@yahoo.com,987 yRdJxxdSPes St,Tunisia,ENAC
bfc801ba-124f-4696-be4b-0333c1cb10a5,ImFbRfRM,YcyHzzrhC,222-423-4362,QcpbXSEuogJ@example.com,977 MLJmHTQCOTvQA Blvd,United States,STI
a1834b2a-6ab2-4cde-a56b-0f341b5118e8,lQWHEN,SVTYHD,722-479-7901,DmmLSpdY@example.com,924 AwBvluyUxqBtHC St,Italy,STI
2faa1ac2-4fb4-4945-bf45-6c474ecfb27f,lEDwnACNp,dSdljlTv,201-994-3254,mpAYKwvqBHi@example.com,390 zmgnhfimjObLB Blvd,Luxembourg,SV
9d4c3b74-af17-4f0e-ae56-5697e4e6f8ef,RHYjS,BLYgqOuu,480-308-4886,PgcPTLmX@yahoo.com,867 xUhejFAHCHBP Ave,Belgium,ENAC
911d4c5b-884a-4b08-8912-df2f5749f75d,JXLWtPwj,OKFSAPE,745-932-3311,eXhlueMV@gmail.com,201 eAsBTaar Blvd,Mexico,SB
deaf2e0f-01b2-4c7e-90e8-2b7d69cc62e0,YwrYYE,fKRrFlFVI,926-608-7000,yBGSTAHtVg@outlook.com,200 dzfqdIyE Blvd,Swizterland,IC
69828fb4-0859-4150-868f-db5f74615060,XIRBWc,NzGNEy,997-940-6731,AAujrIOCXia@outlook.com,815 CpPKdxLcp Rd,Spain,IC
46029e1f-cfd8-499d-b4b0-f278e0b151c4,dkJbNzHUH,mYXBKXKWR,342-730-1721,osiIbLNe@example.com,634 XVoFvSoB Dr,Algeria,SV
f40f6fb7-c8ab-4172-b5de-966a00d6d6d8,apjgc,esadl,848-899-2840,wBbhvEsfR@outlook.com,797 EzGweyKcxIge Ave,Canada,SB
4d02c8ce-04c2-4b61-ba16-38d151726712,NfYFuaDa,FaKmInXU,973-580-4386,PTkUEnyOq@example.com,607 yAErCCEkd Blvd,Mexico,IC
76c3cafe-d901-449d-87d8-b4a1db4e49d1,ETvHhqdgT,vQAeduVt,911-814-6650,RvBXfiEa@example.com,614 TDWnxdmsBSJs Ave,Algeria,ENAC
ec891fa6-7b76-4739-bd50-c768fafa3aa7,UoTLSzXQ,RgIxNBq,383-683-1045,WfCsqRvD@outlook.com,240 NlMUYDxjJRkLl Blvd,Canada,STI
0e720955-0bdd-4d7c-aad8-ba6b76818537,iAEWJACA,duvnkaN,276-784-3954,eQJChtBP@gmail.com,224 maENrKcrTWv Ave,Portual,SB
02b9279b-9f4f-4878-bfde-e284e9a858d6,sHDYpRWCw,YjUVNdOA,803-855-8345,AafPwxIs@gmail.com,721 CAHvCCmQDhn St,Algeria,ENAC
72bec254-4c4e-48cb-a7fa-0637e174114e,IPoziLWo,HBffVKhj,667-792-837,WJelbiSIVHQ@outlook.com,378 prAshJzuRT Rd,France,IC
a5277ef5-de46-46fa-8676-7def3efee12d,OKvjE,JVhooS,640-567-6747,rzmyuLeoqdo@example.com,604 AWjKBXKwoQlv Dr,Japan,ENAC
ebf844d4-4bbb-45f9-9c0c-5bb0763d6d6e,GMbXDSiLI,gDcKi,686-366-5226,CxXOpSiENE@example.com,756 OQlEozVSujdwoN Rd,Mexico,ENAC
23454157-fc6a-4595-9834-3da5726e3c23,iERScyf,PLpmfjTxD,610-236-1754,zdHjEqJNK@outlook.com,263 QsCXCHROuXDW St,Germany,ENAC
55789f61-1ce7-40ba-af2e-d174a4edd215,lyQFN,KLAcJXK,492-421-37,SKUSYAuDeS@example.com,154 tSJCxXFDVBbJ Blvd,United Kingdom,ENAC
e36114c0-9283-4357-8dd6-f40dd252ca87,hCjVdofxB,AinpHXlX,405-768-9305,FuLKtnerX@outlook.com,186 CTjQuJSaKyFlYB St,Australia,IC
233226cf-a854-40c1-96cb-91990ac3753b,lMNMuVcKw,FatwlyzL,517-783-7993,hYuJmQlhtS@outlook.com,146 wNmGNUsFHtfsu Blvd,New Zealand,SB
047f3df3-994d-4f08-a77e-b1e62f02f270,nJxrVFVW,UupDp,466-902-7023,VqwhYSwdB@yahoo.com,319 bXBuWigWIHsp Ave,Algeria,ENAC
2a54ad46-29c9-4ad9-bca6-3561ec79d10b,ikTjpf,qYxxw,918-928-2308,kBcvQuXrxei@example.com,959 TccCqvjfiRCwD Blvd,Italy,STI
cac20e89-5a6c-46e9-bd88-3e412509cd87,iaUBiR,saBBzdrr,923-658-3127,UsNrVcpFaqr@example.com,347 MGDPyMkhIK Blvd,Vietnam,SB
fa70504a-15a8-4446-ab46-4ef9d7baf6a9,nbwkL,QFhbQI,508-424-827,QbVjRRmPrY@example.com,856 TBLLTwTuSzgz St,Belgium,IC
41d53e82-0fa4-4ead-a527-96a4d83324bf,dtwQrvRNT,fkGLm,950-855-7473,kxqqgWPWq@example.com,155 BCXCKnTim Ave,Germany,IC
401e9015-d9b5-4601-aed5-36c5ea066df7,cPGPLtV,RgeJLz,286-809-1050,omBRPkzkJHo@yahoo.com,325 ffMRawQU Dr,Morocco,STI
2f2ccd9a-8585-49b2-a7fd-1aa0dd907b7e,sNAVJD,Qkwzwlkl,439-665-3132,PbsgtRxF@example.com,291 VtfBmortJ Rd,Algeria,SB
9908d470-cc21-4ad0-90f2-8327d35b4d0d,Oerqyzu,TNhYMky,590-214-1727,pKFyxKBQn@example.com,420 JpqLQpOGsWBcFn Rd,Portual,SB
aefce1e2-2273-4eaa-a2da-34aafc544f0c,kSJWac,QOxnxLaaK,435-224-6441,fgcQCTEKK@yahoo.com,522 ujuTFicLiYaM Rd,Nigeria,IC
eba6c874-9666-43c9-832e-77bb7980c9a2,pdDaCvDhC,jhJqEbXMd,269-301-6492,aKGoBlMyIjV@gmail.com,708 xxlBUVjdmm Rd,United Kingdom,ENAC
691b42b4-fe00-4329-8812-2a0eeeb85cd7,cocsfH,XnOJCt,347-368-7070,ghMNmqVyC@yahoo.com,582 NGBypebgvIaD Dr,United States,SV
fb30df28-a0f8-4c60-917b-bc48fee9382b,ATknm,kVkcg,220-618-8451,cfagcfdxU@gmail.com,932 OMehlIOk Ave,Canada,IC
9e00eb86-ad33-498c-a745-f99cbfdf30f9,TykwEwEH,KPqhi,428-577-5624,ODyEgHOA@gmail.com,511 KszNRGpCftH Blvd,Canada,STI
8818776d-be72-46e7-be03-13cededc4f7b,vSCyFusFr,sRWBmIT,725-239-718,fNUbExnA@example.com,385 EdiKffxzy Dr,United States,ENAC
400c28db-87ce-487c-ba99-0f766b5eb30f,MJGluc,rbREHPg,699-682-2111,bjaeYxhcsc@yahoo.com,254 hxPtjgrYsRz St,Spain,ENAC
e59b5eb0-e6a0-42e8-bc7b-ed2252c2f5db,IoNOL,rpqgx,322-803-2188,HvmfqSied@outlook.com,244 JALjrWODnlMf Dr,Morocco,IC
8f621616-0d92-4eac-8adb-756c5321ab21,xIPnieD,gUpEyr,358-844-4852,sfhxRtuAWVq@outlook.com,114 iJaILuRfqMFHrn Dr,Canada,SV
893bc7ce-e8ac-4af5-a803-9895a9312797,FpyAOS,kxFqLFb,282-524-2281,ytLnOzBs@gmail.com,809 iinFIiJlLtpLu Dr,countries,STI
af044446-fe15-4102-b769-de8eabd8c6a5,pVjBmA,nvlxzqFs,369-255-4889,saeVbdxVI@yahoo.com,686 qEecEleJD Ave,Nigeria,STI
09f434c3-ab89-456e-ac12-89ec63df96b1,SMXFKfo,EcqPquO,423-908-3486,uYlxPiqFKH@outlook.com,414 qtJVHxzoQOV Dr,Tunisia,SV
7bfb4483-d233-475f-8900-932b23b112f7,gaGmcyST,ecrac,856-638-6846,fnBFzFmbiLc@yahoo.com,962 CSXwAiDCcTD Blvd,countries,IC
001a261c-8d2a-4097-a82a-854d62949e4c,HOIQoBU,BczXFa,822-426-502,rMPHhBocmA@yahoo.com,938 GrIxuHAkYW Rd,Mexico,SV
f4e526e1-4575-4a87-beab-c2369285e5e6,jEgny,uWPHBJqV,427-990-1066,wngycwQoC@gmail.com,205 jjJoWXdoEhPD Blvd,Portual,SB
1306bae7-a2f8-4705-a304-91f87ce27c49,kvvANJta,NtYka,449-351-327,TTylnWwk@yahoo.com,357 OuBiQuFcRXmB Ave,countries,SB
5a0a653e-1a76-4019-b3bd-336648e3179c,RvJmbAVW,WOmTW,664-379-5539,UKKsCHWF@yahoo.com,861 ijayaBBXWaNbG Ave,Morocco,SV
d7320af9-e841-4c8c-947f-d69fbfe2bef4,teGXqF,UqkvWMh,756-347-4240,bMYdArlchwm@example.com,385 ojDpnAdobt Blvd,Swizterland,SV
0c72d032-5244-4d93-a79d-ccdb31bb0c01,YYBWAp,VxAEIc,975-657-1371,jgTVgphc@gmail.com,826 EDaiRzxS Ave,New Zealand,SV
4337c326-d8d4-44ee-92c7-13c5bddb85d8,AcLPTNebt,qnjXaWpmf,881-741-5589,aFCmNKujM@example.com,873 OIhYIaAGs Ave,Algeria,STI
d305ab99-cac0-4697-acd2-4fc5eaf953f4,PVQovRfP,OCLHexCOv,750-932-5205,rGVmkcRPX@outlook.com,185 xIkiRpYdO Blvd,Portual,SB
f1872e34-26ee-4f46-b6eb-af661d77eb08,YHDrH,JRONSHYQ,267-544-4412,pdbhBqisJO@example.com,260 knQdfkqhbXulC Rd,Holland,SB
4d84cc8a-78d4-4675-bb99-6d6ca1ceec9b,BWwGe,bpkzMP,245-324-2724,TBYrmEhxzLP@outlook.com,888 SskDWBzbw Ave,Vietnam,STI
40d08b7b-3f71-4a85-9f91-debec6bff954,uBwQtvFwV,oMKShfpPM,424-561-8353,EGwwWYGLLX@yahoo.com,968 jUJkYqEcFshLDj Ave,United Kingdom,ENAC
dd7efb34-9f52-4168-aed4-fb4ae96536f0,dyVDSbX,loTQSX,775-432-5731,CllWStMYAm@example.com,464 VrWhEMFe Blvd,Spain,SB
7a1f43fc-28e0-43b5-9282-b60bdf084d65,wyIAJp,mlOfvfYc,763-556-5574,XMsVMLIaQK@yahoo.com,446 LsKbmQqfp Rd,France,ENAC
60eded9d-cc38-47bb-8ad5-9e4aa859c6b6,BBWkjkOtt,NzbvLaI,375-700-3689,aBGLorydfv@gmail.com,408 QJohPpIoibeAO Rd,Spain,STI
9ea8b696-dd49-434f-b09c-08bbd6f32763,OiKtAyTS,pfDLuy,967-609-3618,KiGSRRgMQNJ@yahoo.com,633 FLTnsjAhsC Blvd,Australia,SV
0c91dec9-d79c-4ce5-a516-dcb41f215022,AzskDjFpr,ELTFqYh,952-645-5196,XEcLiMJfRai@gmail.com,827 STElwIaaNkLBOK St,countries,SB
981811e5-4f54-4e7f-9c78-3fe956d97ae7,TrXjFcS,JpbgY,517-241-404,IENaCrwRc@yahoo.com,835 YIMEQaCm Rd,China,IC
4c819873-4ea8-460f-8e75-3d2cb525b8fb,ERsULkWf,MHqECTuqc,979-717-6825,rNuJrjlAGvz@outlook.com,942 ehjYimAStPIQS Dr,France,STI
5485dc67-6378-4822-9b37-260420a879db,XSdCCT,FOXhzgggS,966-977-3826,ChvFOHYz@example.com,628 VvfxziiOfbdiA Dr,Vietnam,SV
7d46034f-9f22-4922-a48f-63cf2dc704b1,fNBkKGcvJ,VIIvCVrP,601-710-4592,sOfEBzibr@yahoo.com,920 XdqTicvh Blvd,Luxembourg,STI
d904d5d5-9dd1-4c37-a1dd-3353cde77d04,UXRNWyDCG,LyzNrxLrD,849-342-3155,yMhoGjjTR@example.com,830 FeJvayCuVnj Dr,Tunisia,SV
9fb400ff-8ed8-496d-8628-023ed8cf50e6,PfvWB,uejhPqL,686-707-5665,YgAExMfj@example.com,297 EdCERtTtjO Dr,countries,IC
2ac8d55b-e283-4184-b636-4b1d51cbe8c4,nVmYi,vppvHpoK,490-370-3951,whivFhTexxv@outlook.com,166 XDcCmoDwtodiR Rd,Japan,SV
597b81a0-060f-43d0-ad93-4ae5e009a111,qKEVXCV,qQAKlS,814-634-559,bhSqEQji@yahoo.com,442 HGNVzImoIMR Dr,Vietnam,STI
68e8b039-3788-4fb1-9747-42084920c9a4,qADlh,KJPLbB,339-946-4434,sXWztsGkNc@gmail.com,702 rFPHWAuxa Rd,countries,SV
5083dea8-a502-4b59-a6d8-5cedbecaf15f,ORFVYXNy,jFXcO,814-432-4203,NsQjOzwSmS@yahoo.com,335 yNsKhWFQFI Dr,France,ENAC
a409bb11-8e2f-4938-aeaa-ec185b50054a,fxgSt,kukewzE,517-374-7468,xmYJyKqL@yahoo.com,148 FlPWLQqVHCg Ave,Vietnam,SB
47641c69-f93d-40ef-a247-eaa391f27509,tIVriFtr,TlgelihPn,599-940-1689,PVfryAUtHvP@example.com,401 LfzdFyHRXWnE Blvd,Tunisia,STI
32455a15-d3b9-4ab6-8a37-0ee677ef39e5,mLdQIGCUC,ycEREHCQ,871-948-3391,mtSuMzWfe@yahoo.com,905 wCCMUogmooY Blvd,Luxembourg,SV
e46af761-0598-4a32-8625-1ab731b34742,wsIOAAg,UPllm,544-376-4998,FwLgAwCVb@yahoo.com,994 IPbRlQYP Blvd,Mexico,IC
30f259b4-023d-4900-abb5-68458cdb75ec,UufGHIel,ptFUNC,807-433-3094,BTEkoPusBL@outlook.com,365 hkRsIMxzAf St,Australia,IC
be7b61c4-5a27-4d08-9b14-c752c16fde98,MwgRakUu,azfmupXv,794-295-2049,nodWBAGo@outlook.com,402 JtEnIUXsL Dr,Australia,IC
398de5f6-1861-4136-b0e8-4dd6b06439a2,MGCMAk,fEDrh,444-251-4682,chwRPbCB@yahoo.com,824 gSTdhjGW Dr,Spain,STI
f85814d2-a1ba-4ee5-9e5d-3707b72a533c,zMUmvMhN,spfRTGEhA,704-412-1239,TDzXwGfixD@example.com,801 Myuzwngn Ave,New Zealand,ENAC
ecd98e87-5899-4b9b-aaed-3a87efe94d69,UVoqSmLj,yifsXj,847-881-8882,GXuMHwUs@example.com,415 WjgCjoedg St,Morocco,SB
f4ee1689-0700-4312-8927-3df035a9a633,xlRAyWT,MiNBqrkWB,698-899-7655,fRjNTNJUw@gmail.com,505 pUhRwRddo St,Egypt,IC
294718c1-1f97-43ad-aadc-45af2202d2f8,GyWYp,IJmNdwGz,854-983-1242,yoClxUVQRsO@outlook.com,440 oVwRNQwKGAxRnN St,France,SB
754bcbb4-6cb1-42b0-bbf8-8f9953b1fc94,VUDHPqR,zRJyYXT,761-866-6454,UMDHmFTGtxI@example.com,728 rxhohGfDMbiY Dr,Holland,ENAC
8f09276c-1f76-4c19-9ffe-1e79d9c65174,cdVtrLO,pebKjR,730-921-9362,EBdggPifX@outlook.com,316 xTnjDfUkH Rd,Spain,SV
8099015d-6717-4bd9-bf0c-8c58654e4f70,UosriasIL,WiDoKabVf,210-356-3848,UFYiaNsLM@outlook.com,159 HyxpcYANbSrT Ave,Swizterland,IC
aed4d495-ef72-40c2-9e4d-1f430723fa31,DFfrf,UFhkuP,447-579-9495,IeFHCQOgtwB@outlook.com,248 WzILTvAMRwWM Dr,Spain,STI
9ba41068-cd1e-4f2c-9582-400886c58440,PlaydBRR,NrWRKgcbk,936-478-2919,FsMTdVnEc@yahoo.com,883 gFcGarmqDJPig Rd,China,STI
3f991e80-776b-4d39-8733-919680e265b4,YHubJ,BnbwNQX,227-954-2447,nfpNfvYvCN@outlook.com,988 jQkgiJyPqsUiVe Rd,United States,SB
5f82f1ba-8d5a-47fb-96b7-fe514f40dc72,HqfLr,RanhtWptF,533-651-9277,hQjcwHSBWqU@example.com,550 yewiXzdLNcM Ave,Algeria,ENAC
d689d3cb-20e9-40ac-895c-7cec88da97bf,eApiSEUAG,YKdswQWer,507-300-7684,OOGRCBht@outlook.com,413 SqyxaOShGyA Ave,United Kingdom,SV
65a9a1ff-6309-41e2-8fcf-f4021aa6b6a0,iNDAvcVAt,JwbdXctso,716-296-5916,bhwsrbuu@example.com,127 FrrxXzYe Ave,Australia,SB
17b4d146-5c52-4d9c-9c19-3fcc0a7184c7,lYiEAOWIb,dcEbFXCnM,884-457-5788,JuItDukqP@yahoo.com,953 TAaRsxuwTGqdtr Dr,Japan,STI
24c67290-4282-449b-bf6f-a8a7fdb13cc8,UzwXrEecS,ycGEF,826-952-219,kHCMRCwO@outlook.com,590 AgtvqaGEGS Ave,France,STI
254a180a-b142-4dcd-94c3-aab0780c40c7,eKRdb,PAafN,897-341-6678,kzcSKwhym@yahoo.com,986 cAWYxayss Ave,Tunisia,IC
d58bc0c9-b9bb-4d59-911c-59828f6fee5d,AqcodJNlP,JuuqdvJ,520-671-6743,kQzRyOHXxK@gmail.com,754 sAPYIWeHNfCScz St,Holland,SB
8e2382b1-e7aa-453d-b2a2-8c62c802c3c9,rrgYChw,DnNgVqFV,942-473-3234,HwNtqKvtUG@example.com,138 YDLAjeEbTL Rd,Vietnam,SB
7ff77907-6ede-4fd8-9d33-169ed5a9f054,HKtyWFU,dSBKeF,262-357-3681,rMAruGSnUyz@yahoo.com,942 MPFdIXef Rd,Tunisia,SB
aed24b23-2ed6-4aa9-be4b-632402bfb614,AqjQI,MlTKNmN,819-995-6225,JLIwXTTK@gmail.com,672 moFEhSSCrLweJQ Dr,Morocco,SV
6c762d38-cfd8-43de-8064-4c4059b996d9,jrbaVE,YvArqIh,727-464-8368,zqGVEvSUsTw@outlook.com,312 YgFrnurnrdUih Dr,Japan,STI
4ba508ff-83c0-4596-b685-3b7639feb0b5,LHnERq,KFgNC,271-742-2212,hvXpBHsrSFb@example.com,435 IvmrJLaeK Blvd,Portual,SB
6ec18101-2b85-4741-b1eb-490d1105b9f4,tOsiwokS,ppbQYT,344-319-9378,hYolVcidfwO@example.com,928 FlTpjMUYqF Ave,Egypt,IC
296977a3-6895-4765-b801-06c42300996a,bMyWuUy,xzSYUM,975-359-6082,EtslyQSlvV@example.com,924 JNGfsbTO St,Morocco,SV
20b64e08-8825-4a14-8403-5d20c45514c6,lStaoc,mPzcfv,496-335-7256,xYRYRnPfSX@example.com,347 UBFhwxgKbCtR St,China,SB
74383ef0-00c6-496e-8b1a-439a67d472e3,SAkgLmNB,VoPOLMP,289-719-6150,GQbflDyQwXr@example.com,698 rafQRpuHo St,Vietnam,IC
dda25aa9-0168-49c5-8397-2a8bb4916962,IWNTkl,ccBVrd,316-271-3472,kdzquArwpU@outlook.com,812 HriwugpJgD Dr,France,SV
51c18e3c-da3b-47b0-b5b5-d7501168ce11,eymyDen,bXwYfmOv,780-301-2166,nDAnMmDmNr@outlook.com,486 efQVpVnOnGHsLp Rd,Japan,STI
0e30db93-6184-458a-b5ec-8e4a32ca3836,zKSaLlRIB,hFfGkm,475-438-2807,ztYSVpPDDcU@outlook.com,958 KIWENiLxuj St,Morocco,SB
84377c77-8cf4-45a8-8624-ce48cce21709,rTeXx,xhFPJaUf,640-331-7867,WNxJBedu@outlook.com,608 pIIRHPpNGFUX St,Australia,IC
e1eda268-39ef-4b15-bb94-5d837757058c,xwqwo,QHKxJpE,417-715-5956,kOkvrtNT@yahoo.com,164 uMVUjRGmGmau Ave,Egypt,SB
6ccdd36d-8283-4e01-84f7-f24162aa7e92,dieMY,bGTQAcye,766-782-5153,NLhnBwcYBnw@yahoo.com,107 KltbeiPTonfIh Rd,Nigeria,IC
43be2b69-f4bf-4783-bd88-7b130ede88ac,JrxHz,avIdha,299-696-2615,NiRqSvlq@example.com,912 CrnYkJocYhrV Rd,Portual,SB
633247c5-6c92-4013-9f29-957aaa6b96b1,UxsWRTQ,alCfUui,422-452-8378,euMNwCtg@gmail.com,912 cNVklMrmxH St,Italy,IC
f4fafdbb-ba00-4676-904a-9f020466fc39,JBmtQh,GmJNWRPpP,274-203-8764,TFvQtRxV@gmail.com,132 dFLiBJrYF Rd,Tunisia,SB
03124929-d231-483d-8ead-bc11bf6a0a88,sKQrz,JrbXsxMQr,569-727-7787,eEigihueR@example.com,447 OciwBICQMt Dr,Luxembourg,IC
fa5b377c-44fd-49ea-8b35-9eac37a150dc,aIKdkGcKJ,ubgTy,361-429-8324,lCHguJJnqrS@outlook.com,556 kUdrebhrqQVH Blvd,China,IC
3a2f9246-70b1-4a0d-af4f-77fcb15fee73,BgxDJyM,AMSFfSA,910-442-5050,cfuXFWCXBL@gmail.com,254 VsJMzlhXX Blvd,Luxembourg,SV
cacf2b3d-2834-4868-92ea-a9cefeb43d33,KSkxogp,OLfjGe,470-859-4939,mfIoXdRDoye@outlook.com,233 QzyCfUSsSH St,Egypt,STI
095ab26d-f212-4a43-936d-e4f910ec1cf2,zmftBX,yiSmsHj,643-901-3662,tmOcmQEN@gmail.com,948 yomTvSgoejrh Blvd,Germany,STI
a53fc42c-956f-4538-9af1-51625d286fbd,hVbqtWX,PhuauMAi,731-334-8569,IvsQKnbcA@example.com,294 sqQmyIlzRO Blvd,New Zealand,ENAC
f6e746b9-508d-4048-bbe8-5472dc755cb3,MbzrcOf,iouFtqoXF,459-561-6259,WLfemVQY@example.com,151 VFHhkCRQhEqQ Dr,United States,SV
36051506-2135-4c70-a48c-911cf759dfa7,YbfdVuPtW,yvUJsb,556-372-8517,aLohjHND@example.com,249 JpujKwqTRN St,United States,ENAC
90c7c790-2b5d-4132-9d53-1b0076549b62,AquekIoD,mDLtctuq,280-405-8104,vbHGbHAweWo@yahoo.com,426 uILXFbXXnWOoNu Ave,Egypt,SV
66303a53-3c81-410c-bc8b-e077ef4d02ae,xcticQYcW,TbeXEiRXj,937-762-6795,IRuTsyJruD@outlook.com,260 mEetDBOYipYt Blvd,Morocco,IC
f0fbfe78-feb2-40ff-a658-f67caa3f9e90,tWmLIOqJs,MsCNKzR,788-614-3214,DGWehYhQo@example.com,985 YUcYmeLM Ave,Swizterland,SV
134eea38-4013-45af-ba6e-2fa0e5950a45,raHvYC,bIkGT,372-261-7950,QVXuHwCo@yahoo.com,707 yqCKNBoCoBsT Ave,Italy,IC
f045d470-87d4-4bfd-9577-7fcede73c632,jypNAt,bJbmMN,640-298-2198,YKqscwEPH@gmail.com,869 tVPXQaYbYp Rd,Spain,ENAC
baf2d5f8-8793-41fb-ac76-cc5b76285d00,jcLtPE,rNpEp,508-775-5126,lPoNFiYoXR@yahoo.com,114 WgGwhCVjFE Rd,countries,IC
c01e8420-db35-4daa-8f5a-31fd9cfd7b36,RvwTsM,EmYlNXxu,928-637-7851,tfskjNva@yahoo.com,457 JNoCzvaNi Dr,Tunisia,IC
7703044f-1e4d-423b-863f-c07776945d06,GmADNdT,KNRQJDBS,734-405-1628,ncUkzcgkCYy@yahoo.com,176 nWSyBRjLtzQ Dr,Germany,SV
2bd72aba-0133-47b5-bf7d-33be529db170,tAsJSllHK,aDOEC,956-754-6864,olXSHxEJE@outlook.com,572 llHlTUxU St,New Zealand,SV
8b00bece-0b24-4457-8bf3-cafcf62dd2f1,yppoNSeFe,KkVICPgSn,841-249-6616,GstOdxcQm@yahoo.com,362 tSJcGUHXvFrDx Rd,Tunisia,IC
7125c673-1b7f-4469-a8bd-19861a9d116b,cCCHkz,lhPbP,790-476-6961,GVnmctMYK@example.com,464 SuXBYJdLnLa Blvd,Egypt,SB
bf520eec-263b-4621-95d3-c7ad9d50eb13,UAXUsNc,MTebXe,940-983-6121,hkAUWHPmjT@outlook.com,939 VjzntKtK Dr,Belgium,SB
b8101b6e-b3a8-4af1-bcb5-5f35486c7ad3,TVSizP,OzMuGnB,677-798-1868,hlnjCDzfH@yahoo.com,556 MwjUDBKBeFcel Ave,Algeria,SV
eac1d4f8-2715-4155-bfe4-dbd3683e831b,vJMAyE,dXRdVwRp,296-559-6883,BIkdWQcmD@example.com,441 SuSCwrGTMqK St,Luxembourg,SB
f320f1bb-16fb-4a91-b33e-ae7cd3302e08,CwpAyqdi,wLHGpe,606-680-1268,MxhnyERw@outlook.com,483 cPiCBLdicUDRli Ave,Belgium,ENAC
aa7a32ba-4ec1-4dbd-840b-e323905c1046,AifjVk,AcaBwj,329-575-8887,khErJKRYyv@yahoo.com,616 buWdvmOkMz St,Morocco,IC
2037ed58-81c3-4603-891b-f8c716232a0e,MaRIQ,cJjxGJjBD,352-720-7626,bzPhwEbgOU@yahoo.com,342 jECbKCEpBX Rd,China,STI
087e13f5-3fff-46eb-8b70-d977ae455a39,xTHneWh,LTEiDVyx,723-316-1430,XmrdFhBEpEQ@yahoo.com,161 FpxUkmpf Rd,Holland,ENAC
c4868c96-a7a1-4267-8e6e-6778d532521e,qTSmba,FsginE,242-635-575,kgGbiiHrE@gmail.com,195 OYWLmgsX Rd,Canada,SB
b4e3e513-a037-4240-86e3-5e3f7d755fc0,mHrgVplw,dMkVbbdov,913-374-838,UqNJkOoFFWI@outlook.com,339 sanuEXxHLc Blvd,Canada,IC
88afb1ac-7b05-455c-b38e-b362baaad3a6,SvdrumIJN,pelHaX,288-430-6189,UVoOkKjyPD@example.com,340 KVBQbyppGpRw Ave,Germany,SB
d91f8633-0781-4377-a730-134a2f16ba32,uSdtcczmc,ADtusi,792-919-3996,VhxbCVnv@yahoo.com,956 IKvfAGKslDHMWs Dr,Mexico,ENAC
029436f0-3176-40f4-907e-4cd7492f0084,CzhrSs,GAMGJ,727-851-5862,enGVQSwKN@example.com,799 CRspVvvRh Blvd,Mexico,SB
de5b2ebf-1d46-439a-8b4e-c2b2ac5f69fb,KKSXpDfX,ecgYJD,325-807-1237,ySQCmcovKK@gmail.com,546 qvUjNLSTzvDC Dr,Holland,ENAC
f6557263-fb72-4837-96f9-41f8f7a3c151,Qzyobu,gQWjDKI,551-244-1149,ACGeIlNCv@outlook.com,402 uRLomqgQMfLja Dr,Nigeria,STI
7a6a843e-c142-4d35-a84d-2c07d5e2ebe5,kNhyn,ymvGoFnM,796-272-4260,OqrosxjMl@yahoo.com,748 zCkbmpJFLNjNp Dr,Swizterland,SB
64f79575-84d3-458a-9911-1f2978cd95a5,bQFUl,TcPggTRn,417-429-1770,LJOIzAgAtfy@yahoo.com,401 TSdPJXVjuFmf Dr,Morocco,SV
9b92ea30-268d-4ee0-8e13-af3cb2650847,bTczUf,oxTQj,428-337-6612,uVLwaong@yahoo.com,339 UqoAxPxhkl Dr,Japan,ENAC
fe1ba07e-b73e-4dbd-adda-4a8c46b7ecd7,yqviNlbvB,lOkcQLE,562-236-8575,KTJmErJLibE@gmail.com,602 LCiCdQjBcT Dr,Algeria,IC
7ae1671c-98a4-4c33-95b1-1022a9d1cf1e,DuMQj,sQJuLA,522-530-1917,awtPDOsaxWN@example.com,957 AwWxdQyEi St,New Zealand,IC
4900b6f4-cecd-43ef-8582-8b8235cdeb50,hwrsOzJwQ,OibKhMfD,613-508-3789,igAbivJtAfY@yahoo.com,434 aMqrMmUfd Rd,France,ENAC
e38e66be-e802-41e9-a9d8-7cf0a80f822d,GsOaboI,HBiXQ,395-483-3422,gSuAxMLX@gmail.com,588 vJGNwqCILzOUE Ave,Canada,IC
8573bb37-2a1e-48fa-829f-094715cddb71,jXbsVdk,YjeTflT,875-596-8432,mTGmfYwALz@outlook.com,440 OdmHiUGi Ave,Portual,SV
24353c2e-21e9-4e39-a8ff-e559788f839a,POrgELe,YfhIVKoH,391-935-8233,CeDRpxDdrJy@outlook.com,365 oeLwuswOdmTXTJ Rd,United Kingdom,STI
17c2ae23-c41c-473a-9646-7bd8d1815269,URNrLUNk,uwddx,744-244-5472,FdKlapWt@gmail.com,452 nIpTMtemyHyQL Blvd,Algeria,STI
1e35107e-d44b-4955-9318-a0f7b252025b,IrOwYUDS,wdWqL,419-463-6183,sbVdzPVWROV@example.com,751 ualshCijQqJ Blvd,Portual,IC
f267e4c3-1022-4723-a58a-74acf0a33902,CARCMscp,enBOns,675-442-5774,MlKpfwGFxim@yahoo.com,459 qeONMbXueMX Rd,Vietnam,ENAC
edd9e0b1-0863-4acc-8f17-b83eaff49696,WxGVAt,kbqDIqqT,537-583-1964,fISausRS@example.com,988 HnsyrznDcVT Blvd,Luxembourg,SV
ae646d9d-210b-490f-95ba-67c7cfeb1f61,sSjOrNAu,qCctQ,731-558-2291,QqpKOefl@yahoo.com,836 llWDvQHTVndNy Rd,Australia,STI
7769e0f0-553c-4b7f-93ce-17333c086b53,gHKqACPa,jDdBzDgWX,455-825-6305,MuOnwoaqEP@gmail.com,151 DyyvXCecwHDRJi Rd,Japan,IC
277eec6e-8c1a-41c9-babd-98efe39d9616,mAcFyRM,fvpoJJxC,874-830-5922,bEeBBrBptcC@yahoo.com,799 fYeeFpAcmJXzik St,New Zealand,SB
d7def552-0132-46c2-a6f3-40e9f15573f2,SqcXfUOr,XlWgGB,573-817-7180,QzrPvtRgGFm@example.com,319 xNAEErrK Ave,United Kingdom,ENAC
827c1131-9025-4ba6-8403-cd59598e95c1,FWlYrJpFE,OsIrSRYsy,827-698-1883,xaLkWlNOJt@example.com,904 dXXoiPyK St,Vietnam,SB
e41faeb4-1871-4455-9cca-f504f55ef802,PCMjE,VPwKy,934-548-1916,dbBQWufLGOG@outlook.com,737 zgedTSgAoTQfH Blvd,countries,SB
307ec4c9-8599-4035-bb68-6d2c863f8296,csiSNsuVa,FSlGWYAI,348-262-7483,TytVpjnAY@yahoo.com,360 zIunapgG Rd,Mexico,SV
3173743f-8cc3-4e8d-8a5f-2b73d13b5772,TDvLc,GxxEjhHqL,248-508-9918,DeqqqgvCwtR@outlook.com,335 JOVeapYdbjK Dr,Australia,SB
0578c4b4-6e1a-4ec1-bf41-7dbcbe76dd17,nkPISRDOo,weqTUxiEB,341-908-7307,nbflvfrLiWv@yahoo.com,594 rPOkPiHzJmkB St,Vietnam,ENAC
dd10237e-dbff-4863-a07e-764acd6c4835,PovOAWvR,fwtTXqD,523-951-6666,rOiiIArD@example.com,987 CnEBfHoj St,Portual,IC
00859c8a-a695-4559-832c-7003ac71380c,BMAHqF,RjCQLNtRn,804-879-7621,iGRtdpEOlBR@gmail.com,586 lXLEKkuQbNqzFT St,Nigeria,STI
766ee6ba-09dc-43e9-92a1-ce0eb592d228,huWqVt,wVCjGdIcc,557-211-4635,TbwSYTyA@example.com,307 bVzFMhDe St,Australia,STI
6d660b76-beac-4ba9-8ae4-5665da2fca75,BDVdKxA,plgiab,731-941-1711,ujsnqfhPk@outlook.com,195 dyeInIyE Rd,Belgium,IC
b04eddeb-2ca6-441a-ba24-26b348fc8f9d,SOYhut,DjjsXPT,636-991-513,bNgkhUCvXd@gmail.com,525 VWLELgWjVHU Ave,Holland,ENAC
c4b09049-fc02-4d27-bec1-d8f5c8fe854b,wwAKvnEdv,tRfzu,653-984-3681,IzXopybD@gmail.com,696 vaJlawMCqF Dr,Vietnam,SV
238139f0-b0e7-4ac4-8fd1-2d1251044c59,PSCUFs,NAxjrpfJm,978-581-63,JPgimYbWD@example.com,496 VGzCWNochp Rd,Spain,IC
6eeed651-f80d-444d-8dc2-6eae976679a1,yUrhssPpE,spVbyuK,529-506-4095,pdBccrbqul@gmail.com,413 YGnTClUqfc Blvd,Swizterland,SB
dde14505-ff4c-4321-9bd8-96c676a159d8,BMbQEkyP,HQWVGt,773-528-4424,rxcjYAuO@outlook.com,575 fuNgbOKYxzUUPJ Dr,Swizterland,SV
2b4dffee-9228-44a5-80ef-9aae5454daca,mArDxXfW,MMdcVkt,493-765-8611,pdBusgTkh@example.com,145 AObjNuKKwXKf Blvd,Egypt,SV
30be9b7b-428b-42bc-a4c3-4aaee6e3e80e,jefWxx,LReUDdljB,285-334-7291,IVkUAirKgB@outlook.com,842 RNBPwNcAS Ave,Luxembourg,STI
5633895d-f9ac-44fe-8ce8-ac5761bc1bf0,wrjueai,BAIJu,721-623-505,Mlphlwxf@outlook.com,414 BeTRHUPUC Ave,Canada,SV
23af76b2-903e-4d2b-8520-546b3c42c153,tScQPPiaP,AjmSQQesi,404-372-7328,dmigDcoMi@outlook.com,546 YemEeohKQiCbj Rd,Portual,STI
5a122f2c-95e3-453b-bc5e-43079bed0ed5,GnAAAFCd,kChGK,800-600-5196,DXehHvFEwX@outlook.com,553 LiLThTFa Rd,Portual,SB
bf3ad18b-d4c8-4747-b84b-d721f9851875,gRGkCYfol,lDCXQv,405-646-2412,fdvTrofwKM@example.com,680 poQMWWtHdQ Blvd,Germany,ENAC
afaaf2b8-695f-4ef6-947b-7efe5839d4d1,Fsygfqbu,UHUXUv,235-372-973,oMGBTwtJH@gmail.com,714 ImeJOsHEVowoF Rd,Luxembourg,STI
bdbe95c0-1f01-44cf-9315-dea57f1c77c1,spvTpbQYL,wfkhcsc,835-683-2360,cWdraqOPDC@example.com,916 vAvOEuQy Rd,Algeria,IC
903befb9-3cd9-4684-ab0a-193b797fe23d,pwSpeaSB,qRsAaBwvJ,912-204-953,dJKmADsLUwD@yahoo.com,320 TYdhJqjfDsVN Dr,Australia,SV
71f22d1a-b5d7-4c8d-96fc-b120337f65c9,ROGeOOw,fGuQnRosz,351-862-4486,QYLcyzcyOkz@outlook.com,374 reJwQziXO Rd,Japan,SV
e69a1ad4-0a8a-4175-aecf-430e55e8f4f1,XEmISlO,REWhP,662-716-2757,YAzUpSCSB@example.com,424 HuidpfPXR Blvd,Belgium,SB
0a4cb65b-fa9f-4b72-ae70-8d0cf37304ee,pcxYhio,cgmMiagM,820-861-2054,mdwnlKgpLs@yahoo.com,382 npWkrtfg St,Japan,SB
bc1e724c-cbe6-4b43-81e7-abb593a47097,iFrLfErF,cIPOU,710-259-9983,eBNcuaDJpiW@outlook.com,565 LvpEtpvniL Dr,Holland,SV
c262aa4a-0066-4522-bd9a-ce5845fe4088,tvnjdzcSc,bdWanJ,496-789-6611,LofdCVIT@example.com,554 GwGydMGHQSaV Rd,Japan,SB
d2244053-6ccc-4ae7-a5ee-29f5ccd87031,ckyWgfEkf,yfePFQQDI,491-465-7657,wbSlIJFM@outlook.com,527 vbQixpWnrueA Ave,Germany,SV
70a52598-7ddd-437f-aff4-76037b8ae580,lPIctbC,mkPQb,321-841-242,PtmfkKpBprn@outlook.com,920 IxEeijhKNv Ave,countries,SV
db397d8b-0e5b-460a-96ed-d28016bb50d0,fjtHiwg,JtmTuK,225-661-6724,liipqfbzS@outlook.com,347 MqzMdLTgQrL St,Belgium,IC
945ef7d4-de60-4e4e-9839-5ba64dbce3de,PcEqz,KSDiWxa,433-910-7070,KgMzTgyyj@outlook.com,409 xTpmhrKpw Dr,New Zealand,SB
4f7d47c9-d7ed-4a5f-bf47-eeba171fb0a0,aQYwjy,eabaX,993-961-2574,mretXjDNs@example.com,156 JWUfQFWSuLSPNU Blvd,Australia,IC
fcb76bcf-967d-4493-bd2b-6c2ac5a0be4d,lutFNlf,EDVilbzcU,738-605-165,GhLBKPlTFso@example.com,488 PCEsondewp Rd,Swizterland,IC
f23a9b16-bc51-493f-b130-46b7d3332f11,NFinne,dMXYw,200-560-220,bbgGIaObgH@outlook.com,417 SucBojIpnI Ave,Spain,IC
2f05db38-84ab-4b73-b2e1-1ef0f075fa2a,bfmrB,QyCVRlSb,333-355-8996,efQcJPJYshY@gmail.com,718 tIQjHSeMzFF Blvd,France,STI
33655146-e9e0-4caa-b816-ffef44628664,SAXpCKArA,nwNzw,911-497-3988,ilvAhxvtuHj@outlook.com,727 xHsOVVAS Dr,Tunisia,ENAC
ed70e21a-2641-46e3-93ab-a42aba683127,GMmkgarRz,qYTJtjBwq,638-817-698,OwjQTaMHyIt@outlook.com,433 MINPJbecisscJ Ave,Morocco,SV
8765aa8e-7b44-4cb5-aa31-8944a8752647,BbBOktlK,YhpumBCD,680-479-6448,WxXHxHVMz@outlook.com,817 meupFHcLp Rd,Nigeria,SV
8090c72f-8a85-43d8-8f0f-48cdc5ad4971,pmgscX,KWciTuiw,726-342-6263,EyrOllMl@yahoo.com,423 RWElgkiuXmhYuD Rd,France,ENAC
97f9ba81-7275-4e72-bedd-e58592c2177b,ipgKwBBm,rRmTUPH,935-951-7401,pSDHyQem@outlook.com,214 bXhhplcRiR Ave,France,SV
1b509973-4a6f-4605-8274-12b4d410c370,VWLEuiG,MhkIVufo,908-357-4489,ikhyTcTLM@example.com,193 JGzUeMhozge Ave,Japan,ENAC
332cb5c8-e15a-462b-b76e-d7b7401e84f4,irGXmY,QDkEvWe,579-876-7868,RIJhSWgirG@gmail.com,552 EQnkpwQqrXgMMc Dr,Canada,STI
e68d7c7b-377d-4983-a78e-601835b17a0c,YAjRJ,mgEuxyaB,387-555-2891,CMYKthLxDSC@gmail.com,460 QwsVjNaPO St,Swizterland,ENAC
0004a632-8cca-4224-bee6-26b2067e3a07,jQOPhGk,otVFpPt,393-416-6986,hdBuCqUQBQ@outlook.com,753 qivXVurw Ave,Luxembourg,SB
761f101b-7953-4701-9a25-4fb37242d63b,BpIIDmt,ALLmPQGT,331-998-4432,FQnaGEpxlnc@outlook.com,324 EylVoLhlI Rd,Tunisia,SB
a9802355-fd37-4244-9364-2ddd356b99fe,IAXatvl,NYPMQM,277-207-8528,ruKqYXLyzAd@gmail.com,263 yezztuzzN St,Belgium,IC
83206a5d-b134-40bd-b8a4-7da77cbfba9c,lhBmAxcu,nbjhUk,714-255-9907,dhHgkuyq@gmail.com,291 DiglUvGcWU Ave,Tunisia,STI
eef5344c-999d-4600-b994-576c76d4de17,IsShaiMrt,IOzWVL,288-687-3374,YLgtGoGjpRo@example.com,108 LAjoyRrz Blvd,Portual,ENAC
53b02237-2647-4b21-8783-9a518b60b614,PMMRTFgBW,YVwiNYyI,442-671-6081,lRJbcmXCrSc@yahoo.com,547 rkhxSygOv Rd,Nigeria,STI
55f1dce8-57d8-4a08-af4d-bcb7a85c3f11,xcYrYmqW,JOKao,470-923-8020,eNWLsMUPDql@outlook.com,912 sFQlvywDnu Rd,Mexico,IC
ce2bc8f9-c598-481b-8107-36f375f2b960,dpeVSCCv,SvmBs,581-500-8103,TNxGPulCsSB@example.com,812 JRuFAodVzxNGNI St,France,ENAC
e26a467a-d8df-4f8b-ac1a-fb06aea27d28,MBwbq,luNEjEOva,696-972-3718,SBWLUPCz@gmail.com,593 bjALynya Rd,France,IC
b7cc7bc7-c182-47b5-8f72-2394ef8386be,aJGgWQy,tVLMphBP,667-866-3545,bCDXYJnTL@gmail.com,336 GOLxkeWGidftL Rd,United States,STI
1e111c3e-fb5e-401d-a222-c7f08724d9ee,smYuiXReL,xWPeYEm,958-266-7319,jsmpEzkVisy@yahoo.com,778 qGpJrffGYVNmU St,Spain,STI
470e7c13-2f15-48fb-89c4-1e215eb0ccd3,UqBVQTakh,IUNVRO,879-712-3546,bpLKuACaUfG@gmail.com,985 enqhrwTuRno Rd,Portual,SV
72122a79-6468-47f3-bbbb-c2e0bc94c634,XyRyNGd,wVAvOs,827-578-3719,asiUgnuBcXL@outlook.com,825 kGUGVCVkMNY Ave,United Kingdom,SB
7d403990-3024-4a1d-9f98-13c531001985,crFFaSD,zMtvc,801-481-3127,oKViSWSbS@yahoo.com,960 EBIgegUMuRjbk Ave,Luxembourg,SV
635b894a-10c9-42b3-b7d8-4f555d473c7b,XVmkQd,pWHtjimL,545-663-4626,UDRywQhvT@example.com,848 uhDprqLa St,Italy,SB
32aabafe-e571-4b8d-b8cb-fc3dd04fc728,lucXm,ulxvDo,394-626-6608,jcKDgcnEl@example.com,172 JDLjvswY Rd,Holland,SB
78942a09-8a26-4564-b453-83ecf3925652,JmezciQsU,SHRQoLWcu,683-423-2538,vgECBPOl@outlook.com,120 StMMbBwGzN St,Mexico,SB
9f864962-3e95-4950-895c-1816b83eb196,iRAROLJGi,TeEIAA,508-425-6196,faWLswUvwYf@outlook.com,339 vDMMGcUqQf St,Japan,ENAC
39e2e906-097e-468a-9728-16b4558a7c16,DdgJtB,Hocmz,628-482-7850,SzxIuLolQ@yahoo.com,351 hcqKzlNpHNfIV Dr,Holland,SV
49636be0-b330-4107-aaa1-0130f01e09c8,zDXFj,LvRAj,839-984-28,KyCKSUYBT@yahoo.com,245 hUIrDdCpoEE Blvd,China,IC
dfb3a491-698f-4255-9bdf-7ee6800a2ccd,OSiag,hhEXHyFLm,647-949-427,tmhmWNaJ@outlook.com,674 ERXqObRQNvfRv Ave,Germany,IC
fc30d3bc-ca30-4fca-9907-38cfde771717,OCJylsl,LyvxJ,560-509-2332,wrlrAffNkdq@outlook.com,639 TmdKwWukcrkEb Blvd,Italy,IC
f50ed6f3-ffb4-44e3-94cb-6da80829ca95,jykuKTCWr,UesqBfb,982-898-4407,aBdJttCs@gmail.com,746 prCOBsGrGCqgjX Rd,Luxembourg,STI
e54ded7f-68e8-4a5b-8386-66099eac61db,bihWW,wIdAL,624-242-3044,oYRvEbPc@example.com,787 GqQkffvhqNncg Ave,Holland,IC
b2baef34-404b-4cb4-baf0-8af27066195a,fcqcz,ORDMvtQ,921-650-6811,YsybuVrXWGV@yahoo.com,600 hDpXqMce St,Spain,SB
c5bff191-7dd5-4883-9143-11c34b896db6,IBHqAVN,UdxlId,608-557-3429,JbGtzQRFI@outlook.com,245 BBoKAoSJ Ave,Germany,IC
684f0472-63a4-4541-a0c9-d7c21364c648,BvViKY,huexO,993-482-6920,fnyTULcCoU@gmail.com,186 HHnNaDStX Ave,Japan,ENAC
04ba454e-f609-4aa2-95dd-21f1c2000175,FxtAdzq,MawLmA,380-383-2577,dMjXTDupbG@outlook.com,558 xgNxYsVemSC Rd,Swizterland,STI
bdb6c097-8762-4cf6-951e-8dda7f30793e,lRjjV,WfYre,678-926-2502,VFdswPxQ@yahoo.com,274 vWDurfkoKGeVNS Rd,United Kingdom,SB
f16a0bd1-f9e7-467c-99cd-6e2b2665500d,RbtAPYHAs,Xnoyj,911-500-6074,JvQAxqoTOP@gmail.com,892 cBOqwdmo St,Holland,IC
c73d599a-8d33-4d30-9d5b-5997cb1facc6,siDFg,QDEze,448-532-3740,niEWwglWF@yahoo.com,913 QlSsGwPJ St,Belgium,SV
5cb92041-6549-4ad8-b9f4-af2a27c4b254,fOdFTr,PHWemrAz,981-839-8215,fGuTpUaxUXw@gmail.com,535 xTRmFmOXkoeHdN St,Vietnam,IC
33c5381a-dac2-4f8d-9eed-fab05a78cc53,aqoWkO,BYLoQQN,505-654-6620,KBoMEJRi@yahoo.com,828 GonsSyJy St,Swizterland,STI
a49953c4-b433-413e-989b-4b4d204a5872,BxVtnf,cHiXL,483-622-1273,dkvkgzJhRm@example.com,518 hLHbUdnE St,Japan,SB
c789cdc6-c03f-41ab-b215-4e67a6b3b317,AOtfLIz,CDefm,330-529-4438,EyyVtOwpi@yahoo.com,656 ccwJFwBUJSV Ave,Holland,SB
ac57a3eb-d6ab-479d-97c0-e5434a7449d0,jtHrJX,eypxX,669-626-610,krpRuOXbcoY@outlook.com,659 wTvTivtjpBuFF Dr,Nigeria,ENAC
4b9d0cdb-d716-4559-a09f-faa081a6f821,NbdIxxX,FMtgPIOER,774-708-3780,BrjqrbQcSv@outlook.com,209 wHVqKoTjotduXh Dr,Vietnam,IC
25d69834-b571-42a0-b154-d8803d25a18a,aWlvUjY,JJjlnycf,939-321-4273,rHVDTmnAMnC@example.com,343 AHMGQQtifeGLE Rd,United States,ENAC
9a28237e-0cb7-483f-bb99-a2ff6990c0d6,dinBcVeo,PNGFIr,947-484-5626,yaJJjLXrsB@example.com,336 LibbCtTaEWPON St,China,IC
24eb7014-29a4-4467-bf80-b489902c8a05,yPNql,vmlWWA,370-629-9869,flKSFDCgy@gmail.com,336 xhuxCIKJ Dr,Belgium,IC
f9fba995-a440-46ac-8f10-8d3c0ff0dfa4,xzudk,zumCKLR,956-870-5803,HhOPsBXsb@example.com,774 QpFeUJzoTqWj Blvd,Belgium,SB
931155b1-d7e9-4bc4-ba27-4281bd782e3a,xgDRBKNPq,EwkGSm,237-866-9459,wgreMQYnw@gmail.com,482 vqvppzkEHy Ave,countries,IC
bf646207-8de1-45c0-a0e7-841915420c59,zSOVcgr,DlSWhkMbw,644-661-6992,kJXhqKjU@yahoo.com,969 HDjcKKpGhQp St,Spain,STI
55b4cfdc-b927-4b28-9d66-6ed57852777d,ckwahMd,FvesrNM,969-685-9530,FziwejFCalp@yahoo.com,616 nJzlrcLNwHpYqC Blvd,Canada,IC
4b1d90b1-a0e1-4b9e-96d7-e23b8d6b949c,WkBVafo,RYefsrE,726-208-1288,IMEtUQrHvm@outlook.com,663 MpUDhImGKDppH Blvd,Portual,SV
0a77bb17-7d75-4e93-8142-5871cc88e806,LUhITewVk,NNllBAvS,812-562-7160,IhaunpiRg@yahoo.com,995 dXaLXaQJpkBc Dr,Luxembourg,SV
78fdbc35-e1db-422d-bcf1-e0b0bb4323b4,QWkIulv,UXrdFreK,887-257-1523,DFYPIiouV@example.com,772 KvTikusF St,Tunisia,IC
67ea7a48-192f-4c24-b238-4a9477d1d258,YPmMVFaip,QhRWNun,845-281-5168,NIgINAIjn@example.com,291 FjAyBJvkf Dr,Portual,ENAC
cd9e1569-243f-4b69-bf35-1211934feee1,kIcLaKzj,rYzzcpBDI,211-910-8758,xRGxsCkkJ@gmail.com,668 hKhNMjLNlcYVsR Ave,Germany,STI
be5b93a5-fe07-4a62-b3cc-e68645b4ed8b,nxqBaTSL,KKyqHjir,910-810-8081,YHbtlAjdxUo@yahoo.com,289 huLGWgenEaoz Blvd,China,SB
24371cc7-070e-451e-9fae-ca75fac8706e,sFkCLy,RUMipbOa,728-756-6376,lYSKUsGo@gmail.com,196 GwsziYmDhmJyp Ave,United Kingdom,STI
5283681a-d7db-40ee-9ab8-1a1e15264ab6,HgUra,DRxds,549-691-9436,jAnkYwVKf@example.com,273 iUjaIErjvnWO Ave,Swizterland,ENAC
f24518ae-a1e4-472b-bba6-3ef84698a9b1,NQmEGP,vscaaoiw,664-627-7845,SQvqvajerE@outlook.com,932 OcWWfqGFPWkg Blvd,Algeria,SB
ec12d2a0-1c19-49b9-bd2c-f5033b649cdc,RrQhO,FIfuy,754-799-4260,EGzlTTIzkt@example.com,588 tAptWtARxf Ave,Luxembourg,IC
d376d5ce-ec48-494b-bfcb-f89b322c2eea,jwYsEgWrJ,YygOxQaQs,952-205-9193,OAmcYpoBah@gmail.com,481 SiyzmDVbdIKOUE Blvd,New Zealand,SV
344ce686-6130-4818-afa0-072e5e3d13e1,UsCcldpxI,RViCg,576-453-9541,NueRHtvF@outlook.com,492 PQXcpCbAECX Dr,Morocco,ENAC
56a24dc0-60c7-46ab-b470-c48ded6feeb2,tNbIAXI,OpnSl,630-948-2658,acWEYtWdn@gmail.com,946 ftIwDGGP Rd,Swizterland,SB
d6a198b8-f666-4d17-815a-c01e56013ad3,XfgIzpGqU,nJPSrCVdy,503-268-6136,QLrgGNhgJD@gmail.com,965 dhjLYaYbHV Rd,countries,SB
f3d84941-097b-4553-83a2-94afd2e47a2e,MGfqfkew,whmdAiG,377-538-7645,MmVUoXryn@outlook.com,237 gTnCTeiFzwuXF Rd,Swizterland,IC
8594ebbd-48e5-45da-a896-13476b17c7a5,tnYuz,eCkmPGOG,954-680-110,rceIkAMIQoI@yahoo.com,100 PshMqlwQqwm Rd,United States,SV
cef89231-9cdd-4904-a342-6a2896c71f9f,xiMPDlL,IKhyHCMfY,487-881-5623,prOcPVAUXfF@yahoo.com,959 OCDGfCcxpM Rd,Swizterland,SV
0941f205-1e0b-4fce-b745-cdd719d64305,RRocMeRi,ckpwuEn,956-256-1111,GtdmGiKUJYC@outlook.com,659 nVrixCEinHSyEm Rd,Spain,SV
39517d10-bfe9-4cd3-93f8-b0344076420c,OFbPryX,TRaCLAeqc,704-338-5782,MByhdBqhGDG@outlook.com,409 cVjaFBLRKSQ Dr,Vietnam,STI
8a0ea1ac-0193-4aa0-83b0-87d42e69e305,xsIGFCNh,okTVaaMdz,538-407-457,TIlAbcon@gmail.com,728 RBmafGoJxWsT St,Belgium,IC
02633079-e700-4b32-a9d8-edbfe4f3e56a,YAOBSflE,WuHeodK,754-568-6076,KPaDtdGh@outlook.com,114 rrqjHILPk Blvd,countries,ENAC
41f8a9cf-5b5a-4d08-8882-c67307994e70,AdHQa,DAJmKz,949-995-9937,bublHUqnVc@gmail.com,874 qKJggTrgn Dr,Germany,IC
3dcd60e2-6e24-4742-990e-2710ea6bb865,CyKlzoh,cibcfwS,219-662-1730,RovvqfmBRWJ@yahoo.com,653 IdveHwAOGfJN Rd,countries,SV
fd7a3ef0-a184-4d8a-83a5-f8adffbc85b6,fnBBVYkX,TGeVy,800-922-1378,JLsdOgPKVMx@yahoo.com,939 jAeJomvNnTkXK Ave,New Zealand,IC
82873d2b-88b5-4b7a-94c2-aad58924a636,yPtnmt,VFtwQOIH,545-717-4841,LwjUtosLq@example.com,560 CgvECBHukJgND Ave,Swizterland,SV
bd6f5d93-3ecf-4e9b-9802-463c15be76a2,GsJrbXOln,KGOKMLiXj,419-379-6245,XfCkDWlg@example.com,173 HabArKHKpvGa Ave,Swizterland,SV
851158b0-1bda-404b-80b4-d2dde25ec57e,uvgAsTh,KwbJC,605-379-1084,FilwphSj@yahoo.com,213 GuTlXthEW Rd,Canada,STI
f6a40f13-2451-4993-8ddd-5133b75907cc,mqRpx,rNgHVCX,341-410-9853,VbUBFQtWnh@gmail.com,275 UJrohwXdVuvqe Ave,Morocco,STI
acab0879-ab67-4883-97d1-1712c5f88618,qSiJOTvCu,yTQEYOS,272-494-3202,iTSegKvphAd@outlook.com,262 vouVVXPEGQGA Rd,countries,SB
ecc0adc7-9794-44d6-b4e3-c31095b1d7cd,dsNIr,NDvUj,402-704-4324,aczyEeQA@outlook.com,711 IyVRzURE St,Canada,SV
03727748-5d67-4928-a239-aa5ca5bb7ea9,cuemEMivA,HvXjwa,292-773-5225,BYyEjQSHK@gmail.com,175 HYKVzRDTsaFEui Ave,Germany,SV
a618c06a-ba99-4459-84b4-2f6d39488f46,oPjeHh,ukiVzTU,496-699-8797,oXmhyHVwqI@outlook.com,543 yaGLVXDxrl Blvd,countries,IC
bd8b5a36-55bb-48e6-8317-bbb085295d48,bIAWdAE,FNvdwRiER,582-740-4290,swNswppY@example.com,354 yBhvmIDev St,Egypt,ENAC
548960b7-1b7f-4ef2-aad2-29590387e4d6,AynUDlUK,ItApysyab,644-402-6017,RSOIkEBzB@example.com,796 vhKzWvdUQiQ St,Morocco,SB
67afa7d6-aa5e-4b1b-9d63-b4b8c7d02293,vKkxuuED,cXayy,461-345-2969,CfYShUNU@gmail.com,259 IdRJnKBXOaRlx Blvd,China,IC
01c58d61-ac5c-4598-a6de-5afdfeb33279,XBoxINUO,reRHrw,595-924-3275,fAWbXlIBU@outlook.com,951 DRvXuVVIckCgu St,Tunisia,SB
d7d13228-15bf-4fbe-85fb-957d553b5840,aJVlS,auqsl,283-391-8812,CMNwomrk@gmail.com,659 pnySlJhGi Blvd,Mexico,STI
e4f9e075-8a57-434c-bb2d-eec688630320,YUPwoxG,emLHr,846-853-4515,LiClEhJo@yahoo.com,506 TlwjoEDokVUsWA Ave,Canada,STI
11852c68-f68e-45d0-8be9-9c073da815d9,RKwdqW,UheSeGEgF,422-593-7344,LMRiPjugGIn@yahoo.com,532 UzmcYSbehW Rd,Canada,ENAC
aa9dd70a-88a7-4de6-aded-1b0f5f9725e3,XJRFrPvr,nQBtgeRqw,482-270-2813,fcDRmMzKJl@example.com,711 QIESFLyjmW Rd,United Kingdom,STI
d7801aae-f4d8-4e70-97df-b5bf35020784,WSoEsnMq,ikADES,377-400-94,FHEmvUzWPW@yahoo.com,516 FKPsxyHlvltT Ave,Luxembourg,IC
ecc4e103-c17a-4775-8047-bd90e4acd874,khgFNUT,qhSnqxD,814-788-535,XfdPSXoPSs@yahoo.com,858 XrMJyPDxDA Ave,Luxembourg,STI
f10c737b-bf82-4d7e-a6ab-e1ee35fe2ed8,MHoONqVBX,xvKSQ,578-382-8896,SagfGfcSk@example.com,485 tLLRlMbXDGl Blvd,Holland,SB
55027b1e-6c14-4317-b460-f6a900c416ff,nWRCALhkd,gzVgzj,241-945-9098,CPrfMbwr@outlook.com,319 nlwQGdOycgj St,Swizterland,ENAC
42550134-d977-4693-808f-8fcca6f6cb2f,hNUYUud,ugycFShvv,525-248-1068,BPIkqPcGeSt@yahoo.com,476 IAzxYLUpuMP Blvd,Luxembourg,IC
1ce64ca1-8098-43ad-b440-6031785de778,KJsJoXPXt,eCFsfh,792-989-7993,dkDJugvCATA@example.com,887 NFEbDUTbXjAQsW Blvd,Italy,STI
8bf70d72-5084-4d92-bfd5-d0ed832e5d20,ebVgo,NAodRcXPq,364-932-3209,ohjfNMyt@gmail.com,401 dqdLhVQl St,Portual,STI
84980825-dafa-4353-9e6d-9d374bd6eed5,ADjOCd,xfarh,906-335-254,axHTJGrAUnv@example.com,290 rroPnUoIYfOOgw Dr,United States,SV
2c7b7946-d0db-491f-924a-5c02fea8d576,wygaq,oeboGuNs,213-790-8230,BprgBJbxn@yahoo.com,242 erbzaFhfHL Dr,Luxembourg,ENAC
e15aab9a-7975-41a6-9503-95bdb38d5d31,kiNwPizSk,pJcEgGEK,951-931-4709,cYcqVJsfMxn@example.com,172 nAkPjXoPdKflG Blvd,United States,IC
f674283f-2bb9-4c0c-a711-e54459aa1a4d,XSrXjhUJW,kcASjubO,443-226-1827,jlAWppHIdr@gmail.com,930 DJqiRGPtDDS Ave,Luxembourg,STI
ad6c9515-f894-4ab4-89be-f1e613f25c41,bHEUqw,esspF,693-544-1775,lSSUtyYtt@example.com,517 pdkpcHNWKQ Blvd,Algeria,STI
c622569a-9563-492a-b746-2734dcd0ad92,mWNkgMC,RNDzJ,681-789-4900,Csxhcssac@outlook.com,992 etxeChzuln Ave,Algeria,IC
853865f8-ccd1-4e40-b283-db92226dc3f9,YcyHzzrhC,oNxyi,486-776-7848,fsQWvaWjFwC@example.com,210 zerTHsDAfwbi Rd,Tunisia,ENAC
b88af887-aa81-4d17-b591-114a04b840c4,SVTYHD,YyScHN,543-281-7165,uzRuRRPQnBf@example.com,647 eiPvhmybcBs Ave,Spain,IC
c4cae6a8-9620-40fc-a666-816d17a2e09f,dSdljlTv,FqKaDY,515-446-3657,JOBmNudW@gmail.com,992 PYiRLBysxau Blvd,Australia,SV
c8ab179f-edf1-4430-8e33-3b9df2245c79,BLYgqOuu,TexvP,385-964-3768,VHACNaYrxTg@yahoo.com,135 EMPOCXwWS Dr,Spain,SB
5eba5ab4-d332-49f7-a3ac-4147c64b1d05,OKFSAPE,rLdNUJMH,507-955-50,IykFYipH@gmail.com,838 uUeSSnXFVRJgd St,Morocco,IC
81af4816-d5fd-4c44-b72f-beacb46374db,fKRrFlFVI,nPyDcIIXY,917-976-6456,QlQOqClKYe@gmail.com,896 aAoNEIAwT St,Australia,STI
1bf34eeb-bb19-4217-bac5-1ab73a7fbf70,NzGNEy,GMmJyD,294-290-3670,fFRQMGqNNt@example.com,438 uRsOHspUlaswe Rd,Mexico,ENAC
de4e896d-c28f-491c-a31a-49175a6d72f0,mYXBKXKWR,SMWRL,805-968-6951,ymTBiRkYPEJ@outlook.com,664 sEnhwRXAG Dr,Morocco,STI
0c3606dc-05d3-44f9-923d-6033fb964255,esadl,EzqUwmFK,568-660-6059,wyEJBCvgB@outlook.com,805 ovBPGqkWpsKE Rd,Italy,IC
54421b36-9213-474c-ae31-78c0c74761c8,FaKmInXU,peWnntbT,679-950-9264,zXjlUiYp@example.com,277 nLijthFdNJujKs Ave,Nigeria,STI
2a9adcd6-7e96-43e6-8185-1d1bf9849de8,vQAeduVt,xgEIaR,611-497-7234,VJnmqfrST@outlook.com,242 jczIovyy St,New Zealand,SV
84165489-85bf-41c1-84ba-f71914ae7644,RgIxNBq,nfAXQh,326-895-8229,RiuBUCLiLkL@yahoo.com,699 FTdNbgoquwHwNM Rd,Vietnam,STI
cf9efc6c-5669-42b6-8f92-d0a2742c79a3,duvnkaN,LyItgQEDq,767-717-5967,VkCtYBshJL@yahoo.com,955 DXIReePeUmAhC Rd,Portual,STI
0fedc27d-3a24-4cc6-b215-6d1bda49aaae,YjUVNdOA,DRpwEQK,854-855-1791,CLkHsFVJ@example.com,435 iUyIcTdcIibUO Blvd,Egypt,ENAC
5c8c771d-74d0-4e7c-8f6e-4743d712522c,HBffVKhj,XWlQsPj,521-985-4970,YMuSgkRcJ@example.com,869 uYufMaPPlH Dr,Holland,ENAC
c055a593-fb44-4408-8cb0-db9bae9d97e4,JVhooS,NprSFxt,909-339-8380,nBPLEonzS@outlook.com,472 nCsbammqgSs Dr,United States,IC
5488300e-dfeb-4cb9-8d4e-f273a539863b,gDcKi,gwCRTqwS,311-345-313,FJzcoped@gmail.com,601 DQEDgQFWuWK Blvd,Italy,ENAC
f9a3ecf1-18ff-4e2d-b300-224f060a9503,PLpmfjTxD,XyPAyxEN,462-224-7744,hCxvnjHSI@outlook.com,545 zYAzFSKs Ave,Luxembourg,SV
b4d07d2f-fe8f-4fe7-81b8-2483d63a0240,KLAcJXK,PpawnXoMT,310-833-6357,GRfeCzHeoP@yahoo.com,929 dVbovqUwD Blvd,Spain,ENAC
d7cf91da-fd3d-49b0-a962-267eacb9f6ec,AinpHXlX,CcNMspPfm,297-978-1733,NGyCSznjtII@gmail.com,836 shFcLyjNyAOeE Ave,Swizterland,SB
9b4eba37-e5d2-499a-a285-a862fe0da512,FatwlyzL,oqAjeaSmQ,608-494-6598,DKJXMMOYBp@outlook.com,929 njEuBurFxWcqP St,United Kingdom,IC
105fa67f-bf6f-49c3-bb24-a0f9b75e3120,UupDp,roGXR,584-975-7879,UJqjLYuNRqX@yahoo.com,952 yVgFWkOgoflj Dr,Tunisia,IC
176ca782-04fa-4181-adba-604a7cf5b98c,qYxxw,dulpxk,561-226-7852,HKUduqfdib@outlook.com,669 XkIDLaaUmlY Dr,Australia,STI
c7a1a500-01f5-4cc1-8c08-1648045e2c67,saBBzdrr,BSojxNFNi,690-828-9571,SIRDSIqdoHD@gmail.com,194 hkepiQlUaoVel Ave,Morocco,ENAC
afd01c04-26ab-4ceb-af7e-4f63385c40ff,QFhbQI,Xmahkmt,613-763-6628,ORaiShRb@example.com,395 IAXocYwaRVgh Ave,Canada,STI
9067daac-cc34-4119-b7be-ce4f2cf3f979,fkGLm,JgKQlhL,463-996-5121,osIldWkT@gmail.com,705 fHBEAjBcrTn St,Canada,SB
92c51e6c-fc5d-48de-af06-40a1894d31ea,RgeJLz,kTDzRh,521-602-1840,ArPMHTRhM@example.com,769 TPKFimIVwetKJT Blvd,Spain,SV
d573173d-3735-4c91-901f-72903fbaa178,Qkwzwlkl,PrypYXqU,408-851-4001,ciQiYEWKon@example.com,296 QIzzXgzNPeMRmn Rd,Italy,SV
b743e7a9-4679-4caf-b04c-9011074cc7f2,TNhYMky,oBhuAE,597-381-5640,tnWItpIqdE@example.com,271 LCzKsvbOcpHNrU St,China,SV
85a0d925-a567-4f3d-8fcb-342956c6408d,QOxnxLaaK,HMBpc,422-512-8245,NEpjrQDmxA@example.com,396 yJNTfQcc Rd,Germany,STI
e6e905b8-75d0-4197-9a4c-8a33a33bc776,jhJqEbXMd,FuqRfTq,615-441-7641,MvXtsVhM@gmail.com,830 HCYRQlsEWT St,Holland,SB
3decc13a-aef7-4e1b-840f-9e45c4384250,XnOJCt,yxNOJpe,620-466-5032,EfROCsFby@outlook.com,613 wuxYvGdN Dr,Australia,STI
546e94b5-db7b-433b-847c-f428ccc8a265,kVkcg,UYGsSz,498-253-4860,azodBcags@outlook.com,809 zLxpKRmR Dr,Morocco,SV
d5c9aa9a-8ebc-41ec-9a67-cf6b315e8afe,KPqhi,PWTRgWh,454-733-8422,wUuSTDhyc@outlook.com,830 brvvsewNvR Blvd,Nigeria,SV
238abbb5-3fc1-4528-bbf4-3b1a8775fa43,sRWBmIT,HxVzQssR,565-918-3985,BRDnatcA@outlook.com,255 tcSdsGFhQAAtAS Dr,countries,SV
cf0a7ae1-ace8-42d8-92f8-27a25291e3ae,rbREHPg,pnBYAl,726-473-7933,EEzIwcwKCy@outlook.com,902 sKvMXzeLAY Rd,Germany,SB
9c1e4a97-b8ca-4e7e-bf50-00fa17d58d14,rpqgx,CVjdugfMk,224-688-9264,hNvcMsmTU@outlook.com,863 IqoURlgYmkkS Blvd,Luxembourg,STI
21d15a40-28a7-4fa4-be40-f7c8065cc8dd,gUpEyr,fdVsvEoU,612-858-6491,AssWvkBYrFF@outlook.com,648 mcJQgMVLjVMgx Ave,Holland,STI
4cfdd101-0408-4ee6-9559-d879850dff95,kxFqLFb,xBSVordJ,686-911-6284,ejxHflUv@example.com,828 vIAtKYyBDKWvMG Ave,Spain,ENAC
5bfeb069-5ba5-4728-bd4d-dfa9b861ad5f,nvlxzqFs,OfqbtnKo,686-372-4433,xwGyYUlH@yahoo.com,318 yijTpkhDhCe Ave,China,SB
81b32272-12e9-4a6f-a70d-0535f9c0e73b,EcqPquO,ebbMccg,817-318-6578,UdOuBwcGotw@yahoo.com,837 keqHeGph Dr,Swizterland,ENAC
828ffa92-b004-4b55-8efe-a7caf7d8642b,ecrac,cUAGaWemu,332-501-7892,xKfbivEhjB@yahoo.com,898 lvLHaHEs Rd,Spain,IC
8af18961-86d6-4b3b-9044-003ebb7ec8b5,BczXFa,PFtwe,665-249-847,qkmzhpWpcl@yahoo.com,294 OJQhLOyfA Ave,Mexico,SB
de4aa5f1-abd0-4a1a-b68d-5c05eebafa0c,uWPHBJqV,wfRNrf,912-417-4328,TUfqKRcCCQ@outlook.com,137 MpWdcKwHmH Dr,Japan,SB
38041e4d-47a9-4dfb-b7d4-fe9e3c17835a,NtYka,xwJhqMNEY,691-263-633,eBUvlJHBWa@gmail.com,452 YadNueCydMWSQO Blvd,Vietnam,ENAC
deeaf59f-7bd5-4db6-a13a-a9a63aaaeb18,WOmTW,xqSIwwXLO,692-720-1640,LugRMBfMT@gmail.com,539 kfamFVkDgR Ave,Egypt,ENAC
16204bd1-a2fa-4b13-adcf-68cc4726b3f0,UqkvWMh,SmHeB,422-724-3473,IALmwkFJ@outlook.com,985 vRRAeTnwCH St,Algeria,STI
ea47a7f8-41b4-4e40-90af-22d6ad444958,VxAEIc,XnHduRT,408-277-8590,RrDvudPM@outlook.com,538 vRBaCJfYAydeKc Ave,Japan,STI
50eeac7c-f2c6-49d3-bcec-33354e6dba79,qnjXaWpmf,EfritDQ,281-439-6856,QsameMlTY@gmail.com,376 OghmsmYCdTQz Blvd,Japan,SB
736db158-a706-43c0-bd2a-5f2d58d455f3,OCLHexCOv,tuKdXBLhd,668-916-2061,uBUEExyiFB@example.com,108 rNvHdybkrTFT Ave,Morocco,SB
54a8d697-4153-48ba-80e8-db34d3550301,JRONSHYQ,WqawMRRdH,373-487-2518,PWRQNzPFj@yahoo.com,838 GiLLmTyvQsQ Blvd,Portual,SV
5f7ce016-5e30-4b82-a05f-d420b6bc7e1b,bpkzMP,IKUwyDly,774-948-689,UKzoTrOt@gmail.com,694 PkTrOOlx Dr,Luxembourg,ENAC
36eca8de-3fec-4368-9e43-78a8e229003a,oMKShfpPM,fufHiWuA,931-269-3931,joxfhngI@outlook.com,256 RHNmDaHVHkRP Rd,Algeria,SV
4b99c6a8-9279-4bb5-bca9-dcf8a28344f3,loTQSX,oLTklRVRl,485-577-6356,YFbYUEVkbnD@example.com,269 WhGVSRDdR Dr,Egypt,IC
bdef00cf-fb52-4aee-af71-9fcb09cdb4ee,mlOfvfYc,oKjXCNS,409-359-7834,WAbVNunM@gmail.com,926 oAYNSbpThifF St,Belgium,SB
82d0e226-5705-4b03-8e0c-60e73f159c94,NzbvLaI,NtzCHmLB,429-667-9536,BxYMsOyLbS@example.com,773 VKwEmdNrxwJlYY Blvd,Portual,STI
5bce83c0-bf94-46f1-ac2b-846898677365,pfDLuy,vmJUbv,321-699-2706,JkKfKTIYh@example.com,470 UELCXsSEIP Ave,Luxembourg,ENAC
aae7161c-c2ff-4d31-8e99-3b7ac33686b0,ELTFqYh,OyhvIX,674-925-605,IwuYSgvu@yahoo.com,503 lxBcYRApQJwqL St,Italy,IC
0889e117-8de8-4581-99ef-df578ac3250f,JpbgY,VIJDTYm,772-384-6348,tWXyQqAO@gmail.com,450 UsDdmGTI St,Japan,ENAC
2aee6c32-ddf8-495d-a968-cdbfea3b6ffc,MHqECTuqc,IkoLnavw,374-354-8014,deIoSDvbs@example.com,345 GKdwbLRFCM Dr,Swizterland,SB
46818230-7140-428b-a2dd-d7bbee54dd2e,FOXhzgggS,XOdJGWyt,428-358-3098,XhUPvIXn@outlook.com,567 AdnwuVmj Rd,Belgium,IC
602777af-d831-4051-9c4b-b78d2fca7005,VIIvCVrP,BEmuLlv,492-711-6176,ifJXlNkF@yahoo.com,644 qCwudbgYEK Rd,Mexico,SV
9bffa225-0325-4372-94aa-d5674dd04b8a,LyzNrxLrD,jOYVCeNc,518-291-7087,zqLRsyidcR@outlook.com,345 xtNLQHXNpHY Blvd,United States,SV
c6c4cef5-bb05-4239-a5fe-c815546cd15b,uejhPqL,SFjhoTw,711-216-8167,UxIfcDVLxi@outlook.com,198 eTlvoduAODYX St,Morocco,SB
fa88f71e-6170-4202-85f1-724dfe03557d,vppvHpoK,vjaaWXcD,487-637-2148,ndUBAGui@example.com,657 eHLWBgCFNMFn Ave,Vietnam,IC
b06e1275-c50a-40f1-be81-31179db269ef,qQAKlS,sRzlyU,904-490-5270,fdJetFrvzwy@outlook.com,533 kaDgMNGNX Rd,United States,SB
75351ffb-c55c-4bf7-b0bf-bfa3dde2a6a4,KJPLbB,jypHn,594-880-6570,tlKQMjvr@yahoo.com,829 LhIBvuHHA St,Tunisia,ENAC
bfaf3564-d6f2-4250-a753-d98f9acc6a4b,jFXcO,yuqcp,809-416-438,EMAOnlijvK@gmail.com,159 quKOKJvsgJ Ave,United States,IC
af85b66c-a9a0-4b8e-b7a3-fe5e81e47685,kukewzE,BnkPupjgj,862-287-5306,btRRhNXJ@gmail.com,322 NwybiwxKny St,Australia,SV
5a567850-e84c-45b7-85df-825171d149eb,TlgelihPn,IHGQMW,864-288-1324,OkwQwhLlGlE@example.com,137 MWQODRkf St,Spain,STI
ed377959-86be-4d28-bba6-79c18618ff45,ycEREHCQ,tysiwR,523-334-7994,PgNRQdOGPO@outlook.com,657 gPXojkNzArnug Ave,Japan,ENAC
39489d6a-294b-41ec-b162-0cef37e07449,UPllm,WFKDsF,227-460-7600,LsykKYQh@outlook.com,687 kocJoMamqBzQ Rd,Japan,SB
73a5f92b-d04f-4c27-b525-7aae3c9ab445,ptFUNC,dQbWcW,270-689-4425,OLPcpMlQ@example.com,899 MakEOrBQTKYkE Dr,New Zealand,STI
e32f4579-ff6c-452f-8b39-cc2c1d51fa08,azfmupXv,oKzlfoC,697-651-8269,oKsehFxq@example.com,417 KAmPcrSI Ave,Algeria,SB
89454995-2671-47ce-8e57-3065d9aff852,fEDrh,vsdgUaUf,206-544-1787,LLECNcDDYz@outlook.com,615 OaEugmIIwo Ave,Japan,ENAC
4c4d190e-5b8c-4c06-babc-15351bb89698,spfRTGEhA,HqeSrMiN,817-719-1932,NHdmPRgPQo@example.com,893 WQbkCDhrLU Ave,Holland,SB
8ba01cbb-30cb-445f-ad97-b7375cb92f18,yifsXj,ySXEx,345-948-2378,PzOuUiCAUwl@example.com,542 lpkpDtHzVESq Blvd,Luxembourg,ENAC
7342b463-289c-44ea-a578-cef7a97e76cf,MiNBqrkWB,fFMFg,618-857-3208,GKBVuCGbKIS@gmail.com,221 XAnUglCHCitS Dr,Algeria,STI
f1b8f23b-2d18-4e51-86c9-8846879af390,IJmNdwGz,QSVfcP,396-212-3278,ELDgzachbJJ@gmail.com,576 BfhQmybzX Dr,countries,SV
c43fb0ac-af02-4950-bb33-d06a04f56fab,zRJyYXT,CrCgn,420-993-5821,xXNpLgfJMd@gmail.com,784 MLdsqIQJBvAWBf Ave,Japan,STI
fdb1c244-829b-4c0b-be0d-12da2e26c138,pebKjR,LyReQ,685-875-1519,fEfASdqL@yahoo.com,220 RrwwmfhCONCf Blvd,Japan,SV
f9b8a8e5-4ded-4433-b6f2-2e4e500efdb8,WiDoKabVf,RRtoy,479-655-5669,MPtvtsDsY@example.com,897 KYhnLjHM St,Italy,SV
a9b2134f-b27b-4f33-8f72-824d00f994c1,UFhkuP,bHzHpH,400-406-2376,SObBQeywAMq@outlook.com,610 NsGqAiWIJbIpy Dr,China,STI
59faf63b-ef05-4907-b229-7cd33703fa58,NrWRKgcbk,EYndBeVzK,912-845-8933,bmOKmFrwl@outlook.com,200 EozoqFHkF Ave,Japan,IC
46787450-1bdb-4c7e-8fcf-ac30e0a910a3,BnbwNQX,zQoLp,311-909-2611,HXjoGwXA@gmail.com,721 UgOIeeMR St,Australia,ENAC
d8f3f934-6c50-4c4d-ab48-3f534b8d730c,RanhtWptF,gcSJf,885-474-8510,TBHQiLInQiN@yahoo.com,820 bFmNhQcsLRQmQ Ave,Germany,ENAC
517fa9f1-72f0-4895-abb4-b67ac040169b,YKdswQWer,Mzlonf,891-733-4137,VQkpmYwHFW@outlook.com,681 jdwGDoMFCo St,Swizterland,IC
92f96786-9927-47da-a636-714e9fd76eeb,JwbdXctso,pTVChM,410-701-6175,hPuXtelnOtw@gmail.com,738 yaxnujeWbAAEK St,Vietnam,SB
17219710-0042-48c0-9f4d-c6343b1e2d51,dcEbFXCnM,rgbKOVx,562-218-4600,nIBoULAkfk@example.com,687 KmxmggiOhKczx Ave,Tunisia,SV
09beaa18-4d5a-41c5-9262-e973b8ad0659,ycGEF,Guadk,562-670-6637,RzWvmIFhbW@outlook.com,409 GvItsFDRmzqUuO St,France,SB
b7c5a86e-2ad8-4a5e-94ae-dd02053eb0db,PAafN,XlVPHaac,538-655-805,iKTwYGxY@example.com,204 RQtrFEFAQauRS Rd,Nigeria,IC
1b33ac65-23e2-4b1b-b182-2036f5e9235c,JuuqdvJ,qmtbsurb,869-929-3565,KaBcwIfiLa@outlook.com,929 sDdhFdVxCmcsvY Dr,Algeria,IC
f9199afa-8468-4aa1-a3ee-1f6dad1dea20,DnNgVqFV,DKuYXlvX,714-201-7636,dVdHQychBiS@yahoo.com,580 sPXtrgStnE Dr,Canada,SV
b4482b7c-a55c-430e-ae74-51166fca4fdf,dSBKeF,lQPIt,475-854-4613,yqqrWsabdn@gmail.com,226 TBjrcVFkNbunNd St,Holland,SV
bb07dd34-40b7-4f82-85f8-3eb056f07ab5,MlTKNmN,KSYdYT,556-371-6081,JlSdFITn@yahoo.com,940 bMYdaDTKqs Dr,Japan,IC
4e01fcce-1df2-4364-907b-40cec7e39306,YvArqIh,tQzKYkku,318-801-6914,ehdfBTcs@yahoo.com,369 SHdgIvSe St,France,ENAC
2a982b1d-786a-42b0-9eea-c19e43233674,KFgNC,ROUiavvyo,843-246-4877,bbnpRtLveKO@yahoo.com,403 sIbfIowfrsN Dr,France,ENAC
5c9ed207-bf23-4fa2-8dae-2f67dea144e3,ppbQYT,TqcnOlCbP,755-281-6,sMxLhBDPGsj@outlook.com,868 AADjuOHvvynxh St,Mexico,SB
cc0a1e78-0f47-40e4-bbba-79ebd809a47d,xzSYUM,XgSXRu,616-661-6395,zYfcEaYXR@outlook.com,312 YMVzCNweHQ St,Belgium,STI
362d4e61-c964-40f2-9eeb-1691523d201a,mPzcfv,QMnBycouE,799-354-262,FVYYrTfp@outlook.com,325 qGrLWvHGtkwjDs St,Vietnam,SB
37c71060-0f56-4592-94f1-7e80dabfb14b,VoPOLMP,vnBrO,601-306-9864,EzGKwGCkF@yahoo.com,345 WcAuKOIHoDa Ave,Swizterland,SB
ab9499c8-a92d-43e2-b044-d5a3ae929baf,ccBVrd,zjKGN,639-763-8115,NSfMbdOqhVX@gmail.com,986 ntbFHyaplfm St,United Kingdom,IC
501c301f-7715-4503-a416-874a142191d4,bXwYfmOv,mLWfYx,970-537-9771,WOWdbwUaQ@gmail.com,680 TkfJqxFIVwdJE Rd,China,SB
8b27cb37-9a11-4d60-901e-d52007f53d8b,hFfGkm,hTUsSJE,422-551-2077,FzUGhntuLzE@yahoo.com,345 VKhaMTfrlIsN Ave,Tunisia,STI
d3cdbd5c-5a1a-4d6d-a788-dbde4f0e7638,xhFPJaUf,gWePgaTH,984-423-4100,cFWTETgUz@gmail.com,583 tJtYyXPI Rd,countries,IC
a6f714f6-c397-4adb-ba9a-156250a85235,QHKxJpE,rgBVPYv,360-580-9927,QJJEIUAuSTH@yahoo.com,535 uekhXGSxerUY Ave,Japan,STI
c81ce1b0-4e79-474f-8cea-d10bbca80c4f,bGTQAcye,XiroMgHaW,988-943-1068,LuOzgzjNxr@yahoo.com,588 IFqPIyzoxqG St,Egypt,IC
8562d40b-02d9-438e-b1e7-66191b1c299b,avIdha,vnEmfWaJ,528-933-1669,HvHOXPIXpG@outlook.com,438 AGRghXCpTNO St,China,SV
3e6f8e9c-ed38-4374-b2d7-1c7d670715ab,alCfUui,afIFTPXQ,451-939-6420,XMUnAiAVQi@yahoo.com,432 UgBOhcUX Rd,Italy,ENAC
738fb33f-a6cd-4541-9bf3-6809c93d0167,GmJNWRPpP,YIQsWbc,617-734-794,hhraLwOarVB@example.com,685 JAfsxfRzfkrv St,China,STI
736254cc-fb9b-481d-b73f-6076689f23d0,JrbXsxMQr,giYVG,319-776-9902,JbNKXeGe@example.com,734 cAkkriiMha Blvd,Italy,SV
23101742-b1d4-4a86-8730-8c8391ee85eb,ubgTy,MooRRou,874-365-2972,lSMqPNRo@outlook.com,858 wytmzppMl Ave,Egypt,STI
45d9d39b-ecc9-4847-b346-dd5b4e84d48c,AMSFfSA,MYeoGLAnK,649-649-790,hEwyJHjqLbg@outlook.com,351 BDhuvtAtRNwv Rd,New Zealand,IC
7a27234e-1e14-4415-ada6-145e4d41250e,OLfjGe,ugarqGuWO,892-356-507,tAzuEYpqs@gmail.com,917 LeHimsikU St,United States,ENAC
a39a6053-aa5b-4e4a-85ef-27dee70eabfc,yiSmsHj,eSniiC,523-222-9031,erITOkllR@gmail.com,371 tlCmiBPOYHJ Ave,Nigeria,SB
7c539ad3-0708-4ef7-9c04-0b040c020c79,PhuauMAi,vVLwStIJ,515-596-9576,ijkDyHAVY@gmail.com,671 XIfCRFyV Dr,New Zealand,IC
bf371ffa-033c-461e-92e4-cffb58535aac,iouFtqoXF,wxpbus,366-341-3733,KFAmpVYJrg@example.com,990 naVQnoDlNYc Blvd,Morocco,SB
825e3219-5677-465c-9a43-233b4b295c81,yvUJsb,imobM,847-717-7458,oSbVirAjrhe@outlook.com,604 uXltnMoAEnM Ave,Canada,SB
a8bfcb46-79c2-4997-940b-3eecb328b923,mDLtctuq,EGkvf,689-721-4517,MqOfnNGXf@gmail.com,443 APMwPzeAARLW Ave,Australia,SV
2b93ecea-8050-421c-8aa7-ab449b86a53b,TbeXEiRXj,jAQzEIvhJ,694-855-9211,VBvfxNWqPon@gmail.com,536 NfrHoKXb Ave,United States,ENAC
5518df1c-f95a-4449-89c2-f3c195827d37,MsCNKzR,csFAuRR,504-428-2449,TRhuBWrQ@gmail.com,403 ljvtjhDXBdw Rd,Luxembourg,SV
99f64969-58f1-410e-b842-8c08b2826490,bIkGT,MXXdvb,367-587-3858,iOXBYwolOsF@yahoo.com,126 cDEKvScvgSCehj Dr,New Zealand,SB
0496d58e-7702-48a3-bbf2-fa59c5886169,bJbmMN,KeAtW,853-545-1630,QJVocqRo@yahoo.com,741 LlbtSupRSgEq Ave,Spain,SV
034c7ecb-bce8-4f31-9d2c-5724de3d4e3f,rNpEp,vWbTE,431-629-3604,dSCFPzGI@example.com,858 jXjCSaFOccCmV Rd,Nigeria,IC
27ddec6a-ed40-410d-a585-5471bc2d8c30,EmYlNXxu,RyjuUQIt,270-491-5197,nylABkjJ@outlook.com,265 dkCSdXfDN St,Algeria,IC
6e3634fd-8668-4a8b-824f-9410ae646e28,KNRQJDBS,iXGWwRSCg,206-322-5054,ynLLMtRoVYx@example.com,481 yEjqDJmaoWPoQf Rd,New Zealand,SV
9f27bb4c-40a4-4953-84ae-46dab4cbcff0,aDOEC,SKjnmtX,315-642-8098,sneJhpUp@yahoo.com,264 nDmqeAIuQfwG Blvd,New Zealand,SV
25d4b61e-de32-4ba3-907c-e70b83b00fa0,KkVICPgSn,hOOhciqj,286-743-2956,gyGfvcTuciD@gmail.com,435 wzepBhBPtWOLF Ave,Tunisia,ENAC
67fa25d4-8e2f-462f-b75f-1a3aa2b84ad2,lhPbP,MSOduy,226-928-8770,lOoqATvKzWS@example.com,920 hnUDYttSB St,Italy,IC
7abf0c92-46ad-4783-8990-268d1491e03e,MTebXe,hptSI,800-809-8299,pUjNSkQrlI@example.com,573 CRgIafXux Rd,Tunisia,STI
e4f676d9-262f-469e-9b40-3072f19fe20f,OzMuGnB,rsNqhM,578-538-2091,ktSTsMrszV@yahoo.com,983 kuHRbNnbhr Rd,Luxembourg,ENAC
e313b491-06bb-4eb7-9fa2-49b5cc611a66,dXRdVwRp,xDcfbP,502-782-4398,qPDTtqGRs@example.com,883 KHIdGgTbf St,Canada,IC
5dd1794f-d51a-45d6-a4f6-ee319415f606,wLHGpe,JFsbFU,464-482-8449,nJnKHOXli@gmail.com,765 XEonMnEeI Ave,Swizterland,SV
1d654ad1-723e-4469-99f4-337a58fa5617,AcaBwj,JjviKflzt,787-823-3274,FjtDeXuSC@outlook.com,641 UKXSaiHgCCYTuv Ave,Algeria,IC
00d02b28-7718-43a2-bf0e-7b071b347306,cJjxGJjBD,bWeBaKW,283-546-8417,MajEYXSFJP@yahoo.com,226 xJGWWFJTmNpG Dr,Italy,IC
662b5975-ab68-45cb-98c8-7d0d9c6ddb5f,LTEiDVyx,dcLCyRU,845-522-9155,krrXHjhu@gmail.com,928 PNvfWDAvjY Dr,Algeria,STI
03614aba-0a50-4ee1-98ce-e503a97c5e54,FsginE,tlGiXaeR,906-312-5454,wztzKOrBOIM@outlook.com,468 zEEWtEXsysRkEl Rd,Tunisia,ENAC
a8c2c4f0-26ef-44be-a685-4ded47b51fe3,dMkVbbdov,eNoWm,619-924-9098,zhehCnirYl@yahoo.com,149 FoCakswRgEwi St,United States,SB
8175809d-faa8-4965-8b34-7fb5b011664b,pelHaX,BuGrX,894-818-8877,APEaSwryG@yahoo.com,217 InWEYvzmXIxD Blvd,Tunisia,SB
4a61caa3-5c1d-40c5-8462-cad96e54d5a1,ADtusi,SDpnJKfOL,497-428-7308,PmAGoQHs@example.com,678 xSUMEljmhScYjS Ave,Australia,STI
4791d2e1-55cb-4682-b161-0182d95eb6b6,GAMGJ,OaWWsP,496-654-2382,rbFXtjQLU@yahoo.com,211 ObPmzhJc Rd,China,IC
66c2bb2d-6659-4e5e-9156-b670503d138c,ecgYJD,fVBluN,862-797-2746,owvcANaIK@outlook.com,921 ChFeRdMkYl Ave,Italy,SB
0a09af2e-6c34-4a24-87f6-63195d76aa8e,gQWjDKI,shftKoA,337-379-8306,gxxxVecNIv@example.com,914 RWQMMvwah Ave,Luxembourg,SB
51cfcfca-4e77-4f8e-93c9-ded8ab89a716,ymvGoFnM,Urjel,472-923-1140,HvjgPFxkpV@gmail.com,575 XTEynRHvAOaPr Rd,Italy,ENAC
9ba63ce4-980e-4a63-a7bb-e6af46926480,TcPggTRn,mLosfXse,785-675-1943,oqHNnPcGjiO@yahoo.com,962 phfhAjhUP Dr,Egypt,SB
9e0d79a1-513a-484e-9e95-a9f0eb2140a3,oxTQj,ewcNj,465-605-9264,pEGShpNNj@gmail.com,625 aNkAhoasnmV Rd,Swizterland,IC
5c47b70d-0d36-4d54-bca2-51f055bd853e,lOkcQLE,NOIENua,755-272-718,UcLSUXmWNee@example.com,880 FzhibWEUAA Ave,Spain,STI
7988b0e8-0a90-4be2-8279-e5284c94a3aa,sQJuLA,lrxCxgxI,964-508-7004,ourEogWfAh@yahoo.com,134 cqOKocxXr Ave,Portual,ENAC
f2a3c45c-320f-48c3-ae9d-334a06796d70,OibKhMfD,redAXqcQ,271-366-793,kFIubRiX@outlook.com,677 IEBiJvmnpFeHYG Rd,Spain,SB
7d959eba-8e3c-438f-b6eb-c91245212827,HBiXQ,ntaeD,752-552-2087,KIPCeaoIvBQ@example.com,957 xRdEBNWsCBFe Rd,Nigeria,STI
903bb7aa-63c8-4c54-8cfc-6f4d4bf362d6,YjeTflT,PEKwXjcO,399-834-5964,cgDUUjENFAR@example.com,440 toSCsMkCtps St,Canada,ENAC
491e01d6-0cb1-40d1-b308-7fa556c0793d,YfhIVKoH,evPQORHq,872-531-2987,SblYferY@yahoo.com,323 zgkuwmHk Ave,Spain,ENAC
f9b7cf64-1a3f-40bb-ba0b-2cc2ccf9f082,uwddx,KxVln,663-302-679,YythXTUk@yahoo.com,550 jsJwPFlkRiLl Ave,Luxembourg,STI
22f2392f-80b9-40d6-83e2-a3117677a50e,wdWqL,CKSGzFJm,610-568-8989,OxOkVuIwtqR@outlook.com,955 qVpHjMSbCNXV St,Egypt,SB
91f7f0b7-62b0-4b0e-8783-5d343caa40f3,enBOns,tkkrrvwI,313-715-2131,IvoASttz@outlook.com,788 HCnwRlsBkE Ave,Canada,ENAC
94a8c5c8-6665-4174-9bfa-699a91285d93,kbqDIqqT,uhNhdXOqB,566-640-5851,eTQGfsUwR@yahoo.com,159 LWBpagWsmfkMR Blvd,United Kingdom,SB
606bd9ba-4b36-4149-9fd4-2b914a1d910b,qCctQ,nfccU,435-673-3830,JpwPCTbRx@outlook.com,157 XajwIqYKlQrRey Ave,France,SB
e93f6988-f071-4523-97d0-f87245538ad7,jDdBzDgWX,LiFWTLOr,325-703-4022,dXCMMLbI@outlook.com,106 OBTHFHPF Blvd,Belgium,ENAC
2c1c8a46-a968-4fb4-8ebf-84f48046857b,fvpoJJxC,qhMkyrury,729-832-4492,OAwWOylAGx@yahoo.com,185 fEWosIYuWjaz Dr,Vietnam,STI
96be08ee-6917-4811-9f91-77537555497d,XlWgGB,lAgUHXVJ,869-494-761,yyhLHRBtMrm@gmail.com,450 kXfpiKKyGvfJ Ave,United Kingdom,SV
39c0d782-8bf8-47d5-a2e6-aff973225819,OsIrSRYsy,QpVCVlg,256-486-3592,yjrjrPLsm@gmail.com,781 LYfEWrYzhQo Blvd,countries,ENAC
c00dec5d-2380-460b-9061-16f157d7ec2e,VPwKy,VtlpeB,725-454-4952,nfjImJLJchT@example.com,705 uiNHdMllKwHi Rd,Italy,SB
f4548b50-b20b-4143-a09a-8f16b1aecb30,FSlGWYAI,NHKwy,341-926-8118,VUbmxaylMpF@gmail.com,269 JwuoxTUj St,Vietnam,ENAC
d1d5d86c-cb46-4f2b-9d20-cff21eed9964,GxxEjhHqL,rcjpgzbPI,729-224-1252,OFtKgHNr@yahoo.com,903 cthHIqsvdeeWmE Rd,Japan,IC
3158124a-e215-473e-95cd-446457df050d,weqTUxiEB,GStINUIxS,888-627-1199,uJwnnEBq@outlook.com,678 TcrsqNfuE Blvd,Belgium,SB
525be4e0-18c6-4664-9197-8d884e800016,fwtTXqD,VmzJOpW,607-278-3069,uOHyWYpwiql@outlook.com,267 GWWOwnPXJgpuA Dr,Germany,IC
669bc9de-969b-4572-921b-3d8a8c63584b,RjCQLNtRn,JLnIYec,753-230-3190,zrIkGGEw@gmail.com,386 bjnSlggchrfhb Rd,Vietnam,IC
02b61001-475e-45b0-af31-ac4f96ca8781,wVCjGdIcc,OIaycutq,922-481-545,yflosrBFj@example.com,726 eEoBUibHnMC Ave,Holland,SB
eaa69b9f-a4d5-44bc-a4d1-ed6388399839,plgiab,HzTouPt,511-466-1669,jJVQkUaFHse@example.com,465 ehnXKEKOFeVO Rd,Luxembourg,SV
ecba224e-529e-4bb2-9069-80188176bc78,DjjsXPT,OiNfjWk,288-439-6154,qKinAKSJdxE@gmail.com,916 WtcTqOFz Ave,Spain,SB
3f449244-81af-4f07-9252-d8852e1e2027,tRfzu,pHNPXQ,851-264-4352,xNpiziaaYy@yahoo.com,118 DYuJcgbuGryHao St,Spain,SV
8825a975-29e0-4512-a529-9ed3b4ec3fb1,NAxjrpfJm,CVPScHux,227-396-9807,HBEBgskGQ@yahoo.com,838 HxhSvQqhGgOwQ Blvd,Morocco,SV
61f23eb2-ca8c-4581-ac76-fb33dc45adb1,spVbyuK,eYVzBkh,427-392-9812,aaGgOnIwH@outlook.com,536 VkVjqFlHlhh St,Vietnam,STI
0a6c0dff-9065-43e8-8738-2c824b8a32a5,HQWVGt,ceCvygCrr,673-850-9393,qjolUbeg@outlook.com,687 cHgTVfnwmaeBP Ave,China,IC
4049d3d7-bd08-451a-b53e-f2e4363e9f38,MMdcVkt,CHGUkpc,622-289-2976,YklLvHFJ@yahoo.com,957 WWUivsNhOjyxOX Rd,countries,STI
c7aeaf1f-a94f-4535-93b9-be275594f8cb,LReUDdljB,cQCeJ,553-292-6355,KtTsqfmvh@gmail.com,266 PhNDJzNPE Dr,Spain,SB
d3683751-d618-4870-a4b5-49314060ab81,BAIJu,bluHG,696-995-2206,OTGrfEtQNo@yahoo.com,211 VkgxYTBQSDfs Blvd,Egypt,STI
bc441ebd-ca4c-4ca7-87d4-c44a77aede01,AjmSQQesi,EKvwymm,377-663-1974,uQaEQRixvL@outlook.com,371 FigRcivbHGBkI St,United States,ENAC
29ea6039-882d-47a2-850d-ed4fff0f6dbe,kChGK,ubltn,340-394-7469,MQcFceNP@example.com,241 CIhnXIdrPEiS St,Italy,ENAC
a7723f33-9e85-491f-abae-345d0bc9786c,lDCXQv,uXFzWtbm,732-990-5913,HktAVCcxRLF@example.com,350 OrrDvzTq Ave,Egypt,SV
1e456289-de85-4e0a-89dd-08211d71f3e1,UHUXUv,uMeeK,353-890-9383,buQITSsr@gmail.com,537 hRElkOuMJgC Rd,Holland,SV
2f25ebfb-f8d8-4f02-92f6-a76b85b45c51,wfkhcsc,nHlQNx,514-804-9174,QOvnRNHWqsn@yahoo.com,112 WxISoLgmhw Rd,Swizterland,IC
7086acab-037f-4909-ba2b-aae5e17bddb4,qRsAaBwvJ,FCbledS,658-647-3424,XvErKYOIzYN@yahoo.com,584 iWtrrtLW Ave,countries,ENAC
2e6845aa-fa28-47fb-8445-24c4a3a34a68,fGuQnRosz,cvraQC,879-381-1140,xIMgVqqXpzq@yahoo.com,855 PODpDdBUhV Blvd,Canada,IC
e81d6d65-d290-4a22-b44b-55e897edd44a,REWhP,SwAEAR,566-600-4540,VqKChbLMaxU@outlook.com,698 RkPdPvtAbLoyL Blvd,Canada,ENAC
58c7c284-6c2a-4ddf-ae41-72424910756b,cgmMiagM,PKtMNRGL,432-368-8049,WElzOColNzd@yahoo.com,940 qhvOIcOKDgS Blvd,Egypt,IC
906d73d2-323e-41e4-9515-f933d0b544bf,cIPOU,TUYcrXR,966-951-227,tDOFFVPncF@gmail.com,671 CTCQQwId St,Nigeria,ENAC
15f70f22-46d7-434f-8e19-3c805d33d857,bdWanJ,IzLGhw,600-840-7402,vpwpcwBj@yahoo.com,925 SmoOfxlkgMAjcz Ave,Canada,SV
2b6ce055-13d8-4cb4-9357-1a9bf20e1c2b,yfePFQQDI,gxslGh,666-500-5648,qfQHyodIHC@outlook.com,630 JECISdrqngqHI St,United States,STI
df033671-bc2b-41f3-92d8-032892719104,mkPQb,mlGoaeA,317-497-4510,nzKvjErFVVB@example.com,152 KUWqejkGXdowy Rd,Germany,STI
bb57031d-3a6e-4afc-a6b1-ba566607472e,JtmTuK,rVxEhJ,666-262-941,InhkllYUh@gmail.com,672 bRlNNAsIW Dr,Holland,SB
f14eddd0-d28f-4904-a2f0-5de65c5ef27b,KSDiWxa,FoHTA,667-729-7022,FmRMCxnbn@yahoo.com,310 OpAApQOgSuaK Dr,Nigeria,ENAC
9744a4a2-e651-4afa-a6e2-0cf05ccc31fa,eabaX,vstzDMNvL,746-608-8242,EkcAGNGiU@yahoo.com,182 bMcCNefCxI Rd,Germany,STI
81e239f5-841f-4b52-8cc2-465c66d4b964,EDVilbzcU,zfCakP,216-403-2299,CkGHaPIX@yahoo.com,798 fSamedIhpJRwzv Ave,Swizterland,SV
39f3ff3f-66d9-453f-985c-401e342e9038,dMXYw,mQCyYaKY,260-242-3070,yhnfDwCRyO@outlook.com,362 WCBegydbO Blvd,Algeria,SV
2ec4d76a-be75-4bf8-b280-5097691a2621,QyCVRlSb,sjnvXU,892-696-1102,HoNjnVrS@example.com,958 MHfNTYfPp Rd,countries,STI
56c58f80-70e7-4f76-918f-45a4f39db4eb,nwNzw,DaJCrLAqv,988-856-2493,HqAhGwkM@gmail.com,646 ImeDLBsEFH St,Japan,ENAC
c01aa479-2ac2-46d4-882d-115894615305,qYTJtjBwq,HCShJviGO,612-501-151,YgshYJSjzz@outlook.com,550 AAlboyqTV Dr,Canada,IC
c9dc3cfa-b87e-4f95-944f-c50b54a6261e,YhpumBCD,xedEYFwjJ,569-679-7523,jscOfVILpyH@gmail.com,843 udKPcesXvsW Blvd,China,ENAC
12d25944-a5b4-4dd4-bc75-e90e0f4973f7,KWciTuiw,PtrKGSxU,602-750-6127,LnmgpyMJe@gmail.com,746 MDINkVKLmrsv St,Canada,STI
fd13979a-9b40-4de7-b262-d564ddb673a2,rRmTUPH,tENFbI,255-517-8292,IClXNYJkX@example.com,160 JIEXdsjCUcuwy St,Morocco,ENAC
85c6b424-c710-4745-ba7b-47e2406b7374,MhkIVufo,FHsouR,419-530-5022,XWwgBfsM@outlook.com,383 QifirdQW Dr,Italy,SB
f5ace0a0-59e6-44d8-8f52-dc6d91f2809f,QDkEvWe,sKfGIqL,492-938-3320,EPJOLyLiQqN@example.com,501 JYWVNbSBWlwCFS Rd,United Kingdom,SV
6d66428d-2801-4fce-a530-5284acaf86e3,mgEuxyaB,HNloyYJi,799-969-271,wbJMAJKdASw@example.com,584 TXItKThX Rd,Tunisia,SV
b8b6dce4-e674-4553-8cf3-02e0b54f7087,otVFpPt,yjeQpdHi,790-437-5203,YdbotXtm@example.com,466 KQfqpLRdJX Dr,Nigeria,SB
a907876f-c572-4f84-8520-7fcbb869b202,ALLmPQGT,NjyvaFht,703-659-2472,emBTWVWro@yahoo.com,494 TejlrrstTQAOu Blvd,Mexico,STI
7caf528e-c106-4035-8f59-0152efeb9209,NYPMQM,HvJANe,243-918-1927,KkSxLgROsO@example.com,468 vClXOKQuQdh Ave,Morocco,ENAC
c7c0043d-9ae8-4ddf-9031-b80d748d921c,nbjhUk,KMbrM,462-960-8975,BBATImgSBpc@outlook.com,130 QTWoRuiO Blvd,Spain,SB
842aaf90-5138-4973-b310-03664169de03,IOzWVL,GxnROzHhD,668-274-2476,FgMwpXvsst@yahoo.com,616 TNXVXHsSkdgLI Rd,United Kingdom,IC
6192ee98-17f8-4cfa-8087-bbe9dbed8a65,YVwiNYyI,CClgJY,517-682-5426,LLUHIkvNagh@example.com,523 vkphIiHHixERN Rd,Tunisia,IC
8e362bd4-2b85-4380-94d7-95b0dba967e8,JOKao,wdpIC,895-533-9421,dteHiWnYTkT@outlook.com,202 zWCKBCjnRRTee Rd,United States,SB
ee9d2d8e-b5be-4131-9def-61f82a0a5c4b,SvmBs,FPQYVxbg,702-555-4341,jcsBHRsYWi@example.com,666 dtDqLwjwXEz Blvd,Luxembourg,IC
47728e72-ec13-4fb1-8271-06e40831fc54,luNEjEOva,nTsbqBquG,281-512-8338,NDgfmeQU@yahoo.com,552 sXBTxvqmF Dr,United Kingdom,SV
fd7523d2-fcea-44db-bdb4-785efa6dd980,tVLMphBP,HWxbijEr,700-327-3099,qgRvUrBQly@outlook.com,311 xRnsAIofnCJgWQ Rd,Germany,ENAC
a17c4d54-941a-41d2-b3b4-9f879538a75a,xWPeYEm,jwTmSw,571-654-2193,znpdInLRR@example.com,140 bnAiOBulcAAxF Rd,France,SV
eabe4646-b5b2-4d38-91f5-17f372f00153,IUNVRO,dpCuF,509-337-2855,IRWKUvCfFGu@gmail.com,897 pLFwEwMCkAk St,Italy,ENAC
9c421f4f-047c-4779-8050-40702a4c190c,wVAvOs,JKdqjqCAr,832-442-3195,OGDQqEGzFWH@yahoo.com,242 pErCGEDCDdygBP Ave,Swizterland,SV
bfb60a04-f611-4197-ab2f-0f4baef75f9a,zMtvc,QmXUvUcn,762-803-6561,sypIjrLSBt@example.com,222 MQsnNWfUjxkbjU Blvd,China,ENAC
e2fe67ed-d0e3-4e6c-81dd-5cd5d75d1ea2,pWHtjimL,PqNPPCFD,879-950-486,bqGoqcGQGam@gmail.com,448 uKQUMgLvcUocI Blvd,Germany,SV
8b1bcf33-a26a-4ed0-aae5-5aa0259cfc67,ulxvDo,dBzLgEP,441-842-1663,HaaSFDxuc@yahoo.com,125 xTUQFMsoWi Dr,Algeria,SV
203e4905-046c-4a57-ab3d-16b2433228c0,SHRQoLWcu,PfeQDR,907-653-670,KJcmYqayApY@example.com,376 rucenNnXEJIVz Dr,Australia,SB
eb0429e1-7ecb-402c-a9b3-5ed31943a955,TeEIAA,jmhTnWT,927-234-3565,gTrJruGMQNU@outlook.com,465 xyuYMOEbTKYofj Rd,Tunisia,IC
c9863ed5-5698-4031-b3de-cb890128de5d,Hocmz,BgIzo,519-832-9769,bsaDsBwQ@outlook.com,866 IglufhnzDcJKs Blvd,Luxembourg,ENAC
88e097e7-c2d0-46af-a4e5-be76f430fe84,LvRAj,JQNlQ,537-507-4194,jIGbaPwmLXU@yahoo.com,798 HoaGGHOB Rd,Vietnam,SV
ef1a04a3-e94b-4e48-84b5-9d4125425dd6,hhEXHyFLm,DBWhKDJ,890-961-5620,cOYiyNOO@outlook.com,156 AwoUCeUtJe Blvd,Algeria,ENAC
0a7dbaa5-aba3-4b33-871b-d3aeb8427cbe,LyvxJ,KyzFUcGHf,885-646-170,rVYvqwAkj@example.com,144 HrAwGRCUAF St,Australia,IC
1727f129-4f26-4b67-a9b9-4118daf46b31,UesqBfb,woJWDIGO,820-451-8569,OCWPacTCc@example.com,857 zKwHsiQhoe Rd,countries,SV
e0eea3f9-0739-4ed8-b174-93990ce3af5b,wIdAL,iAqYnaz,955-417-5759,qGhkAFMrA@gmail.com,286 XFacPSJKPUb Blvd,Portual,STI
5f4347a7-d060-47ed-8969-b57c230db5bd,ORDMvtQ,VToyN,622-748-1943,BvpRliNdk@outlook.com,743 oRdcTPMWG Ave,Algeria,STI
5f20ac97-18dc-43a3-abba-345eb216317d,UdxlId,qzxxfnre,665-725-6582,xKNQVrtn@outlook.com,731 phmEVxLSJC St,United Kingdom,SV
cb7dea89-4071-4764-8169-32b0fc4da368,huexO,FbXCNu,620-796-3450,KBqteLoee@outlook.com,900 XOdfmaDpmlj Rd,United Kingdom,SB
4fbf9a16-e794-4620-aee5-6a67d746373b,MawLmA,yaAYC,419-460-4806,nmbBDLOhO@gmail.com,939 kJijYcqqUYIqn Ave,Tunisia,ENAC
2baab1c4-5bb9-436d-b5a1-af88211c6829,WfYre,ciEGUiF,738-219-1668,gzwnnKFN@yahoo.com,415 mIIUuasGbrU St,Mexico,IC
dd04e935-6be3-47f0-a078-eb664eefe117,Xnoyj,vyiaWiexp,381-403-3343,RBbjCGDpfbj@example.com,880 MTIPpkij Ave,Egypt,IC
3bb4e73d-5d47-4c8f-9b30-74c64aa253d7,QDEze,FkABiaO,733-681-1873,OOlCdHTHL@gmail.com,207 tqzwDmLAPED St,New Zealand,SV
c1fa3e80-df16-48bc-a38a-b28f82bfc5ab,PHWemrAz,limlWlSs,626-333-2671,XgEqTOwf@outlook.com,371 mOhwhrnFOvPJpT Dr,Algeria,SB
c96f4b66-4270-4314-8ff6-51b17c4b336c,BYLoQQN,aqXeY,263-529-8144,hFsSBecUry@gmail.com,178 DFnjdtLlvcukp Rd,Egypt,SB
9e63fd25-3103-4c49-b329-a7e1258aa623,cHiXL,aMkxA,350-599-4775,KBynGBNR@yahoo.com,517 ALCMmvOI Ave,Portual,STI
8bede9cb-ae0c-4d22-b3dc-e6e3c7fff5fc,CDefm,rwpFmridu,501-931-3650,RMRkzDrHu@gmail.com,108 wgQGsDVIN St,Vietnam,STI
1d3407c8-2e3b-47fb-b41c-a246a5f7bb50,eypxX,aXiSSGOJh,879-715-1053,bkGkELRwz@yahoo.com,174 HcOiEaoDm Dr,Swizterland,STI
675023fe-0cf9-4fbb-b375-d1493f64f408,FMtgPIOER,adsCRwfk,276-431-5085,KwjeaXSMWv@yahoo.com,758 IxMFPkUKI Blvd,New Zealand,SB
f5508637-addc-49e0-bfd2-c86a2ae25b7e,JJjlnycf,AfiLOt,578-483-1629,idlvsoESKoi@yahoo.com,413 NsnmEaAIWRMIX Blvd,France,SB
1809a0cb-f9e7-47d3-9e3a-8ef35aa81def,PNGFIr,ieysyi,541-345-8471,tbNvUJdm@yahoo.com,240 vdHQnXeTq Rd,China,SB
221b9bc0-0683-4b59-a40b-c6fb2135fc73,vmlWWA,igmfH,285-466-2527,NDJqJGfq@yahoo.com,658 vELkTqVkSP Dr,Italy,STI
9d6cd9ad-4969-43b2-884c-a9855812d240,zumCKLR,sNmTtFYt,898-667-3526,PlxTGYjP@outlook.com,557 MeIztafTuOzUxx Blvd,China,SB
4ad25a0d-ea09-45bf-9345-ac345537de70,EwkGSm,jTdvy,647-436-3703,XWgwzdtM@yahoo.com,598 QQohCXWdOn Dr,Germany,SB
7f97dea6-770c-4a13-a297-11d2f7c2f410,DlSWhkMbw,ogGIq,294-881-1198,UiHoADCy@gmail.com,392 LDsSDSTuJno Blvd,Luxembourg,SV
7f5e1e5e-e346-43be-8d20-ffa9579b6f20,FvesrNM,BTzKOQbWI,947-409-4382,EjgYuPGID@yahoo.com,484 DAtXeiEGrEj Ave,Holland,IC
48e94424-d028-4a26-84df-05952d5af649,RYefsrE,npJqUJyd,888-836-6154,CmwsfTOUhRX@outlook.com,666 DYDXsGQqmVJUS Ave,Tunisia,SB
2ea501d4-ab3f-4ef6-92b0-47c199b97ade,NNllBAvS,iNDhLPj,384-288-4178,XLbliDquvC@outlook.com,203 qmjkFvKIJFMW Dr,France,SB
f656f64c-bc5a-4a48-8980-c8f32bb13a6b,UXrdFreK,Cnkmj,704-523-8165,RUAHraEqzI@yahoo.com,283 JoEhNoHA Ave,Vietnam,STI
8d8984d6-1cf0-439d-bfa1-7a442d295ef7,QhRWNun,HFAJxl,946-549-9901,aWkwrFLaUF@example.com,723 ouQkjKIvD Dr,Belgium,ENAC
1fc06f2d-2a36-4a79-9840-831b98019b0a,rYzzcpBDI,Hnggx,929-526-7634,oWpEvcrj@outlook.com,364 VmbWdxmuY St,New Zealand,ENAC
037329f3-f247-4dc8-9457-5332b9472bf3,KKyqHjir,YPRqjh,838-778-7149,BKVRrWYP@yahoo.com,278 UmCzkAyoGQPHBu Blvd,Nigeria,SV
4ce4e2cf-6f48-4a91-a515-ca2cad10dc4e,RUMipbOa,mTXHwz,768-952-3430,CpnWmTlPw@gmail.com,639 lIMuJRgnfmDyp Rd,Morocco,SV
c6c18563-47bf-4155-8a09-374627d5185d,DRxds,EbqGv,460-616-281,jgDxWTxgw@example.com,886 DsOnaPyDOD Dr,Portual,IC
af3db68c-f919-4925-bae6-16b01e66909c,vscaaoiw,lmSIFrD,428-556-8595,BbzDBFNdQn@example.com,316 xDeFenVUl Ave,China,SB
47b5af20-bb1c-4876-8ce7-ce7fa9d8a8a4,FIfuy,wtpgEYw,708-428-4001,xxuJEfDi@example.com,650 TguwQNCfvaiBY Ave,Canada,ENAC
f718fa2e-d9b4-4066-94eb-a6da530e252d,YygOxQaQs,mmXoKj,227-908-3303,TzIHhdXTwN@example.com,600 DTepKPahsNIxL Rd,United States,STI
9734e04f-9c08-41b6-a5c8-22954dfc51a1,RViCg,xohiRUO,680-480-2803,XkFShkVV@example.com,718 ctXMBtiCyR Dr,Egypt,SV
ec76420a-1f3a-4dcc-a8a1-3cb3e4886292,OpnSl,mXtTIXqy,350-856-7094,slQcSzKtX@outlook.com,127 BfPbqpYT St,Germany,STI
11d90821-56b1-4af5-ad07-801b4e132445,nJPSrCVdy,HbXtMwQ,308-733-2246,gxJoOkJNc@yahoo.com,337 GHBUNStnDvEkw Dr,Holland,SV
97936cc0-8bc3-4e3f-b00b-b9566d6b9c26,whmdAiG,MSizNPf,942-273-8826,NXPtPLYySgy@gmail.com,150 vRmAJpVMi Blvd,Luxembourg,STI
810a7ef6-67ef-4c9c-8589-dc1eeabc5211,eCkmPGOG,NTbPTmjX,902-969-6593,xNXdtAcO@example.com,964 dqddPYKdzYF Rd,Mexico,SV
715f5125-5ae2-4007-9e3e-fafc1519876e,IKhyHCMfY,NqSxj,352-227-2977,zLccaPgUdr@yahoo.com,836 AAkvhnRK Blvd,United States,STI
a77d0aa5-5114-4e4f-a2bc-8ae5c0d66a32,ckpwuEn,VJCmsQYFp,247-975-1899,yOxAGgJb@yahoo.com,952 bDIuVGuMwYDpc Blvd,United States,ENAC
06690414-4a8a-4593-967e-b335603edc59,TRaCLAeqc,luHLb,419-951-9287,KqyXRpXgqk@outlook.com,465 LQsBVkYhRfd St,China,ENAC
2b8c15dd-e690-4703-8f07-c0d85daa8cee,okTVaaMdz,oKxclCB,728-891-2570,PCrHFKvOq@yahoo.com,655 qkjOgVDx Rd,United States,SB
aa42f61f-63da-491d-9fc8-126ec9cf0c68,WuHeodK,wxskC,575-876-1050,iLeobGFNG@outlook.com,798 McScLUEQ Ave,Australia,SB
fc761cc4-ea33-451c-826a-41ee0ccb7862,DAJmKz,dGGVL,796-569-7274,dWLXwxzLtAX@example.com,256 kmLHGQTBRyNNP St,Nigeria,SV
31e848b8-0845-4c1b-ab24-72c72cd6b5d9,cibcfwS,zdiYQ,563-930-3225,blgoPPKJ@yahoo.com,787 kxmRixfRpJf Ave,Canada,SB
a56b78f2-cdac-44cc-9bdc-0e2c68fbbe59,TGeVy,iuNRhXRv,875-969-1084,oFFjoTByBx@gmail.com,165 joEWYuPllPOn Blvd,Luxembourg,IC
219f93e0-17f6-40f6-9e2d-049b32f2f22e,VFtwQOIH,ogSXHr,399-539-3727,aLIwKooq@yahoo.com,621 QyjOQuHDjN St,China,SB
d9deaf76-68c7-4819-9491-42bad938c20e,KGOKMLiXj,wiizfw,297-654-8773,ihYRAPALI@example.com,277 vCwBwmpSombGbj St,Canada,STI
1dbed058-c323-4ea8-a825-f8046960285b,KwbJC,rXBGTOL,416-329-7163,WxyhIVQiKI@yahoo.com,427 HJmXwNYo Ave,Australia,ENAC
35f11089-487a-469c-8948-a22cc33a0a13,rNgHVCX,zWvIcwU,791-684-9421,VOYHedIgNUS@example.com,226 FJqHavwutwRfN Ave,Germany,SV
b9a74a25-c30e-4646-9680-c0541222896f,yTQEYOS,twnBNAe,587-474-4427,jUqqyXJz@yahoo.com,844 MEDRRLwdrNOF St,Vietnam,IC
97bf7c59-69cf-42ee-9b98-4e5faa991fb1,NDvUj,llFjpXoXI,680-854-279,FHiJdpfs@outlook.com,245 tLiHVeDlatgy St,Swizterland,SV
a4c41493-fd84-4829-9df4-4c1b9af4a847,HvXjwa,VBFBzI,440-741-3436,fLYiASbWPtO@outlook.com,202 UtseTjTRwR Ave,Canada,ENAC
da64bf54-3c2e-43a3-b0eb-8e8d69ca70f9,ukiVzTU,bxRVTR,834-788-1673,oWnKGdTA@outlook.com,235 fqHncaMteDwYpw Blvd,Morocco,STI
6391614a-7950-4930-b91f-adc6d1cde4f8,FNvdwRiER,AxsobmL,578-730-342,yXedImUgA@gmail.com,870 wQgFMvtDeifTD Dr,Egypt,IC
3e1afc71-06ec-44a6-bbbb-46273721a431,ItApysyab,fxhSkKz,284-544-693,yioFLTFHYi@gmail.com,671 IecieKryggv Dr,New Zealand,ENAC
b58f447a-bc25-4d19-b694-560bf1904559,cXayy,VpeGOnobG,360-475-836,CwwVxesis@gmail.com,570 CQQYGXgjONcGT St,New Zealand,SB
34fc360a-4feb-4214-9f02-224e28edbff9,reRHrw,IMhKszdF,463-912-6965,calYAJWDCEc@yahoo.com,206 VbcREapMLL Ave,Tunisia,IC
69534d40-7ce3-4062-8b44-f12c75383f87,auqsl,UnfaUThr,799-726-4890,XAYaGMlDPX@outlook.com,196 yopurmMcFdPc Ave,Nigeria,SB
12464578-6a2f-4ab2-bdd8-3e4145dc6f8e,emLHr,ofNJV,320-294-2924,FkdEiHwcJN@gmail.com,707 OonHihMHTWsp Dr,Belgium,ENAC
e4e36e6c-09c6-488d-9b66-05a353036dcb,UheSeGEgF,IMmHBYInF,602-248-4705,zeDexHFFia@example.com,270 FmLoBAfQh Rd,China,STI
f8fe0799-6a77-4dfa-9586-5b6e37778831,nQBtgeRqw,oLnoAMpT,803-979-8944,DEHJTLTglD@outlook.com,654 OHjwjtHoXjpzBm Blvd,Portual,STI
2c7fec7f-0d18-42a4-87b3-96e561bfb5a9,ikADES,dypQcy,562-483-3420,CNhLUhbnNMK@gmail.com,188 SGRrwIkcYUmh Rd,Algeria,ENAC
ca2c1f55-b437-469d-ac84-3fa830e82cae,qhSnqxD,cMSQB,825-867-5623,MspYEYpzK@gmail.com,998 VSBDeqfe St,Canada,ENAC
3c321fda-cedb-4c54-9135-40c0cb3da999,xvKSQ,KfUhnjQ,956-996-6825,ISiqvBXR@gmail.com,107 EaYvdCstz Dr,Algeria,IC
823f3211-0e7f-42b7-901a-c7fab0b22f57,gzVgzj,CQqsHv,389-873-30,nUWNNROSV@yahoo.com,528 nUFjCceFbnfu Blvd,Germany,SV
b9af5ace-2db0-4433-a5ec-bc59c33e569d,ugycFShvv,fpIYE,829-299-3936,ptMNsKEtUCm@outlook.com,528 QxSlVvjQXP Blvd,Vietnam,ENAC
45ca1609-ecf2-46e7-aaac-3a999ea3fdb2,eCFsfh,mvCcgsRCG,881-622-4523,dkWvEXgjjl@yahoo.com,639 tuWjGkYjrqKUa Rd,Japan,SV
31efbe9e-765d-4aaf-8994-a5018b4f742c,NAodRcXPq,IuzWMJws,338-239-782,JDLspSiaRxl@outlook.com,632 sgYkAFXd Blvd,Swizterland,SV
953ec0bd-5e7a-49ca-8ca9-42d36b3bc06b,xfarh,UUPAJbu,717-479-3829,JwUcupcs@outlook.com,572 EbisWiPNAQuV Rd,Australia,SB
aa296b6b-5338-4bf8-b7e6-86d7935707f1,oeboGuNs,pUvIM,823-930-8959,nADvNSYLB@example.com,880 KdeREhXUYYbb Ave,Egypt,STI
a8d4c650-cc51-4421-9bc8-7752dc2d9b25,pJcEgGEK,MseBO,460-732-9356,VKpwEnMck@example.com,687 bxmSktmgjxlh Rd,China,ENAC
17c47589-6162-4a37-ba0b-246295d40d4a,kcASjubO,LOEEmkq,841-565-3960,vGPAKohcNTp@yahoo.com,550 bcFzzmdvQVoyR Ave,Morocco,IC
716379a9-28d7-4264-9300-33e2ddb15f2f,esspF,eTPbH,900-959-9262,iWVKAbMniTb@example.com,827 oceUfHourp St,Luxembourg,SB
0e7b3c17-a085-4010-8828-60c920397a7c,RNDzJ,ofFloTgo,461-878-8091,JYFYNsSYdoC@example.com,843 MTJggqYPBF Ave,Germany,IC
dc28aca3-48d6-4aa6-8e61-aad8d76f9dd2,oNxyi,rlhLCyQnA,225-900-1088,bNsdmdyEk@outlook.com,635 vIInqGKCwJ St,Belgium,STI
353ab7ed-4b00-4fc1-8800-214aabe9ae11,YyScHN,MKsXIUQ,974-464-1072,YPJfUGYOiJ@outlook.com,800 jactBcxyyMmn Ave,Belgium,SV
9014efac-b5c0-4022-8dec-99af92bb79f7,FqKaDY,CChdmsJmN,597-290-5883,GMSkoYOmm@yahoo.com,115 GnAqEfVOvx Dr,Morocco,SV
89cf77d7-b8f6-4030-b0f8-b5968ad549e6,TexvP,wVtamQNYq,870-412-9193,TQXTSfFo@yahoo.com,618 DChHpFkJY Blvd,Italy,SB
8ca82259-3c8f-4ec8-b402-31077bee9fc2,rLdNUJMH,ALiEd,880-898-2881,qLDkAKDjrd@yahoo.com,695 wiPXANARd Blvd,Germany,STI
c05ae64e-8997-493c-90b4-fe0348e1e224,nPyDcIIXY,uoNCHK,287-517-2609,HMpEXUdIzE@gmail.com,272 mrnRkbXXkcs Rd,Mexico,ENAC
1b4e4571-550f-4abb-ab40-a8fc7fb8bb22,GMmJyD,FUWEWhp,538-627-6080,jQHIBGuJKvP@example.com,689 wolOuozTSeJKLV Dr,United States,IC
1043a360-0c3e-440d-b11d-80cbe2d3fccd,SMWRL,lfPAcLN,812-380-976,ndkmkvegvLT@outlook.com,358 zrGRJeHpbKssOQ Blvd,Nigeria,ENAC
5327c637-aea9-4cb6-805f-0cb5a382077c,EzqUwmFK,hOecsbr,661-785-4429,MByQFnCAn@gmail.com,613 ovgAmkzLVV Ave,Germany,SV
f3a072cf-d1a6-4144-8ffe-cdcaeb4af99c,peWnntbT,sFYyR,228-743-2563,LauOklETpLn@example.com,312 oOQOqgeNOwO Dr,countries,IC
91276c61-ecb1-4b31-b4ca-6f6a49353e35,xgEIaR,dcUBpGDt,706-972-2958,bLYyGxfw@yahoo.com,606 GjMpqxYcFVDnU Blvd,Italy,SB
feedee29-37de-476f-8ba6-71386cf1fd04,nfAXQh,cadHNNDKx,350-844-5935,yBrKlWoCW@example.com,393 OPcswhlrvn Rd,United States,SV
2205cac2-1a64-4a4b-9bf8-82669fd00657,LyItgQEDq,gGGkVOD,369-363-3145,PrNyiPsPt@example.com,295 BVhmXdcaF Rd,Egypt,ENAC
3a1bdc92-a174-4b49-87c4-cc4ae00e0de9,DRpwEQK,SUBzkMU,886-653-6841,xohAoMAs@yahoo.com,471 ezwsMThewk Ave,Canada,IC
555be1f1-500f-4c5c-8b75-b69301449ed2,XWlQsPj,RNYckoP,709-202-9775,sRIpUnjQG@yahoo.com,400 BHISkFEtB Rd,United Kingdom,IC
a691fbf4-194e-4b08-be5f-0670c45bacef,NprSFxt,KnqGdX,816-829-537,fJWVxeBhj@yahoo.com,694 AVwuGevpCrTK Rd,Australia,SB
14fbd1f4-639f-44af-8cb5-cf0ebe8330cc,gwCRTqwS,BevckzjjU,354-854-8303,OkGhrdfd@example.com,935 XofDapmev St,Nigeria,ENAC
b4a7bf03-a837-40d3-b7df-0c320edc7b6b,XyPAyxEN,FivXIT,855-440-2090,WHlfqWJjvQ@example.com,833 PkTJknljVQd Rd,China,IC
88eaa7f7-2f0e-427c-993f-e04e98e82994,PpawnXoMT,gBUEryEAM,962-265-3738,aFLzBDVbDCD@example.com,954 JNMOpxcDcTKt St,Nigeria,STI
b908bdb2-e3bf-4b19-ad3f-3f467e49713a,CcNMspPfm,JVBynWr,433-674-4907,MRXuquAwNJ@yahoo.com,642 VCXXXsChnFkDsb Rd,Australia,ENAC
09f48d45-9163-45b3-ad77-724b48f34050,oqAjeaSmQ,xvwMiLMsM,914-211-9715,fwjzwrLNf@yahoo.com,479 qWyBtGqYX Ave,New Zealand,STI
7898d2e0-5325-4921-8bfd-4117a45ee329,roGXR,nDGDPswlt,366-224-5185,MiEySCwUnS@gmail.com,184 PkgLdoRXbALuUG St,Germany,STI
e2daf97e-9d65-4021-98fe-5e5260c7f9d4,dulpxk,alhNWzhNR,205-412-1341,mLNnrNyzgrM@gmail.com,657 okpaBPmWDMoP Ave,Belgium,IC
a6c21a21-9741-4701-99ed-0b5e830853a8,BSojxNFNi,xEXBq,257-378-4658,Dnuptlmm@yahoo.com,357 UmhRPeKJXK Ave,Canada,STI
496e3546-69ee-49cc-a48e-3dbb95c46ffd,Xmahkmt,dQaotyHzv,985-636-1664,xRVPfpBqi@outlook.com,419 DAEUNEFijTMNAm St,Japan,ENAC
cb278ddf-a36d-470c-86f6-18285af02089,JgKQlhL,yseoY,300-305-7909,nxHUErhY@example.com,683 zhXtkGJJY St,Holland,IC
602f1096-8613-420f-9273-4c50ef952b28,kTDzRh,uJIMPdKe,328-745-6141,UULzjgHq@outlook.com,570 QHIVWVfosWmfs Rd,China,SV
076399ad-f1c5-42da-a683-b0faa08b7441,PrypYXqU,WKttasKND,779-395-8692,gWWhkOYxb@gmail.com,979 VYXATPsfKKE Ave,Italy,STI
e13ec5f7-5374-41bc-acf8-ef7f0383fd84,oBhuAE,izikkq,569-226-1933,KAKjdYdcVk@gmail.com,257 TfcWngEWLGoKU Dr,Portual,STI
38936fce-eaa6-41b5-b77a-3ef147ee31ba,HMBpc,sOwyx,613-280-3688,WSAjbTKhTKa@yahoo.com,752 UwukKfoOcv St,Holland,SV
951b4440-0bcc-422c-b361-c735a285268e,FuqRfTq,kSpMzXhp,725-501-7682,csMkxUUBqmr@outlook.com,741 kIBEqUVq Ave,Vietnam,SB
27e84093-47bf-4358-bbec-2034b315e853,yxNOJpe,OCVzeHU,705-515-7715,eneKDIJMBfV@yahoo.com,599 AqXPBCdlbkz Ave,Vietnam,SB
7a7bbb68-eefe-42fb-b454-e80b873e706e,UYGsSz,xczXEFxb,466-782-5656,RkWBIGBiq@gmail.com,156 sccpVnPFUdwvB Blvd,China,SB
995b0234-7a97-407c-b735-2dfecb2b3ad9,PWTRgWh,OKNtWdQlG,593-519-4428,NhJoueHqkB@outlook.com,341 wGBKJHIf St,Vietnam,SB
571f7cbf-d8a5-4cc3-a841-ac9967662605,HxVzQssR,HhcvLmNrj,889-491-8855,NTaKfwLtKj@gmail.com,819 asnyNIlHFjiH Ave,United States,SV
591efb47-7e6f-4dad-9385-7a1b68428a25,pnBYAl,RPmOWYtD,423-240-3470,DbglXBlBJYg@outlook.com,535 Etnzndor Blvd,Tunisia,ENAC
0e5c610d-a99f-4cca-ba4b-67c26d79fd1a,CVjdugfMk,UcFVMAVDf,485-568-5751,rsSmTmxE@example.com,740 cKEvpSjzSntsjo St,Portual,SB
35653200-6e6a-43f8-8fa6-108ce90f37f2,fdVsvEoU,mBieBNrCF,375-497-885,zPaVCoYidmy@outlook.com,309 fLaEFrtxI Rd,China,SB
972da356-26c6-452e-86f7-af000d26d304,xBSVordJ,wSMzNfWS,542-771-9391,HNdFOEbSx@outlook.com,828 QywjbBSABCcBB Blvd,Canada,SB
c99a7b64-4d2c-41d5-8fff-c313d6f66adb,OfqbtnKo,LLUzLvFwt,938-773-1407,mzwaQTjvsKK@yahoo.com,642 WCtbXXnbSBX Rd,New Zealand,IC
398b54f8-0a27-4979-862f-bd8e381e2b48,ebbMccg,MwpqQEgf,572-942-5568,GORxAnXgn@yahoo.com,341 GvGfbaUW Ave,Holland,SV
c05fc0ad-dbe3-4ea4-8284-e48d577263f0,cUAGaWemu,huOGP,440-369-9025,bsFOlCvB@yahoo.com,977 wIVdeNEzIFlQ Rd,Luxembourg,STI
66cd3fcd-2dbd-4cf1-9075-369fec01ec9f,PFtwe,jinDjt,816-553-3501,oLnmMRwybWL@example.com,878 vqLDspzfv Blvd,Portual,IC
a8dfea27-261c-4ba0-b9a4-361bf134ebd9,wfRNrf,aLfVEQSf,410-872-1474,isAfJluLNYa@example.com,635 zFFQwRArFQveQm Ave,Japan,SV
9c3063bc-0910-48c2-9efd-dfc1c30faba3,xwJhqMNEY,DYhrIKD,561-399-7277,dUDnayQojO@example.com,995 NgMaJKgEW Dr,countries,STI
3a4efbee-0089-4b6e-a836-c9f460a82f58,xqSIwwXLO,mkqLeCIuz,879-852-892,FpmMWhuvx@example.com,182 otbzxgLTXwpVPN Ave,Spain,IC
16908a66-bc4a-4f63-a4e7-51ce34aa956e,SmHeB,WAxmkHLk,322-624-4208,XjdbLMiSmRM@gmail.com,608 tBIECUzO Blvd,Holland,ENAC
db3f0d52-0c43-4f2e-87d0-1733d153f691,XnHduRT,408-277-8590,RrDvudPM@outlook.com,538 vRBaCJfYAydeKc Ave,91319,Egypt,IC
59bdedf5-3b79-4c3f-b979-68454e177933,EfritDQ,281-439-6856,QsameMlTY@gmail.com,376 OghmsmYCdTQz Blvd,55383,Vietnam,ENAC
fc43963b-23df-44be-9beb-63d64bc254ac,tuKdXBLhd,668-916-2061,uBUEExyiFB@example.com,108 rNvHdybkrTFT Ave,72199,Swizterland,SB
151c38ad-dd83-4a80-819f-b43a057db9c9,WqawMRRdH,373-487-2518,PWRQNzPFj@yahoo.com,838 GiLLmTyvQsQ Blvd,72861,United Kingdom,IC
8881eccf-a765-4bb4-a037-87e95b2a52ae,IKUwyDly,774-948-689,UKzoTrOt@gmail.com,694 PkTrOOlx Dr,69183,Algeria,STI
23a68bd6-4705-43dc-a325-03d24473607c,fufHiWuA,931-269-3931,joxfhngI@outlook.com,256 RHNmDaHVHkRP Rd,82129,Mexico,STI
4c129f46-ec25-4748-9f55-227fdb42711a,oLTklRVRl,485-577-6356,YFbYUEVkbnD@example.com,269 WhGVSRDdR Dr,91249,Portual,ENAC
b7e0e79a-6c51-47cb-afe7-330e9fcd2253,oKjXCNS,409-359-7834,WAbVNunM@gmail.com,926 oAYNSbpThifF St,93956,China,SB
0725edcb-6776-40f5-aff7-7593ccdd455f,NtzCHmLB,429-667-9536,BxYMsOyLbS@example.com,773 VKwEmdNrxwJlYY Blvd,92174,Italy,SB
cff58e80-f1c3-430f-91ac-113b4c68633d,vmJUbv,321-699-2706,JkKfKTIYh@example.com,470 UELCXsSEIP Ave,71715,Japan,STI
870b81e9-dbdc-446b-8af8-e6d1619c4d3f,OyhvIX,674-925-605,IwuYSgvu@yahoo.com,503 lxBcYRApQJwqL St,99845,Germany,SV
45340b3b-e1fd-427c-b067-d4d3411557aa,VIJDTYm,772-384-6348,tWXyQqAO@gmail.com,450 UsDdmGTI St,51368,Australia,IC
f0eb39b3-639f-4768-a55c-f426179e264d,IkoLnavw,374-354-8014,deIoSDvbs@example.com,345 GKdwbLRFCM Dr,74034,Australia,IC
e28d1bb8-51b6-4e19-a50f-3989a6c25369,XOdJGWyt,428-358-3098,XhUPvIXn@outlook.com,567 AdnwuVmj Rd,42604,Mexico,STI
1d274aa1-b226-4d59-8361-b572008f3a8a,BEmuLlv,492-711-6176,ifJXlNkF@yahoo.com,644 qCwudbgYEK Rd,68553,France,SB
1978a98d-6474-45b6-a05f-6e4001ed753f,jOYVCeNc,518-291-7087,zqLRsyidcR@outlook.com,345 xtNLQHXNpHY Blvd,69294,Portual,SV
2e6a5087-0385-415a-95e5-c7a0202026e4,SFjhoTw,711-216-8167,UxIfcDVLxi@outlook.com,198 eTlvoduAODYX St,14058,Swizterland,IC
f8f96f50-a54f-4849-9b37-b25569136837,vjaaWXcD,487-637-2148,ndUBAGui@example.com,657 eHLWBgCFNMFn Ave,61927,United States,ENAC
a91cfb35-3e03-4132-94b3-28507cb43283,sRzlyU,904-490-5270,fdJetFrvzwy@outlook.com,533 kaDgMNGNX Rd,30471,China,IC
9a12d840-8e63-4840-aff7-5ea0a8d4501a,jypHn,594-880-6570,tlKQMjvr@yahoo.com,829 LhIBvuHHA St,62736,Mexico,IC
894557e9-20f5-481f-80ef-2f8a88e27ba3,yuqcp,809-416-438,EMAOnlijvK@gmail.com,159 quKOKJvsgJ Ave,89290,France,ENAC
4efe9c1c-22b7-4215-866c-40aea165c367,BnkPupjgj,862-287-5306,btRRhNXJ@gmail.com,322 NwybiwxKny St,73648,United Kingdom,STI
9ee95d3a-5757-4ac0-98e9-932b80a6e735,IHGQMW,864-288-1324,OkwQwhLlGlE@example.com,137 MWQODRkf St,80217,Morocco,SB
c87a8b14-6fe0-493a-a354-431f292adf7a,tysiwR,523-334-7994,PgNRQdOGPO@outlook.com,657 gPXojkNzArnug Ave,69700,Nigeria,SB
f6d85b1e-2972-4652-8840-fc0ce4c55da6,WFKDsF,227-460-7600,LsykKYQh@outlook.com,687 kocJoMamqBzQ Rd,86480,Nigeria,SB
1fddea3a-50d6-4e5f-a939-c6155194cc03,dQbWcW,270-689-4425,OLPcpMlQ@example.com,899 MakEOrBQTKYkE Dr,72594,Canada,STI
5408e639-cbd4-42a9-a1ec-ef21cf8febb6,oKzlfoC,697-651-8269,oKsehFxq@example.com,417 KAmPcrSI Ave,38919,Luxembourg,IC
f1201244-5065-485f-b114-b5b71c97bb22,vsdgUaUf,206-544-1787,LLECNcDDYz@outlook.com,615 OaEugmIIwo Ave,98548,Mexico,SV
b49aaae0-a1fb-4511-b71f-23c7142b9d9c,HqeSrMiN,817-719-1932,NHdmPRgPQo@example.com,893 WQbkCDhrLU Ave,91426,Algeria,IC
719cb2f9-ce1b-44c1-ae50-9e6461f2820e,ySXEx,345-948-2378,PzOuUiCAUwl@example.com,542 lpkpDtHzVESq Blvd,58467,Vietnam,SB
36557a09-610b-4f3d-8b41-622d81095290,fFMFg,618-857-3208,GKBVuCGbKIS@gmail.com,221 XAnUglCHCitS Dr,72023,China,ENAC
90fb03b2-cadf-475e-bde1-0c61e751bebb,QSVfcP,396-212-3278,ELDgzachbJJ@gmail.com,576 BfhQmybzX Dr,64737,Italy,IC
2e7f5a13-ec3c-4e6b-acc8-f9b1de308279,CrCgn,420-993-5821,xXNpLgfJMd@gmail.com,784 MLdsqIQJBvAWBf Ave,46642,Holland,ENAC
120b496e-b592-4197-b589-3fdf90a68e27,LyReQ,685-875-1519,fEfASdqL@yahoo.com,220 RrwwmfhCONCf Blvd,11463,Egypt,STI
1512d5fa-5f22-47be-8d7b-0720e9bd0938,RRtoy,479-655-5669,MPtvtsDsY@example.com,897 KYhnLjHM St,67428,Spain,IC
8f642791-2aeb-4a07-a05c-e0148e01c3bf,bHzHpH,400-406-2376,SObBQeywAMq@outlook.com,610 NsGqAiWIJbIpy Dr,87252,Morocco,SB
a4e8b5c8-6d6e-4adb-aba8-45a1dfd6930e,EYndBeVzK,912-845-8933,bmOKmFrwl@outlook.com,200 EozoqFHkF Ave,82283,Algeria,IC
6cbb6caa-5e05-4cd7-96fa-d59ebff8bc83,zQoLp,311-909-2611,HXjoGwXA@gmail.com,721 UgOIeeMR St,69286,Belgium,IC
07a55cd5-e520-4cdd-b066-e706ff8fe615,gcSJf,885-474-8510,TBHQiLInQiN@yahoo.com,820 bFmNhQcsLRQmQ Ave,79736,Egypt,IC
bfbd5778-4de2-4922-879f-bb73b8014fea,Mzlonf,891-733-4137,VQkpmYwHFW@outlook.com,681 jdwGDoMFCo St,63218,Tunisia,STI
e76d88ab-51cc-445b-8c24-bac44a03a258,pTVChM,410-701-6175,hPuXtelnOtw@gmail.com,738 yaxnujeWbAAEK St,80699,Germany,IC
f9a5a6fa-2d00-451f-85bd-4b8ec503bc10,rgbKOVx,562-218-4600,nIBoULAkfk@example.com,687 KmxmggiOhKczx Ave,55960,Tunisia,SV
988f3053-7281-47fe-85a5-056daa8f5ba4,Guadk,562-670-6637,RzWvmIFhbW@outlook.com,409 GvItsFDRmzqUuO St,83711,Germany,STI
dc268b4f-588c-4886-b8a0-4e969cc9c6d2,XlVPHaac,538-655-805,iKTwYGxY@example.com,204 RQtrFEFAQauRS Rd,28400,France,SV
cdc98c68-ab43-41da-ab8f-937259333815,qmtbsurb,869-929-3565,KaBcwIfiLa@outlook.com,929 sDdhFdVxCmcsvY Dr,21257,Egypt,SV
c1c95ba2-e2ba-40ff-880d-41d905c73231,DKuYXlvX,714-201-7636,dVdHQychBiS@yahoo.com,580 sPXtrgStnE Dr,68438,Australia,STI
863319eb-4dc3-4624-886b-cfcb8dd543af,lQPIt,475-854-4613,yqqrWsabdn@gmail.com,226 TBjrcVFkNbunNd St,39178,Canada,STI
fb847aa5-988f-45fa-86fe-313bc2302295,KSYdYT,556-371-6081,JlSdFITn@yahoo.com,940 bMYdaDTKqs Dr,57415,China,STI
2a0e3e67-e789-4972-b42b-417538888a25,tQzKYkku,318-801-6914,ehdfBTcs@yahoo.com,369 SHdgIvSe St,66961,New Zealand,ENAC
d336294c-76a6-420e-94ba-c9e3afef3cd4,ROUiavvyo,843-246-4877,bbnpRtLveKO@yahoo.com,403 sIbfIowfrsN Dr,67976,Holland,SB
5230501f-7470-4ea2-a0db-f8f8dc8e8f93,TqcnOlCbP,755-281-6,sMxLhBDPGsj@outlook.com,868 AADjuOHvvynxh St,41816,Swizterland,ENAC
e80c38df-651a-4a30-92a9-6c38cdf5ff91,XgSXRu,616-661-6395,zYfcEaYXR@outlook.com,312 YMVzCNweHQ St,60231,Spain,SV
43288eeb-e8ec-41d3-975f-18f4f9a61a46,QMnBycouE,799-354-262,FVYYrTfp@outlook.com,325 qGrLWvHGtkwjDs St,16203,China,SV
dba8684c-8b9d-46cd-9051-a81365d6c9c1,vnBrO,601-306-9864,EzGKwGCkF@yahoo.com,345 WcAuKOIHoDa Ave,27037,United Kingdom,SV
9421894f-3db4-4644-88cf-524e7b3156a7,zjKGN,639-763-8115,NSfMbdOqhVX@gmail.com,986 ntbFHyaplfm St,76540,Japan,SV
0cdeb2d4-c835-4816-a098-da298501b190,mLWfYx,970-537-9771,WOWdbwUaQ@gmail.com,680 TkfJqxFIVwdJE Rd,36427,Japan,ENAC
86dd689c-dc2e-4942-bed1-80ba3b68e727,hTUsSJE,422-551-2077,FzUGhntuLzE@yahoo.com,345 VKhaMTfrlIsN Ave,97819,Swizterland,ENAC
c1a55af9-a42b-4491-a8dd-726115f945a3,gWePgaTH,984-423-4100,cFWTETgUz@gmail.com,583 tJtYyXPI Rd,32750,Tunisia,STI
201bb83d-7df0-46d0-a396-644c7e7eebdf,rgBVPYv,360-580-9927,QJJEIUAuSTH@yahoo.com,535 uekhXGSxerUY Ave,60052,Holland,SB
1140e161-07fb-457e-8ed5-06c91bf92123,XiroMgHaW,988-943-1068,LuOzgzjNxr@yahoo.com,588 IFqPIyzoxqG St,20183,Canada,ENAC
ca62753a-4e76-4da9-8173-0e6b51280d18,vnEmfWaJ,528-933-1669,HvHOXPIXpG@outlook.com,438 AGRghXCpTNO St,34740,Morocco,ENAC
5e170e93-b69f-4578-9edb-dc79fd5ed67f,afIFTPXQ,451-939-6420,XMUnAiAVQi@yahoo.com,432 UgBOhcUX Rd,96869,Egypt,STI
db5e2431-4cd1-4920-936c-e704d6f480fb,YIQsWbc,617-734-794,hhraLwOarVB@example.com,685 JAfsxfRzfkrv St,88657,Australia,STI
7679ae49-c09a-42fe-950b-f87ac66bac29,giYVG,319-776-9902,JbNKXeGe@example.com,734 cAkkriiMha Blvd,23298,Nigeria,STI
4556e4db-3c01-4ab9-af50-c2fc17f86ccb,MooRRou,874-365-2972,lSMqPNRo@outlook.com,858 wytmzppMl Ave,56206,Egypt,STI
6d0d01c4-b762-460c-aec1-4b5ff1950735,MYeoGLAnK,649-649-790,hEwyJHjqLbg@outlook.com,351 BDhuvtAtRNwv Rd,76874,Australia,ENAC
a319b502-4399-4843-807c-32418ca8b0de,ugarqGuWO,892-356-507,tAzuEYpqs@gmail.com,917 LeHimsikU St,76175,United States,ENAC
ac9bf1c6-c8dd-4691-81dc-e0f06c26dac4,eSniiC,523-222-9031,erITOkllR@gmail.com,371 tlCmiBPOYHJ Ave,42546,United Kingdom,SB
1a2ab391-7f42-40fd-9648-63b46ec0d509,vVLwStIJ,515-596-9576,ijkDyHAVY@gmail.com,671 XIfCRFyV Dr,75576,France,STI
3ffdcccf-eaf9-4b91-b4ff-9c69c35006de,wxpbus,366-341-3733,KFAmpVYJrg@example.com,990 naVQnoDlNYc Blvd,65163,Nigeria,SV
5f7e4249-83c2-46d4-9b70-04343df50824,imobM,847-717-7458,oSbVirAjrhe@outlook.com,604 uXltnMoAEnM Ave,29801,Canada,IC
ff45c075-02e1-49f4-adb1-516dbddf635a,EGkvf,689-721-4517,MqOfnNGXf@gmail.com,443 APMwPzeAARLW Ave,63345,Algeria,ENAC
cc1b10d2-f9df-4e90-9ecb-1da27f957a14,jAQzEIvhJ,694-855-9211,VBvfxNWqPon@gmail.com,536 NfrHoKXb Ave,30045,Vietnam,SV
2920ff55-3af5-4b10-a4e2-1c62dace2b56,csFAuRR,504-428-2449,TRhuBWrQ@gmail.com,403 ljvtjhDXBdw Rd,69745,Mexico,STI
45fb50b5-1cf6-41ea-9f42-6d932e3667af,MXXdvb,367-587-3858,iOXBYwolOsF@yahoo.com,126 cDEKvScvgSCehj Dr,40431,Vietnam,IC
43c9379c-0055-4784-bd9d-eed58c6cf749,KeAtW,853-545-1630,QJVocqRo@yahoo.com,741 LlbtSupRSgEq Ave,85148,Vietnam,IC
0e432902-228d-4634-83b0-377d0a892525,vWbTE,431-629-3604,dSCFPzGI@example.com,858 jXjCSaFOccCmV Rd,84026,Tunisia,STI
6a60db79-db4f-46bc-b645-305537cdac47,RyjuUQIt,270-491-5197,nylABkjJ@outlook.com,265 dkCSdXfDN St,90026,Luxembourg,STI
fcc5503e-15d5-4285-97a6-09bd7af58a81,iXGWwRSCg,206-322-5054,ynLLMtRoVYx@example.com,481 yEjqDJmaoWPoQf Rd,44842,Nigeria,SB
bfc3a872-5e87-46c6-927d-5afa4d1dfb58,SKjnmtX,315-642-8098,sneJhpUp@yahoo.com,264 nDmqeAIuQfwG Blvd,33247,Holland,SV
4fcadceb-dc6a-4fbb-83a5-2bda65b80a4c,hOOhciqj,286-743-2956,gyGfvcTuciD@gmail.com,435 wzepBhBPtWOLF Ave,96301,Spain,STI
5213d121-27a0-40a4-bf7d-643187aa4766,MSOduy,226-928-8770,lOoqATvKzWS@example.com,920 hnUDYttSB St,30182,countries,IC
fd761291-49c0-441d-966f-72a449fe4655,hptSI,800-809-8299,pUjNSkQrlI@example.com,573 CRgIafXux Rd,95144,Holland,SB
c29002c8-82e8-4a4c-a997-546b14923903,rsNqhM,578-538-2091,ktSTsMrszV@yahoo.com,983 kuHRbNnbhr Rd,44142,Germany,STI
4ae50ff1-3ea1-4ac4-8d0b-8561b8e5018e,xDcfbP,502-782-4398,qPDTtqGRs@example.com,883 KHIdGgTbf St,63840,Italy,SV
31f8de5c-443b-4f3e-9856-a37845b5d309,JFsbFU,464-482-8449,nJnKHOXli@gmail.com,765 XEonMnEeI Ave,87483,Italy,SV
1f2e627d-d520-473d-9318-226bdf9deec6,JjviKflzt,787-823-3274,FjtDeXuSC@outlook.com,641 UKXSaiHgCCYTuv Ave,83136,Japan,ENAC
1c92f1cd-86bc-499e-8c26-993ccb2117cd,bWeBaKW,283-546-8417,MajEYXSFJP@yahoo.com,226 xJGWWFJTmNpG Dr,60646,Algeria,SV
0796f03f-8570-4851-9882-2dd935fb4b5a,dcLCyRU,845-522-9155,krrXHjhu@gmail.com,928 PNvfWDAvjY Dr,83860,Australia,SV
dc32c894-e2fa-4602-92c6-6ebddf358f7d,tlGiXaeR,906-312-5454,wztzKOrBOIM@outlook.com,468 zEEWtEXsysRkEl Rd,70756,Italy,SB
068a765e-7e9c-4561-9faa-9117cc79cb78,eNoWm,619-924-9098,zhehCnirYl@yahoo.com,149 FoCakswRgEwi St,11074,Italy,STI
58e6f82a-08a4-4828-a6f1-56ab72b7efa7,BuGrX,894-818-8877,APEaSwryG@yahoo.com,217 InWEYvzmXIxD Blvd,50334,Italy,ENAC
f6ee0284-50ca-4c4a-ad20-8b8ac29bcd89,SDpnJKfOL,497-428-7308,PmAGoQHs@example.com,678 xSUMEljmhScYjS Ave,25855,New Zealand,ENAC
efb50423-3389-4f39-819a-e3a04925bd6c,OaWWsP,496-654-2382,rbFXtjQLU@yahoo.com,211 ObPmzhJc Rd,26116,Algeria,STI
232301c4-c73d-4449-9b4a-705977e7a7a2,fVBluN,862-797-2746,owvcANaIK@outlook.com,921 ChFeRdMkYl Ave,94310,Germany,STI
2fcbc0f4-c375-4e15-9642-9744b9be7ee0,shftKoA,337-379-8306,gxxxVecNIv@example.com,914 RWQMMvwah Ave,87287,United Kingdom,IC
c8c83ab7-124c-404a-8e84-4386e6fe36b8,Urjel,472-923-1140,HvjgPFxkpV@gmail.com,575 XTEynRHvAOaPr Rd,59419,Germany,SV
4137c917-e1d2-4978-807d-233ace80315b,mLosfXse,785-675-1943,oqHNnPcGjiO@yahoo.com,962 phfhAjhUP Dr,22610,China,ENAC
6b7bbd66-96cc-44ea-9da3-14bb4a9c2d5a,ewcNj,465-605-9264,pEGShpNNj@gmail.com,625 aNkAhoasnmV Rd,73265,Australia,IC
54bc3207-48b0-43cc-869c-88ac04c7599d,NOIENua,755-272-718,UcLSUXmWNee@example.com,880 FzhibWEUAA Ave,70809,Nigeria,SV
fbf72558-bdfe-41e6-a00f-5e856cdf35df,lrxCxgxI,964-508-7004,ourEogWfAh@yahoo.com,134 cqOKocxXr Ave,69731,China,SV
80d9d803-426e-4e74-9fac-c284bb4bb8f4,redAXqcQ,271-366-793,kFIubRiX@outlook.com,677 IEBiJvmnpFeHYG Rd,54151,Italy,IC
6b81112b-2b87-4935-8714-90f40976d245,ntaeD,752-552-2087,KIPCeaoIvBQ@example.com,957 xRdEBNWsCBFe Rd,99519,Italy,IC
57c96f1f-8c5a-4ea3-9c0b-6de5124271d6,PEKwXjcO,399-834-5964,cgDUUjENFAR@example.com,440 toSCsMkCtps St,93820,United States,STI
30293d10-07f3-4869-9846-75c2569db01a,evPQORHq,872-531-2987,SblYferY@yahoo.com,323 zgkuwmHk Ave,49538,Swizterland,SV
9d3e98e9-adb1-4822-bdc6-b3c261fd313c,KxVln,663-302-679,YythXTUk@yahoo.com,550 jsJwPFlkRiLl Ave,39277,China,ENAC
909d15b4-07d5-4c24-b062-9dd0bddf3800,CKSGzFJm,610-568-8989,OxOkVuIwtqR@outlook.com,955 qVpHjMSbCNXV St,45695,Vietnam,ENAC
18ec209d-9e23-4aee-b810-117d71b833e4,tkkrrvwI,313-715-2131,IvoASttz@outlook.com,788 HCnwRlsBkE Ave,65406,Tunisia,SB
c2e154b9-c460-433a-a93c-1ee07e88a297,uhNhdXOqB,566-640-5851,eTQGfsUwR@yahoo.com,159 LWBpagWsmfkMR Blvd,70983,Mexico,STI
5ac8ead7-5e9d-4a63-8c4e-f2eb35e23f31,nfccU,435-673-3830,JpwPCTbRx@outlook.com,157 XajwIqYKlQrRey Ave,16179,Egypt,ENAC
c5d01885-6ae4-4dfa-8ac7-78c05ec9fb66,LiFWTLOr,325-703-4022,dXCMMLbI@outlook.com,106 OBTHFHPF Blvd,47091,Nigeria,SV
0ddcee5e-1590-4eec-af7e-e166cd286fb9,qhMkyrury,729-832-4492,OAwWOylAGx@yahoo.com,185 fEWosIYuWjaz Dr,18510,Holland,SB
4fdfa6c4-e24e-4cea-86ab-7d91641abb98,lAgUHXVJ,869-494-761,yyhLHRBtMrm@gmail.com,450 kXfpiKKyGvfJ Ave,27592,Morocco,STI
ad15b85a-e2bc-4e7d-98cf-d468583936bb,QpVCVlg,256-486-3592,yjrjrPLsm@gmail.com,781 LYfEWrYzhQo Blvd,38472,United Kingdom,STI
cc5b77fe-c5a5-4ff3-9a11-f3b4f5814219,VtlpeB,725-454-4952,nfjImJLJchT@example.com,705 uiNHdMllKwHi Rd,81666,Luxembourg,STI
58633e7b-b10c-4805-b8bb-232ca02284cf,NHKwy,341-926-8118,VUbmxaylMpF@gmail.com,269 JwuoxTUj St,88364,Italy,SV
7dee4b30-86ec-4eff-b787-bb3ca6199e8e,rcjpgzbPI,729-224-1252,OFtKgHNr@yahoo.com,903 cthHIqsvdeeWmE Rd,24743,Tunisia,IC
2beefb82-8fda-4f92-8655-7d32477c74b1,GStINUIxS,888-627-1199,uJwnnEBq@outlook.com,678 TcrsqNfuE Blvd,79769,China,SV
436fd5bb-c3aa-4af1-8e47-4b3d13c6eed6,VmzJOpW,607-278-3069,uOHyWYpwiql@outlook.com,267 GWWOwnPXJgpuA Dr,56694,Spain,SV
c6c6267c-55f6-4ff3-af5b-30589f2f2433,JLnIYec,753-230-3190,zrIkGGEw@gmail.com,386 bjnSlggchrfhb Rd,87210,Luxembourg,SV
889dbb24-2ca7-42a8-a0cc-3cb2a0fff4a1,OIaycutq,922-481-545,yflosrBFj@example.com,726 eEoBUibHnMC Ave,62495,China,STI
e4a9b642-dacb-450c-9fa4-428d6a182ddf,HzTouPt,511-466-1669,jJVQkUaFHse@example.com,465 ehnXKEKOFeVO Rd,91528,Italy,SB
20a0a82d-a5c0-4b90-9f04-6e0b5e998147,OiNfjWk,288-439-6154,qKinAKSJdxE@gmail.com,916 WtcTqOFz Ave,65247,Holland,IC
de38cf10-6f72-4aad-bad1-34050cfcf8cb,pHNPXQ,851-264-4352,xNpiziaaYy@yahoo.com,118 DYuJcgbuGryHao St,59118,Vietnam,IC
f0b66e78-6158-4b56-9431-ef0fd370a814,CVPScHux,227-396-9807,HBEBgskGQ@yahoo.com,838 HxhSvQqhGgOwQ Blvd,17177,Vietnam,IC
46d87c5b-d4e0-4079-aa9d-bc598d48e942,eYVzBkh,427-392-9812,aaGgOnIwH@outlook.com,536 VkVjqFlHlhh St,24120,Australia,IC
53665d7f-1ac7-49ce-a0cc-329f7f160db1,ceCvygCrr,673-850-9393,qjolUbeg@outlook.com,687 cHgTVfnwmaeBP Ave,23057,New Zealand,STI
40c93942-7ba3-475f-8cce-7e6e40326a10,CHGUkpc,622-289-2976,YklLvHFJ@yahoo.com,957 WWUivsNhOjyxOX Rd,44047,Belgium,STI
3830fca1-22e1-4573-acc0-856cdd4377c3,cQCeJ,553-292-6355,KtTsqfmvh@gmail.com,266 PhNDJzNPE Dr,41336,Belgium,SV
c9fe5074-921a-4568-9d88-c759ca47800b,bluHG,696-995-2206,OTGrfEtQNo@yahoo.com,211 VkgxYTBQSDfs Blvd,76368,Mexico,SB
1c857ac1-b233-4f64-bb81-bf694928fe08,EKvwymm,377-663-1974,uQaEQRixvL@outlook.com,371 FigRcivbHGBkI St,91814,Germany,IC
24dd7658-1545-4651-976a-ce81f33e1a95,ubltn,340-394-7469,MQcFceNP@example.com,241 CIhnXIdrPEiS St,21713,United Kingdom,STI
7f363bdc-9649-4763-8324-2b73fa35faa6,uXFzWtbm,732-990-5913,HktAVCcxRLF@example.com,350 OrrDvzTq Ave,48077,Egypt,ENAC
ed1b999c-065d-4605-9d3d-7602fffc53b0,uMeeK,353-890-9383,buQITSsr@gmail.com,537 hRElkOuMJgC Rd,92364,Italy,ENAC
2c8f9e91-eedf-4b05-addf-e9b703096111,nHlQNx,514-804-9174,QOvnRNHWqsn@yahoo.com,112 WxISoLgmhw Rd,93245,United States,STI
0400a1f7-efb0-4f21-bf3a-2a65eaaf37b8,FCbledS,658-647-3424,XvErKYOIzYN@yahoo.com,584 iWtrrtLW Ave,76902,France,SV
b3690e38-b2e9-486a-823e-f62134041194,cvraQC,879-381-1140,xIMgVqqXpzq@yahoo.com,855 PODpDdBUhV Blvd,31849,Egypt,SB
d02429d0-067c-46fa-8472-b0c9747626ad,SwAEAR,566-600-4540,VqKChbLMaxU@outlook.com,698 RkPdPvtAbLoyL Blvd,97067,Swizterland,STI
8dffb93e-5ea2-4f29-8148-5947d74de228,PKtMNRGL,432-368-8049,WElzOColNzd@yahoo.com,940 qhvOIcOKDgS Blvd,74652,United States,STI
2def411e-451c-4ede-8cfb-117392200cb4,TUYcrXR,966-951-227,tDOFFVPncF@gmail.com,671 CTCQQwId St,28657,Mexico,ENAC
9838f6d0-f21c-4d33-98c6-0f88fa541b03,IzLGhw,600-840-7402,vpwpcwBj@yahoo.com,925 SmoOfxlkgMAjcz Ave,63315,Portual,STI
7afe2dd3-7645-4ca1-b26e-5e8076f6e51f,gxslGh,666-500-5648,qfQHyodIHC@outlook.com,630 JECISdrqngqHI St,55063,France,SB
d9439a50-bec4-44f4-85cd-96e82d83fc51,mlGoaeA,317-497-4510,nzKvjErFVVB@example.com,152 KUWqejkGXdowy Rd,17351,Mexico,SV
96e061f2-adaf-44c1-9aa0-e93b25f7b9c5,rVxEhJ,666-262-941,InhkllYUh@gmail.com,672 bRlNNAsIW Dr,84957,Italy,SV
161269d4-fd3b-4657-98a1-6168375ddab3,FoHTA,667-729-7022,FmRMCxnbn@yahoo.com,310 OpAApQOgSuaK Dr,19681,United States,SV
bb7e760d-7146-4e76-b65c-7b376eff7021,vstzDMNvL,746-608-8242,EkcAGNGiU@yahoo.com,182 bMcCNefCxI Rd,41525,United States,STI
8d665e71-2f35-4870-9ca5-b74f2034ef7d,zfCakP,216-403-2299,CkGHaPIX@yahoo.com,798 fSamedIhpJRwzv Ave,12294,Mexico,SB
ff6599d1-66df-47d6-99d0-831b86e2cd6a,mQCyYaKY,260-242-3070,yhnfDwCRyO@outlook.com,362 WCBegydbO Blvd,60644,Portual,SB
aaa50993-f950-4646-9f90-a65e7b9ee777,sjnvXU,892-696-1102,HoNjnVrS@example.com,958 MHfNTYfPp Rd,25338,Mexico,SB
ea2d17a8-2131-4ff9-86d5-66747ba2d31b,DaJCrLAqv,988-856-2493,HqAhGwkM@gmail.com,646 ImeDLBsEFH St,99372,United Kingdom,SB
fda7f996-9420-4a09-a378-d282b766b289,HCShJviGO,612-501-151,YgshYJSjzz@outlook.com,550 AAlboyqTV Dr,95074,Australia,SV
855f8ff4-d571-4a4e-aae4-b8c5ea1bfb17,xedEYFwjJ,569-679-7523,jscOfVILpyH@gmail.com,843 udKPcesXvsW Blvd,99890,Egypt,SV
57a16123-1811-4444-bff2-6875947af074,PtrKGSxU,602-750-6127,LnmgpyMJe@gmail.com,746 MDINkVKLmrsv St,98961,Australia,SV
ab935bd2-28a6-46ae-bce6-56dbe7b164a2,tENFbI,255-517-8292,IClXNYJkX@example.com,160 JIEXdsjCUcuwy St,56791,Nigeria,ENAC
32e566d2-2eb9-4f1b-878a-2f565b4da0f3,FHsouR,419-530-5022,XWwgBfsM@outlook.com,383 QifirdQW Dr,50754,Vietnam,STI
008d6f33-15ee-492f-b959-b7c7434fea9a,sKfGIqL,492-938-3320,EPJOLyLiQqN@example.com,501 JYWVNbSBWlwCFS Rd,44235,Belgium,SB
0ed9babd-528c-4496-99af-a3ca536fab80,HNloyYJi,799-969-271,wbJMAJKdASw@example.com,584 TXItKThX Rd,75682,Portual,SB
e65d76df-28b4-40c5-8787-b046caee19c1,yjeQpdHi,790-437-5203,YdbotXtm@example.com,466 KQfqpLRdJX Dr,82284,Holland,STI
490058a4-905f-4079-bbc5-c9d6b11ae6bc,NjyvaFht,703-659-2472,emBTWVWro@yahoo.com,494 TejlrrstTQAOu Blvd,60194,Tunisia,SV
d2f23a20-fd6f-45bc-a855-0a061a3252f9,HvJANe,243-918-1927,KkSxLgROsO@example.com,468 vClXOKQuQdh Ave,90841,Spain,STI
f333fe33-8094-4df7-999c-1b4a3aa2d079,KMbrM,462-960-8975,BBATImgSBpc@outlook.com,130 QTWoRuiO Blvd,96890,United States,SB
61f8eb6a-475a-4f3c-a67d-9653e32d0277,GxnROzHhD,668-274-2476,FgMwpXvsst@yahoo.com,616 TNXVXHsSkdgLI Rd,12676,Vietnam,IC
49588cdb-69d7-4cc1-b500-8de06352df7a,CClgJY,517-682-5426,LLUHIkvNagh@example.com,523 vkphIiHHixERN Rd,49398,Nigeria,STI
947670de-1fa5-4f34-aff6-7076a1330bc1,wdpIC,895-533-9421,dteHiWnYTkT@outlook.com,202 zWCKBCjnRRTee Rd,96208,Luxembourg,ENAC
51e5e8ca-14c8-4fe3-bcd0-ae11ea9c15a0,FPQYVxbg,702-555-4341,jcsBHRsYWi@example.com,666 dtDqLwjwXEz Blvd,56208,Japan,STI
63386de0-cf4d-4b40-9a0c-ae29791de6b2,nTsbqBquG,281-512-8338,NDgfmeQU@yahoo.com,552 sXBTxvqmF Dr,45296,Vietnam,ENAC
ba2c53e3-3454-4e5e-b1ba-7dea389770bf,HWxbijEr,700-327-3099,qgRvUrBQly@outlook.com,311 xRnsAIofnCJgWQ Rd,52906,Swizterland,SB
6c372004-21b8-4edb-96d2-67a8d46c2e2d,jwTmSw,571-654-2193,znpdInLRR@example.com,140 bnAiOBulcAAxF Rd,13087,Morocco,IC
6eca06f3-5223-4d52-bf54-3990abab3553,dpCuF,509-337-2855,IRWKUvCfFGu@gmail.com,897 pLFwEwMCkAk St,37212,Swizterland,ENAC
e63afe3a-d1d0-4149-a49d-873361ebde1b,JKdqjqCAr,832-442-3195,OGDQqEGzFWH@yahoo.com,242 pErCGEDCDdygBP Ave,47021,Portual,SV
e9fad918-fd50-4d8a-b4fa-479f457af68a,QmXUvUcn,762-803-6561,sypIjrLSBt@example.com,222 MQsnNWfUjxkbjU Blvd,21257,Portual,SB
4428f547-1dea-4a93-91aa-b1f75141bb0e,PqNPPCFD,879-950-486,bqGoqcGQGam@gmail.com,448 uKQUMgLvcUocI Blvd,41224,Swizterland,SB
2a88bb3e-8227-4c8c-a1ca-1fa9515dfd49,dBzLgEP,441-842-1663,HaaSFDxuc@yahoo.com,125 xTUQFMsoWi Dr,98517,Mexico,SV
dace7fe0-70c0-4208-bb34-8a4842c0483e,PfeQDR,907-653-670,KJcmYqayApY@example.com,376 rucenNnXEJIVz Dr,29648,Germany,SV
f822d929-4b50-4576-910c-9a7c89f04f80,jmhTnWT,927-234-3565,gTrJruGMQNU@outlook.com,465 xyuYMOEbTKYofj Rd,64514,Canada,IC
dd614f8b-c346-45c3-bf99-0bbeec43f82d,BgIzo,519-832-9769,bsaDsBwQ@outlook.com,866 IglufhnzDcJKs Blvd,26584,Algeria,SB
be470261-8d35-4478-bb2f-def427e1d0f1,JQNlQ,537-507-4194,jIGbaPwmLXU@yahoo.com,798 HoaGGHOB Rd,68458,China,SB
9bafd114-1efb-4417-9686-c5e52d744054,DBWhKDJ,890-961-5620,cOYiyNOO@outlook.com,156 AwoUCeUtJe Blvd,10029,Algeria,SV
a0f08476-419c-4e0d-9848-c00c8e09bb4d,KyzFUcGHf,885-646-170,rVYvqwAkj@example.com,144 HrAwGRCUAF St,46166,United States,SV
ee3d2470-8059-4ff4-9e49-ceb2a42419da,woJWDIGO,820-451-8569,OCWPacTCc@example.com,857 zKwHsiQhoe Rd,37814,Spain,SB
59ea2549-ada9-4dd9-baa8-7788d9009ec2,iAqYnaz,955-417-5759,qGhkAFMrA@gmail.com,286 XFacPSJKPUb Blvd,95460,Belgium,SB
df382675-bd66-4080-9783-9278b340c1c0,VToyN,622-748-1943,BvpRliNdk@outlook.com,743 oRdcTPMWG Ave,18611,Egypt,SB
adb18d7d-34d9-49fd-b234-48e5a0e08574,qzxxfnre,665-725-6582,xKNQVrtn@outlook.com,731 phmEVxLSJC St,87330,Canada,SB
69c54d69-8b8a-4fcc-9fd7-ccff9a9a3b91,FbXCNu,620-796-3450,KBqteLoee@outlook.com,900 XOdfmaDpmlj Rd,69089,Algeria,IC
225f0df2-a558-4e5f-b9f5-55967905a1e5,yaAYC,419-460-4806,nmbBDLOhO@gmail.com,939 kJijYcqqUYIqn Ave,25955,Canada,SB
d1881aa4-ef75-4aa7-b054-c21c89e923ce,ciEGUiF,738-219-1668,gzwnnKFN@yahoo.com,415 mIIUuasGbrU St,40656,Portual,SV
dd1bd4fc-42f4-4f82-9d33-6ed497010db9,vyiaWiexp,381-403-3343,RBbjCGDpfbj@example.com,880 MTIPpkij Ave,48150,Algeria,SV
ecd75e50-b222-4a97-95c3-279a1aa1cb5d,FkABiaO,733-681-1873,OOlCdHTHL@gmail.com,207 tqzwDmLAPED St,39841,Japan,SV
fd2464fd-4790-489c-8403-e953ec035412,limlWlSs,626-333-2671,XgEqTOwf@outlook.com,371 mOhwhrnFOvPJpT Dr,12002,Japan,STI
4fec654e-6c3f-44a5-8fdf-4365d57c8bd0,aqXeY,263-529-8144,hFsSBecUry@gmail.com,178 DFnjdtLlvcukp Rd,79713,Germany,STI
a1f90320-255f-4df2-a2d4-1661316dd9a0,aMkxA,350-599-4775,KBynGBNR@yahoo.com,517 ALCMmvOI Ave,31713,Belgium,IC
aa695999-4606-4dd1-9218-9979d27a97bc,rwpFmridu,501-931-3650,RMRkzDrHu@gmail.com,108 wgQGsDVIN St,96828,Swizterland,SV
9d50d401-95ee-47b1-9a2b-b73473f59b6e,aXiSSGOJh,879-715-1053,bkGkELRwz@yahoo.com,174 HcOiEaoDm Dr,36688,Italy,ENAC
9b99e936-f907-4c91-b15a-d49f3e2f71e9,adsCRwfk,276-431-5085,KwjeaXSMWv@yahoo.com,758 IxMFPkUKI Blvd,75316,Vietnam,SB
4492c9ca-8f15-4d88-b4de-2c140a2f7ab0,AfiLOt,578-483-1629,idlvsoESKoi@yahoo.com,413 NsnmEaAIWRMIX Blvd,46729,United Kingdom,ENAC
d75f7751-5ca2-403e-a7e0-827b07efa22e,ieysyi,541-345-8471,tbNvUJdm@yahoo.com,240 vdHQnXeTq Rd,74180,Japan,STI
731829d6-5ecc-41ae-8719-7808fdb852a3,igmfH,285-466-2527,NDJqJGfq@yahoo.com,658 vELkTqVkSP Dr,91290,United States,STI
a0c51d5c-1702-4366-b771-a7a97eb276a1,sNmTtFYt,898-667-3526,PlxTGYjP@outlook.com,557 MeIztafTuOzUxx Blvd,64548,countries,IC
ec36f159-0f69-4b9e-b6b8-c54eac8d4028,jTdvy,647-436-3703,XWgwzdtM@yahoo.com,598 QQohCXWdOn Dr,40280,Holland,SV
d45708b8-618b-471d-b0ce-4673eef90069,ogGIq,294-881-1198,UiHoADCy@gmail.com,392 LDsSDSTuJno Blvd,51699,Swizterland,ENAC
e389c5da-12ea-45d5-b9cc-a606a83efe62,BTzKOQbWI,947-409-4382,EjgYuPGID@yahoo.com,484 DAtXeiEGrEj Ave,15801,Italy,SV
b57da55a-19d2-4060-b0fe-0c57320f335d,npJqUJyd,888-836-6154,CmwsfTOUhRX@outlook.com,666 DYDXsGQqmVJUS Ave,33464,Mexico,STI
2885027e-0d47-41eb-b9e6-f25dae422f4b,iNDhLPj,384-288-4178,XLbliDquvC@outlook.com,203 qmjkFvKIJFMW Dr,98855,countries,IC
553fde9c-e613-466d-9d5c-1f5eee45abf2,Cnkmj,704-523-8165,RUAHraEqzI@yahoo.com,283 JoEhNoHA Ave,75675,Belgium,SV
bed05f72-3146-42f5-b9db-1a7b31f9a86f,HFAJxl,946-549-9901,aWkwrFLaUF@example.com,723 ouQkjKIvD Dr,31128,Mexico,IC
e388ff4a-f9c5-4fca-9401-f02ad1bdb26e,Hnggx,929-526-7634,oWpEvcrj@outlook.com,364 VmbWdxmuY St,26241,Canada,SV
46aae19c-a534-42d2-82de-3b2747aa5c0b,YPRqjh,838-778-7149,BKVRrWYP@yahoo.com,278 UmCzkAyoGQPHBu Blvd,38182,Egypt,ENAC
cc46e566-95d6-4267-b0cb-9e6f2fd9f806,mTXHwz,768-952-3430,CpnWmTlPw@gmail.com,639 lIMuJRgnfmDyp Rd,79992,United States,IC
be609cad-8f65-4274-8e10-69dbf45e952c,EbqGv,460-616-281,jgDxWTxgw@example.com,886 DsOnaPyDOD Dr,20063,countries,SV
986d2014-de6d-4bd6-bb94-fc62de85f363,lmSIFrD,428-556-8595,BbzDBFNdQn@example.com,316 xDeFenVUl Ave,91980,Morocco,SB
eb2bd5dc-2312-4d5d-a014-0d30fe408656,wtpgEYw,708-428-4001,xxuJEfDi@example.com,650 TguwQNCfvaiBY Ave,63608,Canada,STI
97e822fd-8234-4609-a6cf-6bb9c1e1c552,mmXoKj,227-908-3303,TzIHhdXTwN@example.com,600 DTepKPahsNIxL Rd,25202,Algeria,STI
824496bd-425e-417b-816b-0a5338347358,xohiRUO,680-480-2803,XkFShkVV@example.com,718 ctXMBtiCyR Dr,39506,Italy,SV
e194887a-aebd-43dd-8ea0-1bf44be8f8b9,mXtTIXqy,350-856-7094,slQcSzKtX@outlook.com,127 BfPbqpYT St,66560,Spain,IC
60e85110-4e2d-4ea1-88e8-e1ba2984aba5,HbXtMwQ,308-733-2246,gxJoOkJNc@yahoo.com,337 GHBUNStnDvEkw Dr,65322,Portual,SV
9042085d-119b-4b52-8f77-c82a9bb86335,MSizNPf,942-273-8826,NXPtPLYySgy@gmail.com,150 vRmAJpVMi Blvd,63541,countries,STI
2fcdc36a-dac7-4dd8-92ca-1e14f8ec7836,NTbPTmjX,902-969-6593,xNXdtAcO@example.com,964 dqddPYKdzYF Rd,88034,Belgium,STI
edadf127-d82f-401d-b112-e706f38ecfa1,NqSxj,352-227-2977,zLccaPgUdr@yahoo.com,836 AAkvhnRK Blvd,77790,China,IC
45bcf113-357c-4846-92a9-a788a2b943cf,VJCmsQYFp,247-975-1899,yOxAGgJb@yahoo.com,952 bDIuVGuMwYDpc Blvd,14995,Portual,ENAC
29d4a4c5-7ac1-45c4-ad09-173548d41c04,luHLb,419-951-9287,KqyXRpXgqk@outlook.com,465 LQsBVkYhRfd St,44774,New Zealand,ENAC
bfa1814d-1c6f-4fb9-88c0-73d16cdc5c85,oKxclCB,728-891-2570,PCrHFKvOq@yahoo.com,655 qkjOgVDx Rd,52772,Canada,SB
af1a9031-49cb-4e4e-a01f-d4e049821e74,wxskC,575-876-1050,iLeobGFNG@outlook.com,798 McScLUEQ Ave,47686,Egypt,SB
c19c062b-3588-4e88-87c9-4caeaa12124c,dGGVL,796-569-7274,dWLXwxzLtAX@example.com,256 kmLHGQTBRyNNP St,35452,Canada,IC
b7c5fb5d-bb22-4def-babd-2d859d29bf8a,zdiYQ,563-930-3225,blgoPPKJ@yahoo.com,787 kxmRixfRpJf Ave,65734,Swizterland,STI
98b428e7-b6d8-47c9-8b77-8933c7962eec,iuNRhXRv,875-969-1084,oFFjoTByBx@gmail.com,165 joEWYuPllPOn Blvd,61933,Vietnam,IC
62e3db34-e4b3-4828-8c00-06c1760ad1c2,ogSXHr,399-539-3727,aLIwKooq@yahoo.com,621 QyjOQuHDjN St,16337,Luxembourg,STI
e0c990d6-de16-4065-b119-197639d5ec69,wiizfw,297-654-8773,ihYRAPALI@example.com,277 vCwBwmpSombGbj St,48214,Belgium,IC
5319813c-2e63-4411-89e1-c7a77f1599f2,rXBGTOL,416-329-7163,WxyhIVQiKI@yahoo.com,427 HJmXwNYo Ave,51342,Portual,SB
383754f1-d64b-4ed3-8000-7fbaf3821dbc,zWvIcwU,791-684-9421,VOYHedIgNUS@example.com,226 FJqHavwutwRfN Ave,57988,Vietnam,SB
7e006806-29a9-4079-a4d5-9e0cdccbbf31,twnBNAe,587-474-4427,jUqqyXJz@yahoo.com,844 MEDRRLwdrNOF St,12767,Canada,IC
28d8872f-e93f-4112-a285-978dc722b0d8,llFjpXoXI,680-854-279,FHiJdpfs@outlook.com,245 tLiHVeDlatgy St,97051,New Zealand,SB
7981998f-588d-4881-8659-58fa89232978,VBFBzI,440-741-3436,fLYiASbWPtO@outlook.com,202 UtseTjTRwR Ave,64775,Australia,IC
fc2f00c3-5f98-4f55-b258-febafdc61302,bxRVTR,834-788-1673,oWnKGdTA@outlook.com,235 fqHncaMteDwYpw Blvd,42787,New Zealand,ENAC
5cdb0949-9194-4e9c-8f32-3d33aa7addb5,AxsobmL,578-730-342,yXedImUgA@gmail.com,870 wQgFMvtDeifTD Dr,15306,Vietnam,IC
09a84dc8-1d6f-44e1-b77d-695f7049cbb9,fxhSkKz,284-544-693,yioFLTFHYi@gmail.com,671 IecieKryggv Dr,27570,Australia,STI
f20219bf-f897-4615-a53b-f23ea7be0771,VpeGOnobG,360-475-836,CwwVxesis@gmail.com,570 CQQYGXgjONcGT St,21965,Tunisia,ENAC
f870734a-22da-4474-b08f-dac117a138dd,IMhKszdF,463-912-6965,calYAJWDCEc@yahoo.com,206 VbcREapMLL Ave,48228,China,SB
3b200a4e-060b-424f-be29-0422d7fe7db6,UnfaUThr,799-726-4890,XAYaGMlDPX@outlook.com,196 yopurmMcFdPc Ave,34697,Egypt,STI
e1c882c4-cda8-4717-8470-2ecfe455c6e9,ofNJV,320-294-2924,FkdEiHwcJN@gmail.com,707 OonHihMHTWsp Dr,67384,Swizterland,IC
92ab25c8-832a-473a-9971-4b52fdb1f82f,IMmHBYInF,602-248-4705,zeDexHFFia@example.com,270 FmLoBAfQh Rd,42016,Holland,ENAC
993ba846-e4d3-4e65-b048-fe6ec40a914a,oLnoAMpT,803-979-8944,DEHJTLTglD@outlook.com,654 OHjwjtHoXjpzBm Blvd,77840,Luxembourg,STI
afff0436-0c27-47ca-82f2-e5d661a0dfd6,dypQcy,562-483-3420,CNhLUhbnNMK@gmail.com,188 SGRrwIkcYUmh Rd,82704,countries,IC
6579169f-a8f4-497e-83a3-936b06a93449,cMSQB,825-867-5623,MspYEYpzK@gmail.com,998 VSBDeqfe St,85041,Holland,SB
cd9cbb3d-90e7-43d6-b1d1-ae705bb25fdc,KfUhnjQ,956-996-6825,ISiqvBXR@gmail.com,107 EaYvdCstz Dr,35109,Japan,SV
3046fa3a-3529-4294-bfc9-9a90cb5b7f68,CQqsHv,389-873-30,nUWNNROSV@yahoo.com,528 nUFjCceFbnfu Blvd,63841,Morocco,ENAC
f26d34d8-4efc-4030-bc61-96371d9747c1,fpIYE,829-299-3936,ptMNsKEtUCm@outlook.com,528 QxSlVvjQXP Blvd,72837,Australia,SV
fbfa45c1-1dd5-4306-8df1-8090220380ab,mvCcgsRCG,881-622-4523,dkWvEXgjjl@yahoo.com,639 tuWjGkYjrqKUa Rd,66096,Egypt,SV
79496909-aeff-41ef-bf82-f4f4b8f3f69a,IuzWMJws,338-239-782,JDLspSiaRxl@outlook.com,632 sgYkAFXd Blvd,64872,New Zealand,SV
aec6115f-fc52-472b-becc-6f351ec9fea2,UUPAJbu,717-479-3829,JwUcupcs@outlook.com,572 EbisWiPNAQuV Rd,22286,Vietnam,SV
118a34e4-e50c-40bc-b5f3-5d8f2a14736c,pUvIM,823-930-8959,nADvNSYLB@example.com,880 KdeREhXUYYbb Ave,78005,Luxembourg,SV
e7abda31-f956-4f97-9d93-a3d3bf842b9a,MseBO,460-732-9356,VKpwEnMck@example.com,687 bxmSktmgjxlh Rd,56018,Algeria,STI
e5a47351-8c99-4c7f-bb31-0916884b9883,LOEEmkq,841-565-3960,vGPAKohcNTp@yahoo.com,550 bcFzzmdvQVoyR Ave,56482,Canada,SV
761b5a88-ff48-4472-896f-5ac0d5748a9e,eTPbH,900-959-9262,iWVKAbMniTb@example.com,827 oceUfHourp St,27780,Portual,STI
72bec3c6-7082-407e-a243-aafc6ddd3319,ofFloTgo,461-878-8091,JYFYNsSYdoC@example.com,843 MTJggqYPBF Ave,58404,United Kingdom,STI
d0b3d71a-6de6-4920-8e5d-eda0c48e603e,rlhLCyQnA,225-900-1088,bNsdmdyEk@outlook.com,635 vIInqGKCwJ St,78264,Nigeria,STI
e9c1f802-5709-4287-aa32-cd786138fd42,MKsXIUQ,974-464-1072,YPJfUGYOiJ@outlook.com,800 jactBcxyyMmn Ave,93662,Nigeria,ENAC
9cd8aead-37dc-464f-b2e8-bc8c224837c2,CChdmsJmN,597-290-5883,GMSkoYOmm@yahoo.com,115 GnAqEfVOvx Dr,13104,Morocco,ENAC
be640e1c-5d02-42e8-b52b-da947e499add,wVtamQNYq,870-412-9193,TQXTSfFo@yahoo.com,618 DChHpFkJY Blvd,46899,Spain,ENAC
e16c764b-1f4f-4c45-80dc-8df1e6f5e648,ALiEd,880-898-2881,qLDkAKDjrd@yahoo.com,695 wiPXANARd Blvd,62001,Spain,ENAC
946efbdd-5494-4850-b3a5-ab13f418154f,uoNCHK,287-517-2609,HMpEXUdIzE@gmail.com,272 mrnRkbXXkcs Rd,43000,Canada,SB
c1b5f0f7-ddd9-4a1a-a596-cfaab1ee9320,FUWEWhp,538-627-6080,jQHIBGuJKvP@example.com,689 wolOuozTSeJKLV Dr,43278,Italy,STI
fb77912d-e835-4592-9c18-d2da926ce493,lfPAcLN,812-380-976,ndkmkvegvLT@outlook.com,358 zrGRJeHpbKssOQ Blvd,36081,Vietnam,IC
75904497-8cf0-4982-af65-eac59bf06d54,hOecsbr,661-785-4429,MByQFnCAn@gmail.com,613 ovgAmkzLVV Ave,94761,Spain,IC
13a946e6-831a-473a-bf55-53b2bd513c42,sFYyR,228-743-2563,LauOklETpLn@example.com,312 oOQOqgeNOwO Dr,28141,United Kingdom,STI
38a6bd73-67aa-4cd1-bda8-f2042744c297,dcUBpGDt,706-972-2958,bLYyGxfw@yahoo.com,606 GjMpqxYcFVDnU Blvd,52751,Mexico,SV
f7e3278e-220e-4b11-b18a-e99a932b06c3,cadHNNDKx,350-844-5935,yBrKlWoCW@example.com,393 OPcswhlrvn Rd,58773,Australia,STI
fc8e28d9-43a8-47e0-9db3-40ad987ce32d,gGGkVOD,369-363-3145,PrNyiPsPt@example.com,295 BVhmXdcaF Rd,28626,countries,STI
94023d93-c4a8-4b37-9d5c-e48f15636caf,SUBzkMU,886-653-6841,xohAoMAs@yahoo.com,471 ezwsMThewk Ave,49152,Portual,IC
ef6d0419-a461-4104-853d-97816c2c0d6e,RNYckoP,709-202-9775,sRIpUnjQG@yahoo.com,400 BHISkFEtB Rd,25370,Holland,SB
84f5e30f-7328-44b7-8aa7-30e873b8e7a6,KnqGdX,816-829-537,fJWVxeBhj@yahoo.com,694 AVwuGevpCrTK Rd,69798,Belgium,SB
f7e4f6fb-6e92-4a99-ba21-00b21d4df278,BevckzjjU,354-854-8303,OkGhrdfd@example.com,935 XofDapmev St,68425,China,SV
d74f277c-e2ba-4a5e-8ccd-720b644bd002,FivXIT,855-440-2090,WHlfqWJjvQ@example.com,833 PkTJknljVQd Rd,67482,Germany,IC
2ba91330-733a-4f41-abd5-3da931cdc56d,gBUEryEAM,962-265-3738,aFLzBDVbDCD@example.com,954 JNMOpxcDcTKt St,10227,United Kingdom,IC
28cda704-b01f-44af-ac8e-7b4a4fb18355,JVBynWr,433-674-4907,MRXuquAwNJ@yahoo.com,642 VCXXXsChnFkDsb Rd,28296,Australia,STI
e70a6aa1-319e-4059-9e05-41f3d0686f7e,xvwMiLMsM,914-211-9715,fwjzwrLNf@yahoo.com,479 qWyBtGqYX Ave,73618,countries,SV
7e6208a3-8780-4477-afe4-eaf7aa058a7d,nDGDPswlt,366-224-5185,MiEySCwUnS@gmail.com,184 PkgLdoRXbALuUG St,92570,Morocco,IC
e15c7642-eca8-4b0d-b8c3-756ed8125d08,alhNWzhNR,205-412-1341,mLNnrNyzgrM@gmail.com,657 okpaBPmWDMoP Ave,86575,Italy,ENAC
fb60932e-f01c-49f1-b9fa-288ab35fae28,xEXBq,257-378-4658,Dnuptlmm@yahoo.com,357 UmhRPeKJXK Ave,43646,Egypt,SB
1983e6a1-a050-4b9e-9875-6d98628d4a4f,dQaotyHzv,985-636-1664,xRVPfpBqi@outlook.com,419 DAEUNEFijTMNAm St,57966,Vietnam,ENAC
f5eb99c7-689f-4b38-a14a-9319aaf1a139,yseoY,300-305-7909,nxHUErhY@example.com,683 zhXtkGJJY St,21356,New Zealand,STI
efa841df-5822-4ef7-866c-7f5c6b15bcc9,uJIMPdKe,328-745-6141,UULzjgHq@outlook.com,570 QHIVWVfosWmfs Rd,48419,Japan,STI
60c23a19-1e7a-4e4c-91dd-abe635aa309b,WKttasKND,779-395-8692,gWWhkOYxb@gmail.com,979 VYXATPsfKKE Ave,41246,France,STI
4c01b59e-e748-4c19-b67f-3b5f3efbaaf9,izikkq,569-226-1933,KAKjdYdcVk@gmail.com,257 TfcWngEWLGoKU Dr,53324,Vietnam,STI
72c7423d-0493-4eb5-9e72-7b15fb1afafa,sOwyx,613-280-3688,WSAjbTKhTKa@yahoo.com,752 UwukKfoOcv St,17455,Nigeria,ENAC
e8a05973-edf7-44a9-bc59-cb571790d7fc,kSpMzXhp,725-501-7682,csMkxUUBqmr@outlook.com,741 kIBEqUVq Ave,34909,United States,IC
c713e937-0da2-4280-9a4a-0b49944efb7d,OCVzeHU,705-515-7715,eneKDIJMBfV@yahoo.com,599 AqXPBCdlbkz Ave,52048,New Zealand,IC
316e202f-ec20-4099-83e9-d04a94f5421f,xczXEFxb,466-782-5656,RkWBIGBiq@gmail.com,156 sccpVnPFUdwvB Blvd,74477,Spain,SB
5b0ed738-ea38-4fde-b1a0-5fd87cde781f,OKNtWdQlG,593-519-4428,NhJoueHqkB@outlook.com,341 wGBKJHIf St,74526,Germany,STI
737866ec-b861-47d5-9731-5bc6b62c9067,HhcvLmNrj,889-491-8855,NTaKfwLtKj@gmail.com,819 asnyNIlHFjiH Ave,19236,Germany,ENAC
9a4f5a75-82e6-4880-b507-46243d889d61,RPmOWYtD,423-240-3470,DbglXBlBJYg@outlook.com,535 Etnzndor Blvd,58198,Canada,IC
fc4951ab-995d-47f9-9516-7eeca0fa601c,UcFVMAVDf,485-568-5751,rsSmTmxE@example.com,740 cKEvpSjzSntsjo St,26422,Swizterland,SB
421d487d-fe02-470a-87ca-73caf060d911,mBieBNrCF,375-497-885,zPaVCoYidmy@outlook.com,309 fLaEFrtxI Rd,84392,Vietnam,SV
dbc90c54-8c8a-4725-9828-2ae9bbd806e8,wSMzNfWS,542-771-9391,HNdFOEbSx@outlook.com,828 QywjbBSABCcBB Blvd,34939,France,IC
3c06c7e0-6ba8-46da-b283-21ccea44fe03,LLUzLvFwt,938-773-1407,mzwaQTjvsKK@yahoo.com,642 WCtbXXnbSBX Rd,12627,France,SB
721939f2-5832-42a3-a5a5-9a8efb9a23e9,MwpqQEgf,572-942-5568,GORxAnXgn@yahoo.com,341 GvGfbaUW Ave,56298,Mexico,ENAC
23a9fedf-407a-4dfb-b4c8-613e96f8d296,huOGP,440-369-9025,bsFOlCvB@yahoo.com,977 wIVdeNEzIFlQ Rd,76910,Portual,SB
95b1ef0d-f877-4ce8-b2b8-16a2e2c3597b,jinDjt,816-553-3501,oLnmMRwybWL@example.com,878 vqLDspzfv Blvd,27275,Egypt,STI
690bcf8e-4e21-4d38-9bfe-ff218ff880b2,aLfVEQSf,410-872-1474,isAfJluLNYa@example.com,635 zFFQwRArFQveQm Ave,49980,Spain,STI
e5256025-ab5f-4cb7-8ac3-7db085020036,DYhrIKD,561-399-7277,dUDnayQojO@example.com,995 NgMaJKgEW Dr,84732,United Kingdom,IC
5ec69162-9564-4121-a61f-38173c1dd3f1,mkqLeCIuz,879-852-892,FpmMWhuvx@example.com,182 otbzxgLTXwpVPN Ave,13030,Nigeria,SV
229a19e2-a620-42d3-ab89-07e49c54c610,WAxmkHLk,322-624-4208,XjdbLMiSmRM@gmail.com,608 tBIECUzO Blvd,86169,Canada,SV